Response and Fourier amplitude spectra (68 periods,  .04 -  3.4 sec)   for      
Corrected accelerogram   47796-M0115-07303.01       Chan  6:  90 Deg     from   
Uncorrected Accelerogram Data             Processed: 11/09/07, CDMG  ce47796d   
Record of Tue Oct 30, 2007 20:04:52.0 PDT             (Avol1 v7.5 7/07 CSMIP)   
CSMIP Preliminary Processing            (Origin:  To be determined)             
47796-M0115-07303.01                 Start time: 10/31/07, 03:04:52.0 UTC (GPS) 
Station No. 47796   36.697N, 121.632W    MtWtny  s/n  115 (15 Channels)         
Salinas - 3-story County Hospital         CGS                                   
Chan  6:  90 DegR                   Location: 3rd Floor: Near Center            
Record of Tue Oct 30, 2007 20:04:52.0 PDT    Tue Oct 30, 2007 20:04:52.0 PDT    
Hypocenter:  To be determined.               ML:  To be determined.
Instr Period =  .0200 sec,  Damping =  .700,  Sensitivity =  .63  v/g  (Nominal)
                        Record length = 76.000 sec.
                                     Uncor Max  =   .012 g , at  32.050 sec.
RMS accel of (uncor) record  =        .   Chn. metadata effective date: 01/01/04
Accelerogram bandpass filtered with 3 dB pts at   .30 and 40.00 cyc/sec
                 instrument- and baseline-corrected





Record of Tue Oct 30, 2007 20:04:52.0 PDT    Tue Oct 30, 2007 20:04:52.0 PDT

47796-M0115-07303.01      Salinas - 3-story County Hospital   Chan  6:  90 Deg

47796-M0115-07303.01      Salinas - 3-story County Hospital   Chan  6:  90 Deg

Units for spectra are inches and sec, except Sa is in fraction of g.

    6  100    6   18   15  200    1    3    1   24   13  115    047796    2    0
    3    4   52    0  304   10   31 2007   10    3   9015200   41   33   76   26
15200    0   50    3  115    1    1  760    2    0    0    0    0    0    0    0
    0    4    0    015200    1  220    1   18    4   76   33    0    0    015200
    315200   34   68    5   15    5    0    0    0   15    0    0    3    0    2
    2    2    4    0   72   99    0   32   32    0    1    1    0    0    0    0
    1    1   30    0
      .020      .700    76.000      .002      .000   625.000      .012    32.050
    50.000      .298      .477      .000     5.000      .000      .000      .000
     2.500     5.901     2.500  -999.000    25.000    30.000      .000      .001
      .021      .020     2.000    15.000    36.697  -121.632      .045      .736
    16.345     -.015      .056    26.000    25.800    45.700    12.800   106.340
     1.000    -1.017     7.000      .000      .000      .000      .000      .000
     3.000     7.500     4.600   980.665      .005    76.000     7.958      .000
      .000    40.000      .000    76.000      .005      .303      .000      .000
    32.045    12.287    36.520     1.359    45.840      .188      .000      .303
    40.000      .005      .005      .000      .005      .111      .000      .000
      .072      .320      .021      .059      .016      .002      .000      .000
      .000      .000      .000      .000      .000      .000      .000      .000
      .000      .000      .000      .000
      .000      .020      .050      .100      .200
      .040      .042      .044      .046      .048      .050      .055      .060
      .065      .070      .075      .080      .085      .090      .095      .100
      .110      .120      .130      .140      .150      .160      .170      .180
      .190      .200      .220      .240      .260      .280      .300      .320
      .340      .360      .380      .400      .420      .440      .460      .480
      .500      .550      .600      .650      .700      .750      .800      .850
      .900      .950     1.000     1.100     1.200     1.300     1.400     1.500
     1.600     1.700     1.800     1.900     2.000     2.200     2.400     2.600
     2.800     3.000     3.200     3.400      .000      .000      .000      .000
      .000      .000      .000      .000      .000      .000      .000      .000
      .000      .000      .000      .000      .000      .000      .000      .000
      .000      .000      .000      .000      .000      .000      .000      .000
      .000      .000      .000      .000
Fourier amplitude spectra in in/sec.
  .128E-01  .128E-01  .518E-02  .125E-02  .928E-02  .177E-01  .780E-02  .138E-01
  .163E-01  .442E-01  .378E-01  .536E-01  .669E-01  .610E-01  .830E-01  .162E+00
  .784E-01  .137E+00  .505E+00  .281E+00  .272E+00  .570E-01  .157E+00  .135E+00
  .249E+00  .112E+00  .253E+00  .289E+00  .594E+00  .102E+01  .246E+01  .282E+01
  .439E+01  .599E+01  .383E+01  .159E+01  .320E+00  .184E+01  .288E+01  .314E+01
  .106E+01  .265E+01  .182E+01  .141E+01  .437E+00  .364E+01  .325E+01  .492E+01
  .379E+01  .353E+01  .279E+01  .105E+01  .130E+01  .120E+01  .480E+01  .396E+01
  .141E+01  .434E+00  .219E+00  .107E+01  .115E+01  .246E+01  .110E+01  .607E+00
  .206E+00  .224E+00  .435E+00  .468E-01  .000E+00  .000E+00  .000E+00  .000E+00
  .000E+00  .000E+00  .000E+00  .000E+00  .000E+00  .000E+00  .000E+00  .000E+00
  .000E+00  .000E+00  .000E+00  .000E+00  .000E+00  .000E+00  .000E+00  .000E+00
  .000E+00  .000E+00  .000E+00  .000E+00  .000E+00  .000E+00  .000E+00  .000E+00
  .000E+00  .000E+00  .000E+00  .000E+00
Damping =  .00. Data of Sd,Sv,Sa,Pssv,ttSd,ttSv,ttSa :
  .214E-03  .255E-03  .264E-03  .354E-03  .359E-03  .371E-03  .426E-03  .507E-03
  .747E-03  .122E-02  .112E-02  .165E-02  .178E-02  .155E-02  .265E-02  .372E-02
  .349E-02  .475E-02  .150E-01  .835E-02  .107E-01  .719E-02  .939E-02  .742E-02
  .129E-01  .862E-02  .208E-01  .184E-01  .420E-01  .698E-01  .140E+00  .206E+00
  .381E+00  .370E+00  .294E+00  .152E+00  .994E-01  .163E+00  .228E+00  .276E+00
  .165E+00  .279E+00  .303E+00  .278E+00  .160E+00  .453E+00  .447E+00  .679E+00
  .600E+00  .593E+00  .573E+00  .260E+00  .372E+00  .409E+00  .112E+01  .104E+01
  .388E+00  .274E+00  .223E+00  .349E+00  .428E+00  .882E+00  .421E+00  .251E+00
  .194E+00  .171E+00  .222E+00  .150E+00  .000E+00  .000E+00  .000E+00  .000E+00
  .000E+00  .000E+00  .000E+00  .000E+00  .000E+00  .000E+00  .000E+00  .000E+00
  .000E+00  .000E+00  .000E+00  .000E+00  .000E+00  .000E+00  .000E+00  .000E+00
  .000E+00  .000E+00  .000E+00  .000E+00  .000E+00  .000E+00  .000E+00  .000E+00
  .000E+00  .000E+00  .000E+00  .000E+00
  .134E-01  .130E-01  .104E-01  .182E-01  .172E-01  .207E-01  .158E-01  .174E-01
  .337E-01  .685E-01  .490E-01  .832E-01  .961E-01  .639E-01  .118E+00  .192E+00
  .142E+00  .198E+00  .680E+00  .353E+00  .404E+00  .181E+00  .260E+00  .200E+00
  .314E+00  .205E+00  .491E+00  .404E+00  .901E+00  .144E+01  .285E+01  .404E+01
  .701E+01  .638E+01  .485E+01  .237E+01  .147E+01  .230E+01  .309E+01  .359E+01
  .205E+01  .316E+01  .328E+01  .261E+01  .145E+01  .381E+01  .348E+01  .499E+01
  .420E+01  .389E+01  .360E+01  .147E+01  .193E+01  .204E+01  .503E+01  .440E+01
  .165E+01  .116E+01  .107E+01  .118E+01  .130E+01  .255E+01  .110E+01  .878E+00
  .624E+00  .735E+00  .705E+00  .705E+00  .000E+00  .000E+00  .000E+00  .000E+00
  .000E+00  .000E+00  .000E+00  .000E+00  .000E+00  .000E+00  .000E+00  .000E+00
  .000E+00  .000E+00  .000E+00  .000E+00  .000E+00  .000E+00  .000E+00  .000E+00
  .000E+00  .000E+00  .000E+00  .000E+00  .000E+00  .000E+00  .000E+00  .000E+00
  .000E+00  .000E+00  .000E+00  .000E+00
  .137E-01  .148E-01  .139E-01  .171E-01  .159E-01  .152E-01  .144E-01  .144E-01
  .181E-01  .255E-01  .204E-01  .263E-01  .251E-01  .196E-01  .301E-01  .380E-01
  .295E-01  .337E-01  .908E-01  .436E-01  .487E-01  .287E-01  .332E-01  .234E-01
  .366E-01  .220E-01  .440E-01  .327E-01  .635E-01  .910E-01  .159E+00  .206E+00
  .337E+00  .292E+00  .208E+00  .973E-01  .576E-01  .863E-01  .110E+00  .123E+00
  .676E-01  .942E-01  .860E-01  .674E-01  .335E-01  .824E-01  .715E-01  .961E-01
  .757E-01  .672E-01  .586E-01  .219E-01  .264E-01  .248E-01  .582E-01  .473E-01
  .155E-01  .969E-02  .703E-02  .988E-02  .109E-01  .186E-01  .748E-02  .380E-02
  .253E-02  .195E-02  .221E-02  .133E-02  .000E+00  .000E+00  .000E+00  .000E+00
  .000E+00  .000E+00  .000E+00  .000E+00  .000E+00  .000E+00  .000E+00  .000E+00
  .000E+00  .000E+00  .000E+00  .000E+00  .000E+00  .000E+00  .000E+00  .000E+00
  .000E+00  .000E+00  .000E+00  .000E+00  .000E+00  .000E+00  .000E+00  .000E+00
  .000E+00  .000E+00  .000E+00  .000E+00
  .337E-01  .381E-01  .377E-01  .484E-01  .470E-01  .466E-01  .487E-01  .531E-01
  .722E-01  .110E+00  .939E-01  .129E+00  .131E+00  .108E+00  .176E+00  .234E+00
  .200E+00  .249E+00  .725E+00  .375E+00  .449E+00  .282E+00  .347E+00  .259E+00
  .427E+00  .271E+00  .594E+00  .482E+00  .101E+01  .157E+01  .292E+01  .405E+01
  .703E+01  .646E+01  .487E+01  .239E+01  .149E+01  .233E+01  .311E+01  .362E+01
  .208E+01  .318E+01  .317E+01  .269E+01  .144E+01  .380E+01  .351E+01  .502E+01
  .419E+01  .392E+01  .360E+01  .148E+01  .195E+01  .198E+01  .501E+01  .435E+01
  .153E+01  .101E+01  .777E+00  .115E+01  .134E+01  .252E+01  .110E+01  .607E+00
  .435E+00  .359E+00  .435E+00  .277E+00  .000E+00  .000E+00  .000E+00  .000E+00
  .000E+00  .000E+00  .000E+00  .000E+00  .000E+00  .000E+00  .000E+00  .000E+00
  .000E+00  .000E+00  .000E+00  .000E+00  .000E+00  .000E+00  .000E+00  .000E+00
  .000E+00  .000E+00  .000E+00  .000E+00  .000E+00  .000E+00  .000E+00  .000E+00
  .000E+00  .000E+00  .000E+00  .000E+00
  .290E+02  .317E+02  .291E+02  .320E+02  .291E+02  .366E+02  .320E+02  .319E+02
  .317E+02  .320E+02  .320E+02  .290E+02  .315E+02  .366E+02  .320E+02  .335E+02
  .317E+02  .290E+02  .335E+02  .315E+02  .355E+02  .290E+02  .317E+02  .291E+02
  .317E+02  .317E+02  .315E+02  .320E+02  .315E+02  .320E+02  .438E+02  .329E+02
  .331E+02  .455E+02  .383E+02  .435E+02  .396E+02  .492E+02  .640E+02  .450E+02
  .363E+02  .627E+02  .337E+02  .442E+02  .357E+02  .654E+02  .620E+02  .475E+02
  .633E+02  .634E+02  .587E+02  .695E+02  .587E+02  .369E+02  .715E+02  .621E+02
  .620E+02  .391E+02  .385E+02  .730E+02  .683E+02  .729E+02  .758E+02  .765E+02
  .405E+02  .459E+02  .773E+02  .606E+02  .000E+00  .000E+00  .000E+00  .000E+00
  .000E+00  .000E+00  .000E+00  .000E+00  .000E+00  .000E+00  .000E+00  .000E+00
  .000E+00  .000E+00  .000E+00  .000E+00  .000E+00  .000E+00  .000E+00  .000E+00
  .000E+00  .000E+00  .000E+00  .000E+00  .000E+00  .000E+00  .000E+00  .000E+00
  .000E+00  .000E+00  .000E+00  .000E+00
  .732E+02  .729E+02  .292E+02  .321E+02  .292E+02  .685E+02  .321E+02  .321E+02
  .316E+02  .358E+02  .354E+02  .287E+02  .310E+02  .534E+02  .319E+02  .335E+02
  .318E+02  .372E+02  .338E+02  .398E+02  .347E+02  .290E+02  .309E+02  .336E+02
  .312E+02  .318E+02  .321E+02  .319E+02  .316E+02  .321E+02  .437E+02  .330E+02
  .330E+02  .488E+02  .382E+02  .430E+02  .395E+02  .516E+02  .638E+02  .449E+02
  .359E+02  .628E+02  .336E+02  .443E+02  .355E+02  .656E+02  .622E+02  .477E+02
  .635E+02  .632E+02  .634E+02  .697E+02  .584E+02  .358E+02  .712E+02  .617E+02
  .440E+02  .394E+02  .365E+02  .735E+02  .657E+02  .735E+02  .752E+02  .456E+02
  .365E+02  .365E+02  .365E+02  .365E+02  .000E+00  .000E+00  .000E+00  .000E+00
  .000E+00  .000E+00  .000E+00  .000E+00  .000E+00  .000E+00  .000E+00  .000E+00
  .000E+00  .000E+00  .000E+00  .000E+00  .000E+00  .000E+00  .000E+00  .000E+00
  .000E+00  .000E+00  .000E+00  .000E+00  .000E+00  .000E+00  .000E+00  .000E+00
  .000E+00  .000E+00  .000E+00  .000E+00
  .290E+02  .317E+02  .291E+02  .320E+02  .291E+02  .366E+02  .320E+02  .319E+02
  .317E+02  .320E+02  .320E+02  .290E+02  .315E+02  .366E+02  .320E+02  .335E+02
  .317E+02  .290E+02  .335E+02  .315E+02  .355E+02  .290E+02  .317E+02  .291E+02
  .317E+02  .317E+02  .315E+02  .320E+02  .315E+02  .320E+02  .438E+02  .329E+02
  .331E+02  .455E+02  .383E+02  .435E+02  .396E+02  .492E+02  .640E+02  .450E+02
  .363E+02  .627E+02  .337E+02  .442E+02  .357E+02  .654E+02  .620E+02  .475E+02
  .633E+02  .634E+02  .587E+02  .695E+02  .587E+02  .369E+02  .715E+02  .621E+02
  .620E+02  .391E+02  .385E+02  .730E+02  .683E+02  .729E+02  .758E+02  .765E+02
  .405E+02  .459E+02  .773E+02  .606E+02  .000E+00  .000E+00  .000E+00  .000E+00
  .000E+00  .000E+00  .000E+00  .000E+00  .000E+00  .000E+00  .000E+00  .000E+00
  .000E+00  .000E+00  .000E+00  .000E+00  .000E+00  .000E+00  .000E+00  .000E+00
  .000E+00  .000E+00  .000E+00  .000E+00  .000E+00  .000E+00  .000E+00  .000E+00
  .000E+00  .000E+00  .000E+00  .000E+00
Damping =  .02. Data of Sd,Sv,Sa,Pssv,ttSd,ttSv,ttSa :
  .199E-03  .224E-03  .246E-03  .270E-03  .291E-03  .322E-03  .391E-03  .477E-03
  .583E-03  .707E-03  .794E-03  .962E-03  .998E-03  .124E-02  .157E-02  .161E-02
  .261E-02  .394E-02  .680E-02  .607E-02  .687E-02  .589E-02  .660E-02  .668E-02
  .814E-02  .813E-02  .132E-01  .147E-01  .282E-01  .499E-01  .717E-01  .116E+00
  .112E+00  .146E+00  .111E+00  .774E-01  .643E-01  .847E-01  .121E+00  .137E+00
  .129E+00  .101E+00  .152E+00  .156E+00  .137E+00  .236E+00  .237E+00  .306E+00
  .332E+00  .261E+00  .236E+00  .191E+00  .182E+00  .294E+00  .572E+00  .488E+00
  .265E+00  .231E+00  .192E+00  .199E+00  .268E+00  .435E+00  .295E+00  .200E+00
  .165E+00  .146E+00  .135E+00  .115E+00  .000E+00  .000E+00  .000E+00  .000E+00
  .000E+00  .000E+00  .000E+00  .000E+00  .000E+00  .000E+00  .000E+00  .000E+00
  .000E+00  .000E+00  .000E+00  .000E+00  .000E+00  .000E+00  .000E+00  .000E+00
  .000E+00  .000E+00  .000E+00  .000E+00  .000E+00  .000E+00  .000E+00  .000E+00
  .000E+00  .000E+00  .000E+00  .000E+00
  .477E-02  .581E-02  .638E-02  .689E-02  .750E-02  .826E-02  .116E-01  .127E-01
  .185E-01  .177E-01  .203E-01  .311E-01  .333E-01  .404E-01  .536E-01  .553E-01
  .100E+00  .155E+00  .269E+00  .246E+00  .227E+00  .179E+00  .167E+00  .148E+00
  .186E+00  .158E+00  .261E+00  .282E+00  .576E+00  .101E+01  .141E+01  .221E+01
  .204E+01  .249E+01  .184E+01  .129E+01  .104E+01  .129E+01  .178E+01  .194E+01
  .164E+01  .128E+01  .168E+01  .154E+01  .128E+01  .196E+01  .181E+01  .228E+01
  .230E+01  .178E+01  .150E+01  .123E+01  .107E+01  .152E+01  .263E+01  .222E+01
  .128E+01  .100E+01  .911E+00  .771E+00  .909E+00  .149E+01  .929E+00  .795E+00
  .649E+00  .709E+00  .698E+00  .688E+00  .000E+00  .000E+00  .000E+00  .000E+00
  .000E+00  .000E+00  .000E+00  .000E+00  .000E+00  .000E+00  .000E+00  .000E+00
  .000E+00  .000E+00  .000E+00  .000E+00  .000E+00  .000E+00  .000E+00  .000E+00
  .000E+00  .000E+00  .000E+00  .000E+00  .000E+00  .000E+00  .000E+00  .000E+00
  .000E+00  .000E+00  .000E+00  .000E+00
  .127E-01  .130E-01  .130E-01  .131E-01  .129E-01  .131E-01  .132E-01  .135E-01
  .141E-01  .147E-01  .144E-01  .154E-01  .141E-01  .157E-01  .178E-01  .165E-01
  .220E-01  .280E-01  .411E-01  .316E-01  .312E-01  .235E-01  .233E-01  .211E-01
  .231E-01  .208E-01  .279E-01  .261E-01  .427E-01  .652E-01  .815E-01  .116E+00
  .988E-01  .115E+00  .789E-01  .495E-01  .373E-01  .448E-01  .586E-01  .608E-01
  .528E-01  .341E-01  .433E-01  .377E-01  .285E-01  .429E-01  .380E-01  .433E-01
  .420E-01  .296E-01  .242E-01  .161E-01  .130E-01  .178E-01  .299E-01  .222E-01
  .106E-01  .817E-02  .607E-02  .565E-02  .686E-02  .920E-02  .524E-02  .304E-02
  .216E-02  .167E-02  .135E-02  .102E-02  .000E+00  .000E+00  .000E+00  .000E+00
  .000E+00  .000E+00  .000E+00  .000E+00  .000E+00  .000E+00  .000E+00  .000E+00
  .000E+00  .000E+00  .000E+00  .000E+00  .000E+00  .000E+00  .000E+00  .000E+00
  .000E+00  .000E+00  .000E+00  .000E+00  .000E+00  .000E+00  .000E+00  .000E+00
  .000E+00  .000E+00  .000E+00  .000E+00
  .313E-01  .335E-01  .351E-01  .369E-01  .381E-01  .404E-01  .446E-01  .499E-01
  .564E-01  .635E-01  .665E-01  .756E-01  .738E-01  .869E-01  .104E+00  .101E+00
  .149E+00  .206E+00  .329E+00  .272E+00  .288E+00  .231E+00  .244E+00  .233E+00
  .269E+00  .255E+00  .376E+00  .385E+00  .681E+00  .112E+01  .150E+01  .227E+01
  .206E+01  .254E+01  .184E+01  .122E+01  .961E+00  .121E+01  .165E+01  .179E+01
  .162E+01  .115E+01  .159E+01  .150E+01  .123E+01  .197E+01  .186E+01  .226E+01
  .232E+01  .173E+01  .148E+01  .109E+01  .955E+00  .142E+01  .257E+01  .205E+01
  .104E+01  .853E+00  .671E+00  .659E+00  .842E+00  .124E+01  .772E+00  .484E+00
  .371E+00  .307E+00  .265E+00  .213E+00  .000E+00  .000E+00  .000E+00  .000E+00
  .000E+00  .000E+00  .000E+00  .000E+00  .000E+00  .000E+00  .000E+00  .000E+00
  .000E+00  .000E+00  .000E+00  .000E+00  .000E+00  .000E+00  .000E+00  .000E+00
  .000E+00  .000E+00  .000E+00  .000E+00  .000E+00  .000E+00  .000E+00  .000E+00
  .000E+00  .000E+00  .000E+00  .000E+00
  .320E+02  .320E+02  .320E+02  .320E+02  .320E+02  .320E+02  .320E+02  .320E+02
  .319E+02  .320E+02  .321E+02  .319E+02  .319E+02  .319E+02  .320E+02  .320E+02
  .295E+02  .317E+02  .315E+02  .316E+02  .317E+02  .290E+02  .291E+02  .315E+02
  .317E+02  .317E+02  .315E+02  .317E+02  .317E+02  .320E+02  .340E+02  .326E+02
  .326E+02  .367E+02  .342E+02  .337E+02  .322E+02  .322E+02  .322E+02  .318E+02
  .318E+02  .319E+02  .317E+02  .309E+02  .304E+02  .459E+02  .464E+02  .369E+02
  .466E+02  .496E+02  .497E+02  .450E+02  .533E+02  .370E+02  .415E+02  .418E+02
  .412E+02  .391E+02  .384E+02  .483E+02  .524E+02  .520E+02  .458E+02  .459E+02
  .405E+02  .459E+02  .632E+02  .362E+02  .000E+00  .000E+00  .000E+00  .000E+00
  .000E+00  .000E+00  .000E+00  .000E+00  .000E+00  .000E+00  .000E+00  .000E+00
  .000E+00  .000E+00  .000E+00  .000E+00  .000E+00  .000E+00  .000E+00  .000E+00
  .000E+00  .000E+00  .000E+00  .000E+00  .000E+00  .000E+00  .000E+00  .000E+00
  .000E+00  .000E+00  .000E+00  .000E+00
  .310E+02  .321E+02  .310E+02  .321E+02  .321E+02  .316E+02  .310E+02  .321E+02
  .316E+02  .316E+02  .321E+02  .321E+02  .321E+02  .323E+02  .319E+02  .312E+02
  .294E+02  .310E+02  .313E+02  .314E+02  .319E+02  .311E+02  .309E+02  .319E+02
  .311E+02  .318E+02  .316E+02  .319E+02  .316E+02  .320E+02  .358E+02  .327E+02
  .327E+02  .360E+02  .341E+02  .338E+02  .323E+02  .323E+02  .321E+02  .319E+02
  .320E+02  .318E+02  .318E+02  .308E+02  .305E+02  .461E+02  .466E+02  .367E+02
  .463E+02  .456E+02  .495E+02  .453E+02  .440E+02  .352E+02  .418E+02  .415E+02
  .415E+02  .394E+02  .365E+02  .487E+02  .528E+02  .482E+02  .365E+02  .456E+02
  .365E+02  .365E+02  .365E+02  .365E+02  .000E+00  .000E+00  .000E+00  .000E+00
  .000E+00  .000E+00  .000E+00  .000E+00  .000E+00  .000E+00  .000E+00  .000E+00
  .000E+00  .000E+00  .000E+00  .000E+00  .000E+00  .000E+00  .000E+00  .000E+00
  .000E+00  .000E+00  .000E+00  .000E+00  .000E+00  .000E+00  .000E+00  .000E+00
  .000E+00  .000E+00  .000E+00  .000E+00
  .320E+02  .320E+02  .320E+02  .320E+02  .320E+02  .320E+02  .320E+02  .320E+02
  .319E+02  .320E+02  .320E+02  .319E+02  .319E+02  .319E+02  .320E+02  .320E+02
  .295E+02  .317E+02  .315E+02  .316E+02  .317E+02  .290E+02  .291E+02  .315E+02
  .317E+02  .317E+02  .315E+02  .317E+02  .317E+02  .320E+02  .340E+02  .326E+02
  .326E+02  .367E+02  .342E+02  .337E+02  .322E+02  .322E+02  .322E+02  .318E+02
  .318E+02  .319E+02  .317E+02  .309E+02  .304E+02  .459E+02  .464E+02  .369E+02
  .466E+02  .496E+02  .497E+02  .450E+02  .533E+02  .370E+02  .415E+02  .418E+02
  .412E+02  .391E+02  .384E+02  .482E+02  .524E+02  .519E+02  .458E+02  .459E+02
  .404E+02  .458E+02  .631E+02  .362E+02  .000E+00  .000E+00  .000E+00  .000E+00
  .000E+00  .000E+00  .000E+00  .000E+00  .000E+00  .000E+00  .000E+00  .000E+00
  .000E+00  .000E+00  .000E+00  .000E+00  .000E+00  .000E+00  .000E+00  .000E+00
  .000E+00  .000E+00  .000E+00  .000E+00  .000E+00  .000E+00  .000E+00  .000E+00
  .000E+00  .000E+00  .000E+00  .000E+00
Damping =  .05. Data of Sd,Sv,Sa,Pssv,ttSd,ttSv,ttSa :
  .200E-03  .223E-03  .245E-03  .268E-03  .292E-03  .318E-03  .389E-03  .473E-03
