Response and Fourier amplitude spectra (68 periods,  .04 -  3.4 sec)   for      
Corrected accelerogram   47796-M0115-07303.01       Chan  7:  90 Deg     from   
Uncorrected Accelerogram Data             Processed: 11/09/07, CDMG  ce47796d   
Record of Tue Oct 30, 2007 20:04:52.0 PDT             (Avol1 v7.5 7/07 CSMIP)   
CSMIP Preliminary Processing            (Origin:  To be determined)             
47796-M0115-07303.01                 Start time: 10/31/07, 03:04:52.0 UTC (GPS) 
Station No. 47796   36.697N, 121.632W    MtWtny  s/n  115 (15 Channels)         
Salinas - 3-story County Hospital         CGS                                   
Chan  7:  90 DegR                   Location: 3rd Floor: South End              
Record of Tue Oct 30, 2007 20:04:52.0 PDT    Tue Oct 30, 2007 20:04:52.0 PDT    
Hypocenter:  To be determined.               ML:  To be determined.
Instr Period =  .0200 sec,  Damping =  .700,  Sensitivity =  .63  v/g  (Nominal)
                        Record length = 76.000 sec.
                                     Uncor Max  =  -.020 g , at  31.510 sec.
RMS accel of (uncor) record  =        .   Chn. metadata effective date: 01/01/04
Accelerogram bandpass filtered with 3 dB pts at   .30 and 40.00 cyc/sec
                 instrument- and baseline-corrected





Record of Tue Oct 30, 2007 20:04:52.0 PDT    Tue Oct 30, 2007 20:04:52.0 PDT

47796-M0115-07303.01      Salinas - 3-story County Hospital   Chan  7:  90 Deg

47796-M0115-07303.01      Salinas - 3-story County Hospital   Chan  7:  90 Deg

Units for spectra are inches and sec, except Sa is in fraction of g.

    7  100    7   18   15  200    1    3    1   24   13  115    047796    2    0
    3    4   52    0  304   10   31 2007   10    3   9015200   41   33   76   26
15200    0   50    3  115    1    1  760    2    0    0    0    0    0    0    0
    0    4    0    015200    1  220    1   18    4   76   33    0    0    015200
    315200   34   68    5   15    5    0    0    0   15    0    0    3    0    2
    2    2    4    0   72   99    0   32   32    0    1    1    0    0    0    0
    1    1   35    0
      .020      .700    76.000      .003      .000   625.000     -.020    31.510
    50.000      .298      .477      .000     5.000      .000      .000      .000
     2.500   -23.325     2.500  -999.000    25.000    30.000      .000     -.001
      .013      .013     2.000    15.000    36.697  -121.632      .066      .783
    11.866     -.024      .051    26.000    25.800    45.700    12.800   106.340
     1.000     1.078     7.000      .000      .000      .000      .000      .000
     3.000     7.500     4.600   980.665      .005    76.000     7.958      .000
      .000    40.000      .000    76.000      .005      .303      .000      .000
    31.505   -19.249    31.590    -1.537    45.865      .189      .000      .303
    40.000      .005      .005      .000      .005      .118      .000      .000
      .115      .320      .034      .101      .017      .002      .000      .000
      .000      .000      .000      .000      .000      .000      .000      .000
      .000      .000      .000      .000
      .000      .020      .050      .100      .200
      .040      .042      .044      .046      .048      .050      .055      .060
      .065      .070      .075      .080      .085      .090      .095      .100
      .110      .120      .130      .140      .150      .160      .170      .180
      .190      .200      .220      .240      .260      .280      .300      .320
      .340      .360      .380      .400      .420      .440      .460      .480
      .500      .550      .600      .650      .700      .750      .800      .850
      .900      .950     1.000     1.100     1.200     1.300     1.400     1.500
     1.600     1.700     1.800     1.900     2.000     2.200     2.400     2.600
     2.800     3.000     3.200     3.400      .000      .000      .000      .000
      .000      .000      .000      .000      .000      .000      .000      .000
      .000      .000      .000      .000      .000      .000      .000      .000
      .000      .000      .000      .000      .000      .000      .000      .000
      .000      .000      .000      .000
Fourier amplitude spectra in in/sec.
  .313E-01  .228E-01  .433E-01  .162E-01  .409E-01  .160E-01  .241E-01  .114E-01
  .830E-01  .552E-02  .495E-01  .129E+00  .853E-01  .162E+00  .147E+00  .103E+00
  .249E+00  .383E+00  .188E+00  .289E+00  .613E-01  .339E+00  .803E-01  .123E+00
  .170E+00  .228E-01  .421E+00  .127E+01  .749E+00  .105E+01  .760E+01  .592E+01
  .521E+01  .535E+01  .383E+01  .293E+01  .119E+01  .211E+01  .178E+01  .524E+01
  .330E+01  .288E+01  .172E+01  .162E+01  .220E+01  .353E+01  .263E+01  .392E+01
  .435E+01  .339E+01  .278E+01  .151E+01  .132E+01  .110E+01  .505E+01  .389E+01
  .136E+01  .642E+00  .413E+00  .111E+01  .117E+01  .254E+01  .107E+01  .648E+00
  .212E+00  .237E+00  .455E+00  .538E-01  .000E+00  .000E+00  .000E+00  .000E+00
  .000E+00  .000E+00  .000E+00  .000E+00  .000E+00  .000E+00  .000E+00  .000E+00
  .000E+00  .000E+00  .000E+00  .000E+00  .000E+00  .000E+00  .000E+00  .000E+00
  .000E+00  .000E+00  .000E+00  .000E+00  .000E+00  .000E+00  .000E+00  .000E+00
  .000E+00  .000E+00  .000E+00  .000E+00
Damping =  .00. Data of Sd,Sv,Sa,Pssv,ttSd,ttSv,ttSa :
  .462E-03  .425E-03  .615E-03  .523E-03  .789E-03  .575E-03  .738E-03  .820E-03
  .142E-02  .962E-03  .151E-02  .234E-02  .306E-02  .392E-02  .396E-02  .325E-02
  .514E-02  .127E-01  .898E-02  .105E-01  .875E-02  .162E-01  .990E-02  .150E-01
  .161E-01  .175E-01  .326E-01  .593E-01  .721E-01  .103E+00  .387E+00  .347E+00
  .411E+00  .360E+00  .269E+00  .222E+00  .176E+00  .204E+00  .220E+00  .412E+00
  .316E+00  .301E+00  .302E+00  .269E+00  .315E+00  .461E+00  .390E+00  .539E+00
  .697E+00  .555E+00  .576E+00  .373E+00  .356E+00  .436E+00  .117E+01  .110E+01
  .399E+00  .291E+00  .225E+00  .367E+00  .424E+00  .918E+00  .410E+00  .268E+00
  .198E+00  .170E+00  .232E+00  .163E+00  .000E+00  .000E+00  .000E+00  .000E+00
  .000E+00  .000E+00  .000E+00  .000E+00  .000E+00  .000E+00  .000E+00  .000E+00
  .000E+00  .000E+00  .000E+00  .000E+00  .000E+00  .000E+00  .000E+00  .000E+00
  .000E+00  .000E+00  .000E+00  .000E+00  .000E+00  .000E+00  .000E+00  .000E+00
  .000E+00  .000E+00  .000E+00  .000E+00
  .345E-01  .232E-01  .454E-01  .253E-01  .568E-01  .282E-01  .297E-01  .256E-01
  .864E-01  .272E-01  .720E-01  .132E+00  .160E+00  .195E+00  .184E+00  .112E+00
  .259E+00  .572E+00  .366E+00  .402E+00  .261E+00  .512E+00  .259E+00  .371E+00
  .350E+00  .423E+00  .760E+00  .144E+01  .162E+01  .226E+01  .803E+01  .682E+01
  .758E+01  .628E+01  .445E+01  .350E+01  .259E+01  .285E+01  .313E+01  .537E+01
  .392E+01  .341E+01  .338E+01  .254E+01  .279E+01  .387E+01  .305E+01  .398E+01
  .485E+01  .363E+01  .361E+01  .210E+01  .187E+01  .222E+01  .526E+01  .461E+01
  .179E+01  .133E+01  .115E+01  .123E+01  .132E+01  .263E+01  .112E+01  .858E+00
  .753E+00  .783E+00  .752E+00  .752E+00  .000E+00  .000E+00  .000E+00  .000E+00
  .000E+00  .000E+00  .000E+00  .000E+00  .000E+00  .000E+00  .000E+00  .000E+00
  .000E+00  .000E+00  .000E+00  .000E+00  .000E+00  .000E+00  .000E+00  .000E+00
  .000E+00  .000E+00  .000E+00  .000E+00  .000E+00  .000E+00  .000E+00  .000E+00
  .000E+00  .000E+00  .000E+00  .000E+00
  .295E-01  .246E-01  .325E-01  .253E-01  .350E-01  .235E-01  .249E-01  .233E-01
  .345E-01  .201E-01  .274E-01  .374E-01  .433E-01  .496E-01  .449E-01  .333E-01
  .435E-01  .900E-01  .544E-01  .550E-01  .398E-01  .646E-01  .350E-01  .475E-01
  .457E-01  .447E-01  .690E-01  .105E+00  .109E+00  .134E+00  .440E+00  .346E+00
  .364E+00  .284E+00  .191E+00  .142E+00  .102E+00  .108E+00  .106E+00  .183E+00
  .129E+00  .102E+00  .857E-01  .652E-01  .658E-01  .838E-01  .623E-01  .763E-01
  .880E-01  .628E-01  .590E-01  .315E-01  .253E-01  .264E-01  .611E-01  .499E-01
  .160E-01  .103E-01  .710E-02  .104E-01  .108E-01  .194E-01  .728E-02  .406E-02
  .258E-02  .193E-02  .232E-02  .144E-02  .000E+00  .000E+00  .000E+00  .000E+00
  .000E+00  .000E+00  .000E+00  .000E+00  .000E+00  .000E+00  .000E+00  .000E+00
  .000E+00  .000E+00  .000E+00  .000E+00  .000E+00  .000E+00  .000E+00  .000E+00
  .000E+00  .000E+00  .000E+00  .000E+00  .000E+00  .000E+00  .000E+00  .000E+00
  .000E+00  .000E+00  .000E+00  .000E+00
  .725E-01  .636E-01  .878E-01  .715E-01  .103E+00  .723E-01  .843E-01  .859E-01
  .138E+00  .863E-01  .126E+00  .184E+00  .226E+00  .274E+00  .262E+00  .204E+00
  .294E+00  .664E+00  .434E+00  .473E+00  .367E+00  .635E+00  .366E+00  .525E+00
  .533E+00  .549E+00  .932E+00  .155E+01  .174E+01  .230E+01  .811E+01  .681E+01
  .760E+01  .628E+01  .445E+01  .349E+01  .264E+01  .292E+01  .301E+01  .539E+01
  .397E+01  .344E+01  .316E+01  .260E+01  .283E+01  .386E+01  .306E+01  .398E+01
  .487E+01  .367E+01  .362E+01  .213E+01  .186E+01  .211E+01  .525E+01  .459E+01
  .157E+01  .108E+01  .785E+00  .121E+01  .133E+01  .262E+01  .107E+01  .648E+00
  .444E+00  .356E+00  .455E+00  .301E+00  .000E+00  .000E+00  .000E+00  .000E+00
  .000E+00  .000E+00  .000E+00  .000E+00  .000E+00  .000E+00  .000E+00  .000E+00
  .000E+00  .000E+00  .000E+00  .000E+00  .000E+00  .000E+00  .000E+00  .000E+00
  .000E+00  .000E+00  .000E+00  .000E+00  .000E+00  .000E+00  .000E+00  .000E+00
  .000E+00  .000E+00  .000E+00  .000E+00
  .315E+02  .317E+02  .315E+02  .300E+02  .315E+02  .315E+02  .300E+02  .315E+02
  .319E+02  .315E+02  .347E+02  .317E+02  .299E+02  .317E+02  .347E+02  .300E+02
  .290E+02  .316E+02  .347E+02  .300E+02  .307E+02  .347E+02  .290E+02  .347E+02
  .317E+02  .315E+02  .317E+02  .348E+02  .320E+02  .376E+02  .480E+02  .326E+02
  .326E+02  .408E+02  .408E+02  .429E+02  .396E+02  .442E+02  .322E+02  .639E+02
  .441E+02  .627E+02  .317E+02  .484E+02  .625E+02  .654E+02  .601E+02  .726E+02
  .633E+02  .635E+02  .587E+02  .695E+02  .587E+02  .369E+02  .715E+02  .606E+02
  .436E+02  .392E+02  .385E+02  .730E+02  .683E+02  .730E+02  .758E+02  .765E+02
  .405E+02  .459E+02  .773E+02  .606E+02  .000E+00  .000E+00  .000E+00  .000E+00
  .000E+00  .000E+00  .000E+00  .000E+00  .000E+00  .000E+00  .000E+00  .000E+00
  .000E+00  .000E+00  .000E+00  .000E+00  .000E+00  .000E+00  .000E+00  .000E+00
  .000E+00  .000E+00  .000E+00  .000E+00  .000E+00  .000E+00  .000E+00  .000E+00
  .000E+00  .000E+00  .000E+00  .000E+00
  .526E+02  .726E+02  .699E+02  .300E+02  .306E+02  .221E+02  .296E+02  .306E+02
  .604E+02  .300E+02  .348E+02  .717E+02  .289E+02  .316E+02  .352E+02  .200E+02
  .496E+02  .318E+02  .392E+02  .303E+02  .307E+02  .347E+02  .302E+02  .346E+02
  .316E+02  .321E+02  .350E+02  .349E+02  .319E+02  .377E+02  .481E+02  .342E+02
  .327E+02  .409E+02  .409E+02  .430E+02  .397E+02  .443E+02  .321E+02  .638E+02
  .442E+02  .628E+02  .318E+02  .486E+02  .613E+02  .656E+02  .599E+02  .728E+02
  .635E+02  .632E+02  .584E+02  .692E+02  .482E+02  .352E+02  .712E+02  .609E+02
  .440E+02  .394E+02  .365E+02  .735E+02  .638E+02  .735E+02  .456E+02  .456E+02
  .316E+02  .365E+02  .365E+02  .365E+02  .000E+00  .000E+00  .000E+00  .000E+00
  .000E+00  .000E+00  .000E+00  .000E+00  .000E+00  .000E+00  .000E+00  .000E+00
  .000E+00  .000E+00  .000E+00  .000E+00  .000E+00  .000E+00  .000E+00  .000E+00
  .000E+00  .000E+00  .000E+00  .000E+00  .000E+00  .000E+00  .000E+00  .000E+00
  .000E+00  .000E+00  .000E+00  .000E+00
  .315E+02  .317E+02  .315E+02  .300E+02  .315E+02  .315E+02  .300E+02  .315E+02
  .319E+02  .315E+02  .347E+02  .317E+02  .299E+02  .317E+02  .347E+02  .300E+02
  .290E+02  .316E+02  .347E+02  .300E+02  .307E+02  .347E+02  .290E+02  .347E+02
  .317E+02  .315E+02  .317E+02  .348E+02  .320E+02  .376E+02  .480E+02  .326E+02
  .326E+02  .408E+02  .408E+02  .429E+02  .396E+02  .442E+02  .322E+02  .639E+02
  .441E+02  .627E+02  .317E+02  .484E+02  .625E+02  .654E+02  .601E+02  .726E+02
  .633E+02  .635E+02  .587E+02  .695E+02  .587E+02  .369E+02  .715E+02  .606E+02
  .436E+02  .392E+02  .385E+02  .730E+02  .683E+02  .730E+02  .758E+02  .765E+02
  .405E+02  .459E+02  .773E+02  .606E+02  .000E+00  .000E+00  .000E+00  .000E+00
  .000E+00  .000E+00  .000E+00  .000E+00  .000E+00  .000E+00  .000E+00  .000E+00
  .000E+00  .000E+00  .000E+00  .000E+00  .000E+00  .000E+00  .000E+00  .000E+00
  .000E+00  .000E+00  .000E+00  .000E+00  .000E+00  .000E+00  .000E+00  .000E+00
  .000E+00  .000E+00  .000E+00  .000E+00
Damping =  .02. Data of Sd,Sv,Sa,Pssv,ttSd,ttSv,ttSa :
  .332E-03  .363E-03  .392E-03  .428E-03  .451E-03  .494E-03  .604E-03  .736E-03
  .897E-03  .986E-03  .119E-02  .132E-02  .167E-02  .192E-02  .225E-02  .254E-02
  .362E-02  .575E-02  .525E-02  .619E-02  .654E-02  .743E-02  .909E-02  .100E-01
  .117E-01  .135E-01  .209E-01  .360E-01  .561E-01  .875E-01  .155E+00  .189E+00
  .141E+00  .147E+00  .133E+00  .101E+00  .888E-01  .963E-01  .155E+00  .189E+00
  .187E+00  .117E+00  .156E+00  .153E+00  .148E+00  .211E+00  .207E+00  .269E+00
  .345E+00  .277E+00  .266E+00  .231E+00  .202E+00  .316E+00  .605E+00  .534E+00
  .298E+00  .247E+00  .193E+00  .222E+00  .281E+00  .444E+00  .304E+00  .199E+00
  .170E+00  .146E+00  .145E+00  .115E+00  .000E+00  .000E+00  .000E+00  .000E+00
  .000E+00  .000E+00  .000E+00  .000E+00  .000E+00  .000E+00  .000E+00  .000E+00
  .000E+00  .000E+00  .000E+00  .000E+00  .000E+00  .000E+00  .000E+00  .000E+00
  .000E+00  .000E+00  .000E+00  .000E+00  .000E+00  .000E+00  .000E+00  .000E+00
  .000E+00  .000E+00  .000E+00  .000E+00
  .104E-01  .102E-01  .100E-01  .106E-01  .100E-01  .107E-01  .147E-01  .188E-01
  .259E-01  .241E-01  .310E-01  .415E-01  .532E-01  .677E-01  .618E-01  .732E-01
  .144E+00  .240E+00  .185E+00  .200E+00  .183E+00  .178E+00  .212E+00  .269E+00
  .240E+00  .296E+00  .429E+00  .825E+00  .122E+01  .185E+01  .308E+01  .372E+01
  .266E+01  .248E+01  .234E+01  .168E+01  .135E+01  .140E+01  .223E+01  .267E+01
  .240E+01  .165E+01  .181E+01  .180E+01  .157E+01  .174E+01  .173E+01  .203E+01
  .241E+01  .185E+01  .163E+01  .136E+01  .123E+01  .166E+01  .278E+01  .249E+01
  .149E+01  .118E+01  .992E+00  .867E+00  .886E+00  .153E+01  .100E+01  .783E+00
  .723E+00  .758E+00  .746E+00  .736E+00  .000E+00  .000E+00  .000E+00  .000E+00
  .000E+00  .000E+00  .000E+00  .000E+00  .000E+00  .000E+00  .000E+00  .000E+00
  .000E+00  .000E+00  .000E+00  .000E+00  .000E+00  .000E+00  .000E+00  .000E+00
  .000E+00  .000E+00  .000E+00  .000E+00  .000E+00  .000E+00  .000E+00  .000E+00
  .000E+00  .000E+00  .000E+00  .000E+00
  .212E-01  .210E-01  .207E-01  .207E-01  .200E-01  .202E-01  .204E-01  .209E-01
  .217E-01  .206E-01  .216E-01  .211E-01  .237E-01  .242E-01  .255E-01  .260E-01
  .305E-01  .408E-01  .318E-01  .324E-01  .298E-01  .298E-01  .322E-01  .317E-01
  .330E-01  .346E-01  .441E-01  .640E-01  .851E-01  .114E+00  .177E+00  .189E+00
  .125E+00  .116E+00  .945E-01  .645E-01  .515E-01  .509E-01  .748E-01  .837E-01
  .765E-01  .395E-01  .443E-01  .371E-01  .310E-01  .385E-01  .332E-01  .381E-01
  .435E-01  .314E-01  .272E-01  .195E-01  .144E-01  .191E-01  .316E-01  .243E-01
  .119E-01  .876E-02  .610E-02  .631E-02  .718E-02  .938E-02  .541E-02  .301E-02
  .223E-02  .167E-02  .145E-02  .102E-02  .000E+00  .000E+00  .000E+00  .000E+00
  .000E+00  .000E+00  .000E+00  .000E+00  .000E+00  .000E+00  .000E+00  .000E+00
  .000E+00  .000E+00  .000E+00  .000E+00  .000E+00  .000E+00  .000E+00  .000E+00
  .000E+00  .000E+00  .000E+00  .000E+00  .000E+00  .000E+00  .000E+00  .000E+00
  .000E+00  .000E+00  .000E+00  .000E+00
  .521E-01  .542E-01  .560E-01  .584E-01  .590E-01  .620E-01  .690E-01  .770E-01
  .867E-01  .885E-01  .996E-01  .103E+00  .124E+00  .134E+00  .149E+00  .160E+00
  .207E+00  .301E+00  .254E+00  .278E+00  .274E+00  .292E+00  .336E+00  .351E+00
  .385E+00  .425E+00  .597E+00  .943E+00  .136E+01  .196E+01  .325E+01  .371E+01
  .261E+01  .257E+01  .220E+01  .158E+01  .133E+01  .137E+01  .211E+01  .247E+01
  .235E+01  .133E+01  .163E+01  .148E+01  .133E+01  .177E+01  .163E+01  .199E+01
  .241E+01  .183E+01  .167E+01  .132E+01  .106E+01  .153E+01  .271E+01  .224E+01
  .117E+01  .914E+00  .674E+00  .735E+00  .882E+00  .127E+01  .796E+00  .480E+00
  .382E+00  .306E+00  .285E+00  .213E+00  .000E+00  .000E+00  .000E+00  .000E+00
  .000E+00  .000E+00  .000E+00  .000E+00  .000E+00  .000E+00  .000E+00  .000E+00
  .000E+00  .000E+00  .000E+00  .000E+00  .000E+00  .000E+00  .000E+00  .000E+00
  .000E+00  .000E+00  .000E+00  .000E+00  .000E+00  .000E+00  .000E+00  .000E+00
  .000E+00  .000E+00  .000E+00  .000E+00
  .300E+02  .300E+02  .300E+02  .300E+02  .315E+02  .315E+02  .315E+02  .315E+02
  .315E+02  .300E+02  .300E+02  .315E+02  .317E+02  .315E+02  .300E+02  .300E+02
  .300E+02  .315E+02  .299E+02  .318E+02  .315E+02  .307E+02  .315E+02  .320E+02
  .317E+02  .315E+02  .317E+02  .347E+02  .351E+02  .355E+02  .317E+02  .321E+02
  .321E+02  .367E+02  .351E+02  .322E+02  .302E+02  .303E+02  .320E+02  .318E+02
  .318E+02  .316E+02  .317E+02  .309E+02  .307E+02  .460E+02  .305E+02  .370E+02
  .466E+02  .496E+02  .497E+02  .451E+02  .467E+02  .356E+02  .415E+02  .418E+02
  .412E+02  .391E+02  .384E+02  .483E+02  .484E+02  .510E+02  .459E+02  .459E+02
  .405E+02  .459E+02  .632E+02  .606E+02  .000E+00  .000E+00  .000E+00  .000E+00
  .000E+00  .000E+00  .000E+00  .000E+00  .000E+00  .000E+00  .000E+00  .000E+00
  .000E+00  .000E+00  .000E+00  .000E+00  .000E+00  .000E+00  .000E+00  .000E+00
  .000E+00  .000E+00  .000E+00  .000E+00  .000E+00  .000E+00  .000E+00  .000E+00
  .000E+00  .000E+00  .000E+00  .000E+00
  .300E+02  .300E+02  .300E+02  .300E+02  .306E+02  .300E+02  .316E+02  .300E+02
  .316E+02  .308E+02  .308E+02  .308E+02  .319E+02  .316E+02  .319E+02  .300E+02
  .300E+02  .301E+02  .289E+02  .303E+02  .322E+02  .319E+02  .319E+02  .319E+02
  .319E+02  .304E+02  .304E+02  .348E+02  .351E+02  .354E+02  .316E+02  .322E+02
  .322E+02  .366E+02  .350E+02  .321E+02  .321E+02  .321E+02  .321E+02  .319E+02
  .317E+02  .318E+02  .316E+02  .308E+02  .306E+02  .306E+02  .316E+02  .368E+02
  .473E+02  .498E+02  .495E+02  .453E+02  .482E+02  .352E+02  .419E+02  .415E+02
  .415E+02  .394E+02  .365E+02  .486E+02  .529E+02  .482E+02  .365E+02  .456E+02
  .316E+02  .365E+02  .365E+02  .365E+02  .000E+00  .000E+00  .000E+00  .000E+00
  .000E+00  .000E+00  .000E+00  .000E+00  .000E+00  .000E+00  .000E+00  .000E+00
  .000E+00  .000E+00  .000E+00  .000E+00  .000E+00  .000E+00  .000E+00  .000E+00
  .000E+00  .000E+00  .000E+00  .000E+00  .000E+00  .000E+00  .000E+00  .000E+00
  .000E+00  .000E+00  .000E+00  .000E+00
  .300E+02  .300E+02  .300E+02  .300E+02  .315E+02  .315E+02  .315E+02  .315E+02
  .315E+02  .300E+02  .300E+02  .315E+02  .317E+02  .315E+02  .300E+02  .300E+02
  .300E+02  .315E+02  .299E+02  .318E+02  .315E+02  .307E+02  .315E+02  .320E+02
  .317E+02  .315E+02  .317E+02  .347E+02  .351E+02  .355E+02  .315E+02  .321E+02
  .321E+02  .367E+02  .351E+02  .322E+02  .302E+02  .303E+02  .320E+02  .318E+02
  .318E+02  .316E+02  .317E+02  .309E+02  .307E+02  .460E+02  .305E+02  .369E+02
  .466E+02  .496E+02  .497E+02  .451E+02  .467E+02  .356E+02  .415E+02  .418E+02
  .412E+02  .391E+02  .384E+02  .483E+02  .483E+02  .510E+02  .459E+02  .459E+02
  .405E+02  .459E+02  .631E+02  .605E+02  .000E+00  .000E+00  .000E+00  .000E+00
  .000E+00  .000E+00  .000E+00  .000E+00  .000E+00  .000E+00  .000E+00  .000E+00
  .000E+00  .000E+00  .000E+00  .000E+00  .000E+00  .000E+00  .000E+00  .000E+00
  .000E+00  .000E+00  .000E+00  .000E+00  .000E+00  .000E+00  .000E+00  .000E+00
  .000E+00  .000E+00  .000E+00  .000E+00
Damping =  .05. Data of Sd,Sv,Sa,Pssv,ttSd,ttSv,ttSa :
  .322E-03  .355E-03  .387E-03  .419E-03  .452E-03  .494E-03  .599E-03  .717E-03
