Response and Fourier amplitude spectra (68 periods,  .04 -  3.4 sec)   for      
Corrected accelerogram   47796-M0115-07303.01       Chan 13: 360 Deg     from   
Uncorrected Accelerogram Data             Processed: 11/09/07, CDMG  ce47796d   
Record of Tue Oct 30, 2007 20:04:52.0 PDT             (Avol1 v7.5 7/07 CSMIP)   
CSMIP Preliminary Processing            (Origin:  To be determined)             
47796-M0115-07303.01                 Start time: 10/31/07, 03:04:52.0 UTC (GPS) 
Station No. 47796   36.697N, 121.632W    MtWtny  s/n  115 (15 Channels)         
Salinas - 3-story County Hospital         CGS                                   
Chan 13: 360 DegR                   Location: Roof: East End                    
Record of Tue Oct 30, 2007 20:04:52.0 PDT    Tue Oct 30, 2007 20:04:52.0 PDT    
Hypocenter:  To be determined.               ML:  To be determined.
Instr Period =  .0200 sec,  Damping =  .700,  Sensitivity =  .63  v/g  (Nominal)
                        Record length = 76.000 sec.
                                     Uncor Max  =  -.052 g , at  30.200 sec.
RMS accel of (uncor) record  =        .   Chn. metadata effective date: 01/01/04
Accelerogram bandpass filtered with 3 dB pts at   .30 and 40.00 cyc/sec
                 instrument- and baseline-corrected





Record of Tue Oct 30, 2007 20:04:52.0 PDT    Tue Oct 30, 2007 20:04:52.0 PDT

47796-M0115-07303.01      Salinas - 3-story County Hospital   Chan 13: 360 Deg

47796-M0115-07303.01      Salinas - 3-story County Hospital   Chan 13: 360 Deg

Units for spectra are inches and sec, except Sa is in fraction of g.

   13  100   13   18   15  200    1    3    1   24   13  115    047796    2    0
    3    4   52    0  304   10   31 2007   10    3  36015200   41   33   76   26
15200    0   50    3  115    1    1  760    2    0    0    0    0    0    0    0
    0    4    0    015200    1  220    1   18    4   76   33    0    0    015200
    315200   34   68    5   15    5    0    0    0   15    0    0    3    0    2
    2    2    4    0   72   99    0   32   32    0    1    1    0    0    0    0
    1    1   65    0
      .020      .700    76.000      .006      .000   625.000     -.052    30.200
    50.000      .298      .477      .000     5.000      .000      .000      .000
     2.500   -53.057     2.500  -999.000    25.000    30.000      .000     -.001
     -.006     -.005     2.000    15.000    36.697  -121.632      .152     1.024
     6.728     -.057      .047    26.000    25.800    45.700    12.800   106.340
     1.000    -1.066     7.000      .000      .000      .000      .000      .000
     3.000     7.500     4.600   980.665      .005    76.000     7.958      .000
      .000    40.000      .000    76.000      .005      .303      .000      .000
    30.200   -50.621    30.130     2.863    29.745     -.187      .000      .303
    40.000      .005      .005      .000      .165      .154      .000      .000
      .328      .300      .115      .299      .026      .002      .000      .000
      .000      .000      .000      .000      .000      .000      .000      .000
      .000      .000      .000      .000
      .000      .020      .050      .100      .200
      .040      .042      .044      .046      .048      .050      .055      .060
      .065      .070      .075      .080      .085      .090      .095      .100
      .110      .120      .130      .140      .150      .160      .170      .180
      .190      .200      .220      .240      .260      .280      .300      .320
      .340      .360      .380      .400      .420      .440      .460      .480
      .500      .550      .600      .650      .700      .750      .800      .850
      .900      .950     1.000     1.100     1.200     1.300     1.400     1.500
     1.600     1.700     1.800     1.900     2.000     2.200     2.400     2.600
     2.800     3.000     3.200     3.400      .000      .000      .000      .000
      .000      .000      .000      .000      .000      .000      .000      .000
      .000      .000      .000      .000      .000      .000      .000      .000
      .000      .000      .000      .000      .000      .000      .000      .000
      .000      .000      .000      .000
Fourier amplitude spectra in in/sec.
  .259E-01  .366E-01  .267E-01  .258E-01  .139E-01  .653E-01  .269E-01  .786E-01
  .428E-01  .794E-01  .616E-01  .124E+00  .880E-01  .780E-01  .433E-01  .283E+00
  .870E-01  .564E+00  .732E+00  .147E+00  .677E+00  .113E+01  .653E+00  .207E+00
  .806E+00  .211E+01  .158E+01  .209E+01  .420E+01  .388E+01  .204E+02  .182E+02
  .123E+02  .586E+01  .588E+01  .160E+01  .198E+01  .131E+01  .168E+01  .356E+01
  .376E+01  .236E+01  .393E+00  .364E+01  .654E+00  .431E+01  .329E+01  .552E+01
  .492E+01  .327E+01  .485E+01  .211E+01  .175E+01  .192E+01  .240E+01  .245E+01
  .698E+00  .196E+01  .150E+01  .104E+01  .804E+00  .530E+00  .137E+01  .100E+01
  .156E+00  .347E+00  .522E+00  .566E+00  .000E+00  .000E+00  .000E+00  .000E+00
  .000E+00  .000E+00  .000E+00  .000E+00  .000E+00  .000E+00  .000E+00  .000E+00
  .000E+00  .000E+00  .000E+00  .000E+00  .000E+00  .000E+00  .000E+00  .000E+00
  .000E+00  .000E+00  .000E+00  .000E+00  .000E+00  .000E+00  .000E+00  .000E+00
  .000E+00  .000E+00  .000E+00  .000E+00
Damping =  .00. Data of Sd,Sv,Sa,Pssv,ttSd,ttSv,ttSa :
  .943E-03  .999E-03  .108E-02  .113E-02  .142E-02  .163E-02  .169E-02  .258E-02
  .276E-02  .303E-02  .333E-02  .442E-02  .440E-02  .552E-02  .603E-02  .999E-02
  .934E-02  .172E-01  .204E-01  .234E-01  .267E-01  .437E-01  .337E-01  .418E-01
  .692E-01  .858E-01  .725E-01  .133E+00  .239E+00  .347E+00  .105E+01  .946E+00
  .705E+00  .459E+00  .378E+00  .185E+00  .174E+00  .210E+00  .203E+00  .304E+00
  .387E+00  .226E+00  .166E+00  .420E+00  .262E+00  .578E+00  .573E+00  .808E+00
  .759E+00  .526E+00  .896E+00  .583E+00  .362E+00  .506E+00  .671E+00  .609E+00
  .486E+00  .531E+00  .440E+00  .398E+00  .417E+00  .519E+00  .545E+00  .417E+00
  .210E+00  .264E+00  .269E+00  .359E+00  .000E+00  .000E+00  .000E+00  .000E+00
  .000E+00  .000E+00  .000E+00  .000E+00  .000E+00  .000E+00  .000E+00  .000E+00
  .000E+00  .000E+00  .000E+00  .000E+00  .000E+00  .000E+00  .000E+00  .000E+00
  .000E+00  .000E+00  .000E+00  .000E+00  .000E+00  .000E+00  .000E+00  .000E+00
  .000E+00  .000E+00  .000E+00  .000E+00
  .458E-01  .447E-01  .457E-01  .309E-01  .690E-01  .838E-01  .641E-01  .139E+00
  .992E-01  .121E+00  .929E-01  .138E+00  .141E+00  .231E+00  .145E+00  .358E+00
  .303E+00  .713E+00  .923E+00  .690E+00  .105E+01  .159E+01  .107E+01  .114E+01
  .193E+01  .260E+01  .183E+01  .310E+01  .566E+01  .740E+01  .218E+02  .185E+02
  .130E+02  .828E+01  .621E+01  .322E+01  .263E+01  .342E+01  .324E+01  .396E+01
  .481E+01  .293E+01  .200E+01  .404E+01  .257E+01  .476E+01  .455E+01  .593E+01
  .531E+01  .345E+01  .570E+01  .340E+01  .193E+01  .252E+01  .320E+01  .254E+01
  .213E+01  .196E+01  .161E+01  .153E+01  .137E+01  .157E+01  .155E+01  .135E+01
  .114E+01  .115E+01  .127E+01  .130E+01  .000E+00  .000E+00  .000E+00  .000E+00
  .000E+00  .000E+00  .000E+00  .000E+00  .000E+00  .000E+00  .000E+00  .000E+00
  .000E+00  .000E+00  .000E+00  .000E+00  .000E+00  .000E+00  .000E+00  .000E+00
  .000E+00  .000E+00  .000E+00  .000E+00  .000E+00  .000E+00  .000E+00  .000E+00
  .000E+00  .000E+00  .000E+00  .000E+00
  .603E-01  .579E-01  .572E-01  .545E-01  .630E-01  .667E-01  .570E-01  .732E-01
  .669E-01  .633E-01  .605E-01  .706E-01  .623E-01  .697E-01  .683E-01  .102E+00
  .790E-01  .122E+00  .124E+00  .122E+00  .122E+00  .174E+00  .119E+00  .132E+00
  .196E+00  .219E+00  .153E+00  .236E+00  .362E+00  .453E+00  .119E+01  .945E+00
  .624E+00  .362E+00  .268E+00  .118E+00  .101E+00  .111E+00  .982E-01  .135E+00
  .158E+00  .763E-01  .471E-01  .102E+00  .547E-01  .105E+00  .916E-01  .114E+00
  .958E-01  .596E-01  .916E-01  .493E-01  .257E-01  .306E-01  .350E-01  .277E-01
  .194E-01  .188E-01  .139E-01  .113E-01  .107E-01  .110E-01  .968E-02  .630E-02
  .273E-02  .300E-02  .269E-02  .317E-02  .000E+00  .000E+00  .000E+00  .000E+00
  .000E+00  .000E+00  .000E+00  .000E+00  .000E+00  .000E+00  .000E+00  .000E+00
  .000E+00  .000E+00  .000E+00  .000E+00  .000E+00  .000E+00  .000E+00  .000E+00
  .000E+00  .000E+00  .000E+00  .000E+00  .000E+00  .000E+00  .000E+00  .000E+00
  .000E+00  .000E+00  .000E+00  .000E+00
  .148E+00  .149E+00  .155E+00  .154E+00  .186E+00  .205E+00  .193E+00  .270E+00
  .267E+00  .272E+00  .279E+00  .347E+00  .325E+00  .385E+00  .399E+00  .628E+00
  .534E+00  .901E+00  .988E+00  .105E+01  .112E+01  .172E+01  .125E+01  .146E+01
  .229E+01  .270E+01  .207E+01  .348E+01  .578E+01  .778E+01  .220E+02  .186E+02
  .130E+02  .801E+01  .625E+01  .290E+01  .261E+01  .300E+01  .278E+01  .398E+01
  .487E+01  .258E+01  .174E+01  .406E+01  .235E+01  .484E+01  .450E+01  .597E+01
  .530E+01  .348E+01  .563E+01  .333E+01  .189E+01  .244E+01  .301E+01  .255E+01
  .191E+01  .196E+01  .153E+01  .132E+01  .131E+01  .148E+01  .143E+01  .101E+01
  .470E+00  .553E+00  .528E+00  .663E+00  .000E+00  .000E+00  .000E+00  .000E+00
  .000E+00  .000E+00  .000E+00  .000E+00  .000E+00  .000E+00  .000E+00  .000E+00
  .000E+00  .000E+00  .000E+00  .000E+00  .000E+00  .000E+00  .000E+00  .000E+00
  .000E+00  .000E+00  .000E+00  .000E+00  .000E+00  .000E+00  .000E+00  .000E+00
  .000E+00  .000E+00  .000E+00  .000E+00
  .302E+02  .302E+02  .302E+02  .302E+02  .300E+02  .307E+02  .302E+02  .307E+02
  .302E+02  .301E+02  .302E+02  .300E+02  .300E+02  .302E+02  .302E+02  .302E+02
  .301E+02  .317E+02  .317E+02  .302E+02  .372E+02  .336E+02  .300E+02  .300E+02
  .301E+02  .318E+02  .298E+02  .302E+02  .383E+02  .308E+02  .399E+02  .508E+02
  .484E+02  .310E+02  .529E+02  .313E+02  .340E+02  .305E+02  .304E+02  .610E+02
  .400E+02  .673E+02  .319E+02  .616E+02  .335E+02  .487E+02  .375E+02  .671E+02
  .528E+02  .721E+02  .508E+02  .499E+02  .701E+02  .491E+02  .485E+02  .729E+02
  .370E+02  .751E+02  .711E+02  .416E+02  .612E+02  .581E+02  .469E+02  .748E+02
  .520E+02  .508E+02  .672E+02  .598E+02  .000E+00  .000E+00  .000E+00  .000E+00
  .000E+00  .000E+00  .000E+00  .000E+00  .000E+00  .000E+00  .000E+00  .000E+00
  .000E+00  .000E+00  .000E+00  .000E+00  .000E+00  .000E+00  .000E+00  .000E+00
  .000E+00  .000E+00  .000E+00  .000E+00  .000E+00  .000E+00  .000E+00  .000E+00
  .000E+00  .000E+00  .000E+00  .000E+00
  .306E+02  .450E+02  .308E+02  .398E+02  .306E+02  .307E+02  .308E+02  .308E+02
  .308E+02  .400E+02  .264E+02  .298E+02  .308E+02  .298E+02  .302E+02  .302E+02
  .306E+02  .317E+02  .330E+02  .302E+02  .373E+02  .345E+02  .328E+02  .300E+02
  .301E+02  .319E+02  .387E+02  .301E+02  .382E+02  .309E+02  .403E+02  .493E+02
  .483E+02  .311E+02  .530E+02  .313E+02  .339E+02  .304E+02  .303E+02  .608E+02
  .384E+02  .300E+02  .317E+02  .614E+02  .336E+02  .488E+02  .373E+02  .669E+02
  .525E+02  .723E+02  .505E+02  .496E+02  .344E+02  .494E+02  .489E+02  .740E+02
  .367E+02  .756E+02  .716E+02  .489E+02  .607E+02  .576E+02  .489E+02  .301E+02
  .301E+02  .301E+02  .301E+02  .301E+02  .000E+00  .000E+00  .000E+00  .000E+00
  .000E+00  .000E+00  .000E+00  .000E+00  .000E+00  .000E+00  .000E+00  .000E+00
  .000E+00  .000E+00  .000E+00  .000E+00  .000E+00  .000E+00  .000E+00  .000E+00
  .000E+00  .000E+00  .000E+00  .000E+00  .000E+00  .000E+00  .000E+00  .000E+00
  .000E+00  .000E+00  .000E+00  .000E+00
  .302E+02  .302E+02  .302E+02  .302E+02  .300E+02  .307E+02  .302E+02  .307E+02
  .302E+02  .301E+02  .302E+02  .300E+02  .300E+02  .302E+02  .302E+02  .302E+02
  .301E+02  .317E+02  .317E+02  .302E+02  .372E+02  .336E+02  .300E+02  .300E+02
  .301E+02  .318E+02  .298E+02  .302E+02  .383E+02  .308E+02  .399E+02  .508E+02
  .484E+02  .310E+02  .529E+02  .313E+02  .340E+02  .305E+02  .304E+02  .610E+02
  .400E+02  .673E+02  .319E+02  .616E+02  .335E+02  .487E+02  .375E+02  .671E+02
  .528E+02  .721E+02  .508E+02  .499E+02  .701E+02  .491E+02  .485E+02  .729E+02
  .370E+02  .751E+02  .711E+02  .416E+02  .612E+02  .581E+02  .469E+02  .748E+02
  .520E+02  .508E+02  .672E+02  .598E+02  .000E+00  .000E+00  .000E+00  .000E+00
  .000E+00  .000E+00  .000E+00  .000E+00  .000E+00  .000E+00  .000E+00  .000E+00
  .000E+00  .000E+00  .000E+00  .000E+00  .000E+00  .000E+00  .000E+00  .000E+00
  .000E+00  .000E+00  .000E+00  .000E+00  .000E+00  .000E+00  .000E+00  .000E+00
  .000E+00  .000E+00  .000E+00  .000E+00
Damping =  .02. Data of Sd,Sv,Sa,Pssv,ttSd,ttSv,ttSa :
  .814E-03  .920E-03  .104E-02  .111E-02  .121E-02  .132E-02  .157E-02  .198E-02
  .246E-02  .289E-02  .336E-02  .401E-02  .441E-02  .455E-02  .528E-02  .663E-02
  .878E-02  .111E-01  .146E-01  .161E-01  .172E-01  .234E-01  .283E-01  .313E-01
  .446E-01  .567E-01  .681E-01  .105E+00  .186E+00  .286E+00  .456E+00  .476E+00
  .373E+00  .299E+00  .238E+00  .140E+00  .124E+00  .152E+00  .169E+00  .201E+00
  .223E+00  .179E+00  .149E+00  .180E+00  .206E+00  .292E+00  .344E+00  .298E+00
  .288E+00  .275E+00  .471E+00  .349E+00  .234E+00  .310E+00  .324E+00  .364E+00
  .337E+00  .273E+00  .253E+00  .282E+00  .274E+00  .284E+00  .351E+00  .253E+00
  .190E+00  .199E+00  .207E+00  .228E+00  .000E+00  .000E+00  .000E+00  .000E+00
  .000E+00  .000E+00  .000E+00  .000E+00  .000E+00  .000E+00  .000E+00  .000E+00
  .000E+00  .000E+00  .000E+00  .000E+00  .000E+00  .000E+00  .000E+00  .000E+00
  .000E+00  .000E+00  .000E+00  .000E+00  .000E+00  .000E+00  .000E+00  .000E+00
  .000E+00  .000E+00  .000E+00  .000E+00
  .214E-01  .248E-01  .290E-01  .297E-01  .329E-01  .366E-01  .468E-01  .543E-01
  .589E-01  .774E-01  .921E-01  .113E+00  .123E+00  .127E+00  .129E+00  .145E+00
  .224E+00  .366E+00  .577E+00  .393E+00  .480E+00  .737E+00  .681E+00  .746E+00
  .111E+01  .148E+01  .158E+01  .235E+01  .424E+01  .597E+01  .923E+01  .927E+01
  .705E+01  .561E+01  .437E+01  .273E+01  .216E+01  .254E+01  .283E+01  .300E+01
  .295E+01  .266E+01  .182E+01  .187E+01  .202E+01  .235E+01  .284E+01  .236E+01
  .203E+01  .204E+01  .301E+01  .212E+01  .161E+01  .165E+01  .174E+01  .160E+01
  .163E+01  .124E+01  .118E+01  .121E+01  .124E+01  .115E+01  .124E+01  .130E+01
  .117E+01  .117E+01  .125E+01  .127E+01  .000E+00  .000E+00  .000E+00  .000E+00
  .000E+00  .000E+00  .000E+00  .000E+00  .000E+00  .000E+00  .000E+00  .000E+00
  .000E+00  .000E+00  .000E+00  .000E+00  .000E+00  .000E+00  .000E+00  .000E+00
  .000E+00  .000E+00  .000E+00  .000E+00  .000E+00  .000E+00  .000E+00  .000E+00
  .000E+00  .000E+00  .000E+00  .000E+00
  .520E-01  .534E-01  .549E-01  .538E-01  .535E-01  .540E-01  .532E-01  .562E-01
  .594E-01  .603E-01  .611E-01  .643E-01  .624E-01  .575E-01  .599E-01  .677E-01
  .742E-01  .793E-01  .888E-01  .842E-01  .781E-01  .935E-01  .100E+00  .987E-01
  .126E+00  .145E+00  .144E+00  .187E+00  .281E+00  .373E+00  .519E+00  .476E+00
  .330E+00  .236E+00  .169E+00  .893E-01  .719E-01  .806E-01  .815E-01  .893E-01
  .911E-01  .608E-01  .423E-01  .436E-01  .430E-01  .532E-01  .550E-01  .422E-01
  .364E-01  .312E-01  .482E-01  .295E-01  .166E-01  .188E-01  .169E-01  .166E-01
  .135E-01  .966E-02  .800E-02  .800E-02  .701E-02  .600E-02  .624E-02  .382E-02
  .248E-02  .226E-02  .207E-02  .202E-02  .000E+00  .000E+00  .000E+00  .000E+00
  .000E+00  .000E+00  .000E+00  .000E+00  .000E+00  .000E+00  .000E+00  .000E+00
  .000E+00  .000E+00  .000E+00  .000E+00  .000E+00  .000E+00  .000E+00  .000E+00
  .000E+00  .000E+00  .000E+00  .000E+00  .000E+00  .000E+00  .000E+00  .000E+00
  .000E+00  .000E+00  .000E+00  .000E+00
  .128E+00  .138E+00  .148E+00  .152E+00  .158E+00  .166E+00  .180E+00  .207E+00
  .237E+00  .259E+00  .282E+00  .315E+00  .326E+00  .318E+00  .349E+00  .416E+00
  .501E+00  .583E+00  .707E+00  .723E+00  .720E+00  .918E+00  .104E+01  .109E+01
  .147E+01  .178E+01  .195E+01  .275E+01  .449E+01  .642E+01  .956E+01  .935E+01
  .690E+01  .521E+01  .394E+01  .219E+01  .185E+01  .218E+01  .230E+01  .263E+01
  .280E+01  .205E+01  .156E+01  .174E+01  .185E+01  .245E+01  .270E+01  .220E+01
  .201E+01  .182E+01  .296E+01  .199E+01  .123E+01  .150E+01  .145E+01  .152E+01
  .132E+01  .101E+01  .884E+00  .933E+00  .859E+00  .810E+00  .920E+00  .610E+00
  .425E+00  .417E+00  .407E+00  .421E+00  .000E+00  .000E+00  .000E+00  .000E+00
  .000E+00  .000E+00  .000E+00  .000E+00  .000E+00  .000E+00  .000E+00  .000E+00
  .000E+00  .000E+00  .000E+00  .000E+00  .000E+00  .000E+00  .000E+00  .000E+00
  .000E+00  .000E+00  .000E+00  .000E+00  .000E+00  .000E+00  .000E+00  .000E+00
  .000E+00  .000E+00  .000E+00  .000E+00
  .301E+02  .302E+02  .302E+02  .300E+02  .301E+02  .301E+02  .302E+02  .302E+02
  .302E+02  .302E+02  .302E+02  .300E+02  .302E+02  .307E+02  .302E+02  .302E+02
  .301E+02  .317E+02  .317E+02  .302E+02  .302E+02  .306E+02  .307E+02  .300E+02
  .301E+02  .302E+02  .298E+02  .300E+02  .302E+02  .307E+02  .309E+02  .317E+02
  .318E+02  .310E+02  .304E+02  .300E+02  .312E+02  .303E+02  .304E+02  .312E+02
  .318E+02  .299E+02  .318E+02  .337E+02  .335E+02  .400E+02  .371E+02  .361E+02
  .523E+02  .511E+02  .498E+02  .494E+02  .341E+02  .356E+02  .485E+02  .404E+02
  .354E+02  .693E+02  .695E+02  .415E+02  .333E+02  .570E+02  .456E+02  .604E+02
  .520E+02  .508E+02  .672E+02  .481E+02  .000E+00  .000E+00  .000E+00  .000E+00
  .000E+00  .000E+00  .000E+00  .000E+00  .000E+00  .000E+00  .000E+00  .000E+00
  .000E+00  .000E+00  .000E+00  .000E+00  .000E+00  .000E+00  .000E+00  .000E+00
  .000E+00  .000E+00  .000E+00  .000E+00  .000E+00  .000E+00  .000E+00  .000E+00
  .000E+00  .000E+00  .000E+00  .000E+00
  .301E+02  .301E+02  .308E+02  .300E+02  .306E+02  .306E+02  .308E+02  .308E+02
  .301E+02  .301E+02  .301E+02  .301E+02  .298E+02  .308E+02  .308E+02  .308E+02
  .302E+02  .317E+02  .317E+02  .303E+02  .311E+02  .306E+02  .306E+02  .300E+02
  .301E+02  .308E+02  .297E+02  .300E+02  .303E+02  .308E+02  .310E+02  .318E+02
  .317E+02  .306E+02  .303E+02  .301E+02  .311E+02  .304E+02  .303E+02  .311E+02
  .301E+02  .300E+02  .317E+02  .309E+02  .336E+02  .394E+02  .373E+02  .367E+02
  .525E+02  .308E+02  .495E+02  .496E+02  .344E+02  .360E+02  .355E+02  .415E+02
  .351E+02  .308E+02  .306E+02  .306E+02  .301E+02  .301E+02  .301E+02  .301E+02
  .301E+02  .301E+02  .301E+02  .301E+02  .000E+00  .000E+00  .000E+00  .000E+00
  .000E+00  .000E+00  .000E+00  .000E+00  .000E+00  .000E+00  .000E+00  .000E+00
  .000E+00  .000E+00  .000E+00  .000E+00  .000E+00  .000E+00  .000E+00  .000E+00
  .000E+00  .000E+00  .000E+00  .000E+00  .000E+00  .000E+00  .000E+00  .000E+00
  .000E+00  .000E+00  .000E+00  .000E+00
  .301E+02  .302E+02  .302E+02  .300E+02  .301E+02  .301E+02  .302E+02  .302E+02
  .302E+02  .302E+02  .302E+02  .300E+02  .302E+02  .307E+02  .302E+02  .302E+02
  .300E+02  .317E+02  .317E+02  .302E+02  .302E+02  .306E+02  .307E+02  .300E+02
  .301E+02  .302E+02  .298E+02  .300E+02  .302E+02  .307E+02  .309E+02  .317E+02
  .318E+02  .310E+02  .304E+02  .300E+02  .312E+02  .303E+02  .304E+02  .312E+02
  .318E+02  .299E+02  .318E+02  .337E+02  .335E+02  .400E+02  .371E+02  .361E+02
  .523E+02  .511E+02  .498E+02  .494E+02  .341E+02  .356E+02  .485E+02  .404E+02
  .354E+02  .693E+02  .695E+02  .415E+02  .333E+02  .570E+02  .456E+02  .604E+02
  .520E+02  .508E+02  .672E+02  .481E+02  .000E+00  .000E+00  .000E+00  .000E+00
  .000E+00  .000E+00  .000E+00  .000E+00  .000E+00  .000E+00  .000E+00  .000E+00
  .000E+00  .000E+00  .000E+00  .000E+00  .000E+00  .000E+00  .000E+00  .000E+00
  .000E+00  .000E+00  .000E+00  .000E+00  .000E+00  .000E+00  .000E+00  .000E+00
  .000E+00  .000E+00  .000E+00  .000E+00
Damping =  .05. Data of Sd,Sv,Sa,Pssv,ttSd,ttSv,ttSa :
  .811E-03  .911E-03  .101E-02  .110E-02  .120E-02  .131E-02  .158E-02  .195E-02
