Response and Fourier amplitude spectra (68 periods,  .04 -  3.4 sec)   for      
Corrected accelerogram   47796-M0115-07303.01       Chan 10:  90 Deg     from   
Uncorrected Accelerogram Data             Processed: 11/09/07, CDMG  ce47796d   
Record of Tue Oct 30, 2007 20:04:52.0 PDT             (Avol1 v7.5 7/07 CSMIP)   
CSMIP Preliminary Processing            (Origin:  To be determined)             
47796-M0115-07303.01                 Start time: 10/31/07, 03:04:52.0 UTC (GPS) 
Station No. 47796   36.697N, 121.632W    MtWtny  s/n  115 (15 Channels)         
Salinas - 3-story County Hospital         CGS                                   
Chan 10:  90 DegR                   Location: Roof: South End                   
Record of Tue Oct 30, 2007 20:04:52.0 PDT    Tue Oct 30, 2007 20:04:52.0 PDT    
Hypocenter:  To be determined.               ML:  To be determined.
Instr Period =  .0200 sec,  Damping =  .700,  Sensitivity =  .63  v/g  (Nominal)
                        Record length = 76.000 sec.
                                     Uncor Max  =  -.029 g , at  31.510 sec.
RMS accel of (uncor) record  =        .   Chn. metadata effective date: 01/01/04
Accelerogram bandpass filtered with 3 dB pts at   .30 and 40.00 cyc/sec
                 instrument- and baseline-corrected





Record of Tue Oct 30, 2007 20:04:52.0 PDT    Tue Oct 30, 2007 20:04:52.0 PDT

47796-M0115-07303.01      Salinas - 3-story County Hospital   Chan 10:  90 Deg

47796-M0115-07303.01      Salinas - 3-story County Hospital   Chan 10:  90 Deg

Units for spectra are inches and sec, except Sa is in fraction of g.

   10  100   10   18   15  200    1    3    1   24   13  115    047796    2    0
    3    4   52    0  304   10   31 2007   10    3   9015200   41   33   76   26
15200    0   50    3  115    1    1  760    2    0    0    0    0    0    0    0
    0    4    0    015200    1  220    1   18    4   76   33    0    0    015200
    315200   34   68    5   15    5    0    0    0   15    0    0    3    0    2
    2    2    4    0   72   99    0   32   32    0    1    1    0    0    0    0
    1    1   50    0
      .020      .700    76.000      .004      .000   625.000     -.029    31.510
    50.000      .298      .477      .000     5.000      .000      .000      .000
     2.500    53.270     2.500  -999.000    25.000    30.000      .000      .000
      .020      .019     2.000    15.000    36.697  -121.632      .075      .861
    11.441     -.023      .061    26.000    25.800    45.700    12.800   106.340
     1.000    -1.324     7.000      .000      .000      .000      .000      .000
     3.000     7.500     4.600   980.665      .005    76.000     7.958      .000
      .000    40.000      .000    76.000      .005      .303      .000      .000
    31.505   -28.099    31.590    -2.018    45.855      .196      .000      .303
    40.000      .005      .005      .000      .005      .136      .000      .000
      .175      .320      .062      .153      .018      .002      .000      .000
      .000      .000      .000      .000      .000      .000      .000      .000
      .000      .000      .000      .000
      .000      .020      .050      .100      .200
      .040      .042      .044      .046      .048      .050      .055      .060
      .065      .070      .075      .080      .085      .090      .095      .100
      .110      .120      .130      .140      .150      .160      .170      .180
      .190      .200      .220      .240      .260      .280      .300      .320
      .340      .360      .380      .400      .420      .440      .460      .480
      .500      .550      .600      .650      .700      .750      .800      .850
      .900      .950     1.000     1.100     1.200     1.300     1.400     1.500
     1.600     1.700     1.800     1.900     2.000     2.200     2.400     2.600
     2.800     3.000     3.200     3.400      .000      .000      .000      .000
      .000      .000      .000      .000      .000      .000      .000      .000
      .000      .000      .000      .000      .000      .000      .000      .000
      .000      .000      .000      .000      .000      .000      .000      .000
      .000      .000      .000      .000
Fourier amplitude spectra in in/sec.
  .190E-01  .669E-02  .284E-01  .189E-01  .494E-01  .391E-01  .452E-01  .228E-01
  .509E-01  .157E-01  .339E-01  .259E-01  .522E-01  .154E+00  .120E+00  .325E+00
  .109E+00  .507E+00  .318E+00  .186E+00  .412E+00  .250E+00  .442E+00  .288E+00
  .109E+01  .746E+00  .149E+01  .221E+01  .122E+01  .122E+01  .108E+02  .929E+01
  .784E+01  .794E+01  .532E+01  .377E+01  .155E+01  .252E+01  .237E+01  .622E+01
  .390E+01  .345E+01  .193E+01  .162E+01  .226E+01  .390E+01  .282E+01  .424E+01
  .451E+01  .353E+01  .292E+01  .155E+01  .133E+01  .112E+01  .517E+01  .396E+01
  .137E+01  .655E+00  .406E+00  .112E+01  .117E+01  .255E+01  .108E+01  .649E+00
  .217E+00  .234E+00  .456E+00  .518E-01  .000E+00  .000E+00  .000E+00  .000E+00
  .000E+00  .000E+00  .000E+00  .000E+00  .000E+00  .000E+00  .000E+00  .000E+00
  .000E+00  .000E+00  .000E+00  .000E+00  .000E+00  .000E+00  .000E+00  .000E+00
  .000E+00  .000E+00  .000E+00  .000E+00  .000E+00  .000E+00  .000E+00  .000E+00
  .000E+00  .000E+00  .000E+00  .000E+00
Damping =  .00. Data of Sd,Sv,Sa,Pssv,ttSd,ttSv,ttSa :
  .547E-03  .556E-03  .646E-03  .691E-03  .108E-02  .105E-02  .119E-02  .118E-02
  .168E-02  .148E-02  .204E-02  .226E-02  .257E-02  .362E-02  .416E-02  .660E-02
  .685E-02  .177E-01  .135E-01  .125E-01  .197E-01  .172E-01  .204E-01  .169E-01
  .430E-01  .431E-01  .819E-01  .104E+00  .114E+00  .153E+00  .552E+00  .535E+00
  .617E+00  .527E+00  .377E+00  .289E+00  .225E+00  .254E+00  .271E+00  .488E+00
  .381E+00  .360E+00  .362E+00  .293E+00  .329E+00  .508E+00  .414E+00  .582E+00
  .723E+00  .580E+00  .604E+00  .382E+00  .366E+00  .448E+00  .120E+01  .112E+01
  .403E+00  .293E+00  .228E+00  .370E+00  .424E+00  .922E+00  .412E+00  .269E+00
  .200E+00  .173E+00  .232E+00  .162E+00  .000E+00  .000E+00  .000E+00  .000E+00
  .000E+00  .000E+00  .000E+00  .000E+00  .000E+00  .000E+00  .000E+00  .000E+00
  .000E+00  .000E+00  .000E+00  .000E+00  .000E+00  .000E+00  .000E+00  .000E+00
  .000E+00  .000E+00  .000E+00  .000E+00  .000E+00  .000E+00  .000E+00  .000E+00
  .000E+00  .000E+00  .000E+00  .000E+00
  .264E-01  .199E-01  .314E-01  .287E-01  .730E-01  .615E-01  .537E-01  .440E-01
  .698E-01  .445E-01  .698E-01  .789E-01  .947E-01  .160E+00  .197E+00  .344E+00
  .297E+00  .786E+00  .531E+00  .353E+00  .653E+00  .528E+00  .581E+00  .447E+00
  .126E+01  .118E+01  .216E+01  .254E+01  .255E+01  .338E+01  .115E+02  .106E+02
  .114E+02  .921E+01  .626E+01  .457E+01  .333E+01  .356E+01  .395E+01  .638E+01
  .475E+01  .409E+01  .412E+01  .296E+01  .292E+01  .428E+01  .324E+01  .430E+01
  .504E+01  .380E+01  .378E+01  .215E+01  .194E+01  .239E+01  .538E+01  .469E+01
  .184E+01  .137E+01  .123E+01  .123E+01  .132E+01  .264E+01  .116E+01  .894E+00
  .949E+00  .925E+00  .882E+00  .895E+00  .000E+00  .000E+00  .000E+00  .000E+00
  .000E+00  .000E+00  .000E+00  .000E+00  .000E+00  .000E+00  .000E+00  .000E+00
  .000E+00  .000E+00  .000E+00  .000E+00  .000E+00  .000E+00  .000E+00  .000E+00
  .000E+00  .000E+00  .000E+00  .000E+00  .000E+00  .000E+00  .000E+00  .000E+00
  .000E+00  .000E+00  .000E+00  .000E+00
  .350E-01  .322E-01  .341E-01  .334E-01  .478E-01  .431E-01  .401E-01  .335E-01
  .406E-01  .308E-01  .372E-01  .361E-01  .364E-01  .457E-01  .471E-01  .675E-01
  .579E-01  .126E+00  .818E-01  .653E-01  .894E-01  .687E-01  .723E-01  .534E-01
  .122E+00  .110E+00  .173E+00  .185E+00  .173E+00  .200E+00  .627E+00  .535E+00
  .546E+00  .416E+00  .267E+00  .185E+00  .131E+00  .134E+00  .131E+00  .217E+00
  .156E+00  .122E+00  .103E+00  .709E-01  .686E-01  .923E-01  .661E-01  .825E-01
  .912E-01  .657E-01  .617E-01  .323E-01  .260E-01  .271E-01  .624E-01  .507E-01
  .161E-01  .104E-01  .719E-02  .105E-01  .108E-01  .195E-01  .731E-02  .407E-02
  .260E-02  .196E-02  .232E-02  .144E-02  .000E+00  .000E+00  .000E+00  .000E+00
  .000E+00  .000E+00  .000E+00  .000E+00  .000E+00  .000E+00  .000E+00  .000E+00
  .000E+00  .000E+00  .000E+00  .000E+00  .000E+00  .000E+00  .000E+00  .000E+00
  .000E+00  .000E+00  .000E+00  .000E+00  .000E+00  .000E+00  .000E+00  .000E+00
  .000E+00  .000E+00  .000E+00  .000E+00
  .859E-01  .832E-01  .923E-01  .944E-01  .141E+00  .132E+00  .135E+00  .123E+00
  .162E+00  .133E+00  .171E+00  .178E+00  .190E+00  .253E+00  .275E+00  .415E+00
  .391E+00  .927E+00  .654E+00  .561E+00  .824E+00  .675E+00  .755E+00  .590E+00
  .142E+01  .135E+01  .234E+01  .272E+01  .276E+01  .343E+01  .116E+02  .105E+02
  .114E+02  .919E+01  .624E+01  .454E+01  .337E+01  .362E+01  .370E+01  .639E+01
  .479E+01  .411E+01  .379E+01  .283E+01  .295E+01  .425E+01  .325E+01  .431E+01
  .504E+01  .383E+01  .379E+01  .218E+01  .191E+01  .217E+01  .537E+01  .468E+01
  .158E+01  .108E+01  .795E+00  .122E+01  .133E+01  .263E+01  .108E+01  .649E+00
  .448E+00  .361E+00  .456E+00  .300E+00  .000E+00  .000E+00  .000E+00  .000E+00
  .000E+00  .000E+00  .000E+00  .000E+00  .000E+00  .000E+00  .000E+00  .000E+00
  .000E+00  .000E+00  .000E+00  .000E+00  .000E+00  .000E+00  .000E+00  .000E+00
  .000E+00  .000E+00  .000E+00  .000E+00  .000E+00  .000E+00  .000E+00  .000E+00
  .000E+00  .000E+00  .000E+00  .000E+00
  .315E+02  .315E+02  .299E+02  .317E+02  .315E+02  .300E+02  .315E+02  .315E+02
  .317E+02  .317E+02  .315E+02  .317E+02  .347E+02  .317E+02  .300E+02  .300E+02
  .317E+02  .316E+02  .347E+02  .315E+02  .348E+02  .347E+02  .347E+02  .299E+02
  .315E+02  .347E+02  .350E+02  .348E+02  .318E+02  .376E+02  .481E+02  .342E+02
  .330E+02  .408E+02  .408E+02  .429E+02  .396E+02  .442E+02  .322E+02  .639E+02
  .441E+02  .627E+02  .317E+02  .442E+02  .625E+02  .654E+02  .601E+02  .730E+02
  .633E+02  .635E+02  .587E+02  .695E+02  .587E+02  .369E+02  .715E+02  .606E+02
  .436E+02  .392E+02  .385E+02  .730E+02  .683E+02  .730E+02  .758E+02  .765E+02
  .405E+02  .459E+02  .773E+02  .606E+02  .000E+00  .000E+00  .000E+00  .000E+00
  .000E+00  .000E+00  .000E+00  .000E+00  .000E+00  .000E+00  .000E+00  .000E+00
  .000E+00  .000E+00  .000E+00  .000E+00  .000E+00  .000E+00  .000E+00  .000E+00
  .000E+00  .000E+00  .000E+00  .000E+00  .000E+00  .000E+00  .000E+00  .000E+00
  .000E+00  .000E+00  .000E+00  .000E+00
  .316E+02  .304E+02  .713E+02  .316E+02  .289E+02  .300E+02  .316E+02  .300E+02
  .318E+02  .318E+02  .318E+02  .300E+02  .337E+02  .666E+02  .350E+02  .439E+02
  .316E+02  .318E+02  .349E+02  .315E+02  .349E+02  .339E+02  .350E+02  .294E+02
  .351E+02  .346E+02  .349E+02  .349E+02  .319E+02  .377E+02  .481E+02  .342E+02
  .329E+02  .409E+02  .409E+02  .430E+02  .397E+02  .443E+02  .321E+02  .638E+02
  .442E+02  .628E+02  .318E+02  .314E+02  .620E+02  .656E+02  .599E+02  .728E+02
  .635E+02  .632E+02  .584E+02  .692E+02  .482E+02  .352E+02  .712E+02  .610E+02
  .440E+02  .394E+02  .365E+02  .735E+02  .638E+02  .735E+02  .456E+02  .456E+02
  .316E+02  .316E+02  .316E+02  .316E+02  .000E+00  .000E+00  .000E+00  .000E+00
  .000E+00  .000E+00  .000E+00  .000E+00  .000E+00  .000E+00  .000E+00  .000E+00
  .000E+00  .000E+00  .000E+00  .000E+00  .000E+00  .000E+00  .000E+00  .000E+00
  .000E+00  .000E+00  .000E+00  .000E+00  .000E+00  .000E+00  .000E+00  .000E+00
  .000E+00  .000E+00  .000E+00  .000E+00
  .315E+02  .315E+02  .299E+02  .317E+02  .315E+02  .300E+02  .315E+02  .315E+02
  .317E+02  .317E+02  .315E+02  .317E+02  .347E+02  .317E+02  .300E+02  .300E+02
  .317E+02  .316E+02  .347E+02  .315E+02  .348E+02  .347E+02  .347E+02  .299E+02
  .315E+02  .347E+02  .350E+02  .348E+02  .318E+02  .376E+02  .481E+02  .342E+02
  .330E+02  .408E+02  .408E+02  .429E+02  .396E+02  .442E+02  .322E+02  .639E+02
  .441E+02  .627E+02  .317E+02  .442E+02  .625E+02  .654E+02  .601E+02  .730E+02
  .633E+02  .635E+02  .587E+02  .695E+02  .587E+02  .369E+02  .715E+02  .606E+02
  .436E+02  .392E+02  .385E+02  .730E+02  .683E+02  .730E+02  .758E+02  .765E+02
  .405E+02  .459E+02  .773E+02  .606E+02  .000E+00  .000E+00  .000E+00  .000E+00
  .000E+00  .000E+00  .000E+00  .000E+00  .000E+00  .000E+00  .000E+00  .000E+00
  .000E+00  .000E+00  .000E+00  .000E+00  .000E+00  .000E+00  .000E+00  .000E+00
  .000E+00  .000E+00  .000E+00  .000E+00  .000E+00  .000E+00  .000E+00  .000E+00
  .000E+00  .000E+00  .000E+00  .000E+00
Damping =  .02. Data of Sd,Sv,Sa,Pssv,ttSd,ttSv,ttSa :
  .453E-03  .502E-03  .549E-03  .604E-03  .667E-03  .728E-03  .893E-03  .107E-02
  .127E-02  .142E-02  .170E-02  .194E-02  .223E-02  .256E-02  .321E-02  .422E-02
  .602E-02  .846E-02  .908E-02  .102E-01  .109E-01  .127E-01  .135E-01  .166E-01
  .256E-01  .259E-01  .415E-01  .603E-01  .897E-01  .134E+00  .229E+00  .288E+00
  .214E+00  .208E+00  .190E+00  .141E+00  .119E+00  .122E+00  .199E+00  .234E+00
  .233E+00  .148E+00  .194E+00  .177E+00  .171E+00  .233E+00  .229E+00  .292E+00
  .362E+00  .291E+00  .280E+00  .239E+00  .206E+00  .327E+00  .618E+00  .543E+00
  .301E+00  .250E+00  .198E+00  .226E+00  .283E+00  .446E+00  .307E+00  .201E+00
  .172E+00  .149E+00  .147E+00  .120E+00  .000E+00  .000E+00  .000E+00  .000E+00
  .000E+00  .000E+00  .000E+00  .000E+00  .000E+00  .000E+00  .000E+00  .000E+00
  .000E+00  .000E+00  .000E+00  .000E+00  .000E+00  .000E+00  .000E+00  .000E+00
  .000E+00  .000E+00  .000E+00  .000E+00  .000E+00  .000E+00  .000E+00  .000E+00
  .000E+00  .000E+00  .000E+00  .000E+00
  .104E-01  .119E-01  .155E-01  .182E-01  .208E-01  .220E-01  .205E-01  .252E-01
  .366E-01  .350E-01  .409E-01  .466E-01  .513E-01  .656E-01  .101E+00  .149E+00
  .281E+00  .340E+00  .261E+00  .274E+00  .291E+00  .305E+00  .383E+00  .388E+00
  .642E+00  .641E+00  .100E+01  .142E+01  .197E+01  .285E+01  .467E+01  .571E+01
  .406E+01  .364E+01  .333E+01  .241E+01  .198E+01  .197E+01  .289E+01  .342E+01
  .302E+01  .213E+01  .228E+01  .211E+01  .181E+01  .201E+01  .200E+01  .224E+01
  .253E+01  .196E+01  .171E+01  .144E+01  .129E+01  .182E+01  .284E+01  .260E+01
  .158E+01  .121E+01  .107E+01  .900E+00  .899E+00  .157E+01  .108E+01  .845E+00
  .918E+00  .911E+00  .885E+00  .890E+00  .000E+00  .000E+00  .000E+00  .000E+00
  .000E+00  .000E+00  .000E+00  .000E+00  .000E+00  .000E+00  .000E+00  .000E+00
  .000E+00  .000E+00  .000E+00  .000E+00  .000E+00  .000E+00  .000E+00  .000E+00
  .000E+00  .000E+00  .000E+00  .000E+00  .000E+00  .000E+00  .000E+00  .000E+00
  .000E+00  .000E+00  .000E+00  .000E+00
  .290E-01  .291E-01  .290E-01  .292E-01  .296E-01  .298E-01  .302E-01  .305E-01
  .307E-01  .297E-01  .309E-01  .310E-01  .316E-01  .323E-01  .364E-01  .431E-01
  .510E-01  .600E-01  .549E-01  .532E-01  .498E-01  .508E-01  .479E-01  .525E-01
  .725E-01  .662E-01  .876E-01  .107E+00  .136E+00  .174E+00  .260E+00  .288E+00
  .190E+00  .164E+00  .135E+00  .899E-01  .689E-01  .643E-01  .962E-01  .104E+00
  .954E-01  .501E-01  .553E-01  .428E-01  .358E-01  .424E-01  .367E-01  .414E-01
  .457E-01  .330E-01  .287E-01  .202E-01  .147E-01  .198E-01  .323E-01  .247E-01
  .120E-01  .886E-02  .627E-02  .642E-02  .725E-02  .944E-02  .547E-02  .305E-02
  .225E-02  .170E-02  .147E-02  .107E-02  .000E+00  .000E+00  .000E+00  .000E+00
  .000E+00  .000E+00  .000E+00  .000E+00  .000E+00  .000E+00  .000E+00  .000E+00
  .000E+00  .000E+00  .000E+00  .000E+00  .000E+00  .000E+00  .000E+00  .000E+00
  .000E+00  .000E+00  .000E+00  .000E+00  .000E+00  .000E+00  .000E+00  .000E+00
  .000E+00  .000E+00  .000E+00  .000E+00
  .712E-01  .750E-01  .784E-01  .825E-01  .874E-01  .915E-01  .102E+00  .112E+00
  .123E+00  .128E+00  .143E+00  .152E+00  .165E+00  .179E+00  .212E+00  .265E+00
  .344E+00  .443E+00  .439E+00  .456E+00  .458E+00  .499E+00  .499E+00  .580E+00
  .845E+00  .814E+00  .118E+01  .158E+01  .217E+01  .300E+01  .480E+01  .565E+01
  .396E+01  .363E+01  .314E+01  .221E+01  .178E+01  .174E+01  .272E+01  .307E+01
  .293E+01  .169E+01  .203E+01  .171E+01  .154E+01  .195E+01  .180E+01  .216E+01
  .253E+01  .193E+01  .176E+01  .136E+01  .108E+01  .158E+01  .278E+01  .228E+01
  .118E+01  .924E+00  .692E+00  .748E+00  .890E+00  .127E+01  .805E+00  .486E+00
  .387E+00  .312E+00  .289E+00  .221E+00  .000E+00  .000E+00  .000E+00  .000E+00
  .000E+00  .000E+00  .000E+00  .000E+00  .000E+00  .000E+00  .000E+00  .000E+00
  .000E+00  .000E+00  .000E+00  .000E+00  .000E+00  .000E+00  .000E+00  .000E+00
  .000E+00  .000E+00  .000E+00  .000E+00  .000E+00  .000E+00  .000E+00  .000E+00
  .000E+00  .000E+00  .000E+00  .000E+00
  .315E+02  .315E+02  .315E+02  .300E+02  .300E+02  .300E+02  .315E+02  .317E+02
  .317E+02  .300E+02  .315E+02  .315E+02  .300E+02  .300E+02  .317E+02  .300E+02
  .300E+02  .301E+02  .315E+02  .315E+02  .315E+02  .299E+02  .305E+02  .299E+02
  .315E+02  .301E+02  .317E+02  .348E+02  .351E+02  .355E+02  .315E+02  .322E+02
  .321E+02  .367E+02  .351E+02  .322E+02  .320E+02  .322E+02  .320E+02  .318E+02
  .318E+02  .317E+02  .317E+02  .309E+02  .307E+02  .460E+02  .317E+02  .369E+02
  .466E+02  .496E+02  .497E+02  .451E+02  .484E+02  .356E+02  .415E+02  .418E+02
  .412E+02  .392E+02  .384E+02  .483E+02  .483E+02  .510E+02  .459E+02  .459E+02
  .405E+02  .459E+02  .632E+02  .363E+02  .000E+00  .000E+00  .000E+00  .000E+00
  .000E+00  .000E+00  .000E+00  .000E+00  .000E+00  .000E+00  .000E+00  .000E+00
  .000E+00  .000E+00  .000E+00  .000E+00  .000E+00  .000E+00  .000E+00  .000E+00
  .000E+00  .000E+00  .000E+00  .000E+00  .000E+00  .000E+00  .000E+00  .000E+00
  .000E+00  .000E+00  .000E+00  .000E+00
  .316E+02  .300E+02  .300E+02  .300E+02  .300E+02  .300E+02  .299E+02  .300E+02
  .300E+02  .300E+02  .314E+02  .300E+02  .300E+02  .314E+02  .314E+02  .298E+02
  .300E+02  .299E+02  .314E+02  .299E+02  .316E+02  .319E+02  .305E+02  .305E+02
  .300E+02  .300E+02  .302E+02  .348E+02  .351E+02  .355E+02  .310E+02  .322E+02
  .322E+02  .355E+02  .350E+02  .321E+02  .321E+02  .321E+02  .321E+02  .319E+02
  .317E+02  .318E+02  .316E+02  .308E+02  .306E+02  .318E+02  .316E+02  .368E+02
  .473E+02  .498E+02  .495E+02  .453E+02  .482E+02  .352E+02  .419E+02  .415E+02
  .415E+02  .394E+02  .365E+02  .300E+02  .529E+02  .482E+02  .365E+02  .316E+02
  .316E+02  .316E+02  .316E+02  .316E+02  .000E+00  .000E+00  .000E+00  .000E+00
  .000E+00  .000E+00  .000E+00  .000E+00  .000E+00  .000E+00  .000E+00  .000E+00
  .000E+00  .000E+00  .000E+00  .000E+00  .000E+00  .000E+00  .000E+00  .000E+00
  .000E+00  .000E+00  .000E+00  .000E+00  .000E+00  .000E+00  .000E+00  .000E+00
  .000E+00  .000E+00  .000E+00  .000E+00
  .315E+02  .315E+02  .315E+02  .300E+02  .300E+02  .300E+02  .315E+02  .317E+02
  .317E+02  .300E+02  .315E+02  .315E+02  .300E+02  .300E+02  .317E+02  .300E+02
  .300E+02  .301E+02  .315E+02  .315E+02  .315E+02  .299E+02  .305E+02  .299E+02
  .315E+02  .301E+02  .317E+02  .348E+02  .351E+02  .355E+02  .315E+02  .321E+02
  .321E+02  .367E+02  .351E+02  .322E+02  .320E+02  .322E+02  .320E+02  .318E+02
  .318E+02  .317E+02  .317E+02  .309E+02  .307E+02  .460E+02  .317E+02  .369E+02
  .466E+02  .496E+02  .497E+02  .451E+02  .484E+02  .356E+02  .415E+02  .418E+02
  .412E+02  .391E+02  .384E+02  .483E+02  .483E+02  .510E+02  .459E+02  .459E+02
  .404E+02  .459E+02  .631E+02  .363E+02  .000E+00  .000E+00  .000E+00  .000E+00
  .000E+00  .000E+00  .000E+00  .000E+00  .000E+00  .000E+00  .000E+00  .000E+00
  .000E+00  .000E+00  .000E+00  .000E+00  .000E+00  .000E+00  .000E+00  .000E+00
  .000E+00  .000E+00  .000E+00  .000E+00  .000E+00  .000E+00  .000E+00  .000E+00
  .000E+00  .000E+00  .000E+00  .000E+00
Damping =  .05. Data of Sd,Sv,Sa,Pssv,ttSd,ttSv,ttSa :
  .453E-03  .499E-03  .548E-03  .599E-03  .657E-03  .720E-03  .880E-03  .105E-02
