Response and Fourier amplitude spectra (68 periods,  .04 -  3.4 sec)   for      
Corrected accelerogram   47796-M0115-07303.01       Chan 15: 360 Deg     from   
Uncorrected Accelerogram Data             Processed: 11/09/07, CDMG  ce47796d   
Record of Tue Oct 30, 2007 20:04:52.0 PDT             (Avol1 v7.5 7/07 CSMIP)   
CSMIP Preliminary Processing            (Origin:  To be determined)             
47796-M0115-07303.01                 Start time: 10/31/07, 03:04:52.0 UTC (GPS) 
Station No. 47796   36.697N, 121.632W    MtWtny  s/n  115 (15 Channels)         
Salinas - 3-story County Hospital         CGS                                   
Chan 15: 360 DegR                   Location: Penthouse Roof                    
Record of Tue Oct 30, 2007 20:04:52.0 PDT    Tue Oct 30, 2007 20:04:52.0 PDT    
Hypocenter:  To be determined.               ML:  To be determined.
Instr Period =  .0200 sec,  Damping =  .700,  Sensitivity =  .63  v/g  (Nominal)
                        Record length = 76.000 sec.
                                     Uncor Max  =  -.049 g , at  29.910 sec.
RMS accel of (uncor) record  =        .   Chn. metadata effective date: 01/01/04
Accelerogram bandpass filtered with 3 dB pts at   .30 and 40.00 cyc/sec
                 instrument- and baseline-corrected





Record of Tue Oct 30, 2007 20:04:52.0 PDT    Tue Oct 30, 2007 20:04:52.0 PDT

47796-M0115-07303.01      Salinas - 3-story County Hospital   Chan 15: 360 Deg

47796-M0115-07303.01      Salinas - 3-story County Hospital   Chan 15: 360 Deg

Units for spectra are inches and sec, except Sa is in fraction of g.

   15  100   15   18   15  200    1    3    1   24   13  115    047796    2    0
    3    4   52    0  304   10   31 2007   10    3  36015200   41   33   76   26
15200    0   50    3  115    1    1  760    2    0    0    0    0    0    0    0
    0    4    0    015200    1  220    1   18    4   76   33    0    0    015200
    315200   34   68    5   15    5    0    0    0   15    0    0    3    0    2
    2    2    4    0   72   99    0   32   32    0    1    1    0    0    0    0
    1    1   75    0
      .020      .700    76.000      .005      .000   625.000     -.049    29.910
    50.000      .298      .477      .000     5.000      .000      .000      .000
     2.500    19.565     2.500  -999.000    25.000    30.000      .000      .002
     -.003     -.005     2.000    15.000    36.697  -121.632      .198     1.031
     5.216     -.059      .050    26.000    25.800    45.700    12.800   106.340
     1.000    -1.055     7.000      .000      .000      .000      .000      .000
     3.000     7.500     4.600   980.665      .005    76.000     7.958      .000
      .000    40.000      .000    76.000      .005      .303      .000      .000
    29.905   -47.721    30.120     2.634    33.330     -.185      .000      .303
    40.000      .005      .005      .000      .005      .144      .000      .000
      .272      .300      .102      .252      .025      .002      .000      .000
      .000      .000      .000      .000      .000      .000      .000      .000
      .000      .000      .000      .000
      .000      .020      .050      .100      .200
      .040      .042      .044      .046      .048      .050      .055      .060
      .065      .070      .075      .080      .085      .090      .095      .100
      .110      .120      .130      .140      .150      .160      .170      .180
      .190      .200      .220      .240      .260      .280      .300      .320
      .340      .360      .380      .400      .420      .440      .460      .480
      .500      .550      .600      .650      .700      .750      .800      .850
      .900      .950     1.000     1.100     1.200     1.300     1.400     1.500
     1.600     1.700     1.800     1.900     2.000     2.200     2.400     2.600
     2.800     3.000     3.200     3.400      .000      .000      .000      .000
      .000      .000      .000      .000      .000      .000      .000      .000
      .000      .000      .000      .000      .000      .000      .000      .000
      .000      .000      .000      .000      .000      .000      .000      .000
      .000      .000      .000      .000
Fourier amplitude spectra in in/sec.
  .237E-01  .102E-01  .686E-02  .629E-02  .327E-01  .311E-01  .193E-01  .953E-02
  .116E+00  .202E+00  .317E+00  .666E+00  .206E+00  .371E+00  .593E+00  .549E+00
  .531E+00  .178E+01  .250E+01  .199E+01  .868E+00  .559E+00  .776E+00  .163E+00
  .630E+00  .179E+01  .106E+01  .328E+01  .406E+01  .501E+01  .173E+02  .155E+02
  .110E+02  .574E+01  .500E+01  .798E+00  .215E+01  .144E+01  .168E+01  .353E+01
  .337E+01  .240E+01  .379E+00  .412E+01  .766E+00  .403E+01  .375E+01  .566E+01
  .460E+01  .325E+01  .478E+01  .205E+01  .185E+01  .193E+01  .226E+01  .239E+01
  .719E+00  .190E+01  .144E+01  .103E+01  .808E+00  .444E+00  .139E+01  .101E+01
  .153E+00  .346E+00  .528E+00  .572E+00  .000E+00  .000E+00  .000E+00  .000E+00
  .000E+00  .000E+00  .000E+00  .000E+00  .000E+00  .000E+00  .000E+00  .000E+00
  .000E+00  .000E+00  .000E+00  .000E+00  .000E+00  .000E+00  .000E+00  .000E+00
  .000E+00  .000E+00  .000E+00  .000E+00  .000E+00  .000E+00  .000E+00  .000E+00
  .000E+00  .000E+00  .000E+00  .000E+00
Damping =  .00. Data of Sd,Sv,Sa,Pssv,ttSd,ttSv,ttSa :
  .885E-03  .890E-03  .957E-03  .109E-02  .144E-02  .135E-02  .148E-02  .189E-02
  .301E-02  .435E-02  .609E-02  .104E-01  .851E-02  .620E-02  .117E-01  .129E-01
  .178E-01  .384E-01  .524E-01  .528E-01  .240E-01  .256E-01  .314E-01  .345E-01
  .656E-01  .801E-01  .708E-01  .139E+00  .219E+00  .293E+00  .942E+00  .805E+00
  .618E+00  .426E+00  .323E+00  .172E+00  .177E+00  .211E+00  .203E+00  .311E+00
  .352E+00  .230E+00  .147E+00  .461E+00  .264E+00  .540E+00  .549E+00  .817E+00
  .725E+00  .524E+00  .879E+00  .587E+00  .380E+00  .500E+00  .653E+00  .598E+00
  .482E+00  .513E+00  .424E+00  .393E+00  .406E+00  .486E+00  .539E+00  .421E+00
  .210E+00  .265E+00  .273E+00  .363E+00  .000E+00  .000E+00  .000E+00  .000E+00
  .000E+00  .000E+00  .000E+00  .000E+00  .000E+00  .000E+00  .000E+00  .000E+00
  .000E+00  .000E+00  .000E+00  .000E+00  .000E+00  .000E+00  .000E+00  .000E+00
  .000E+00  .000E+00  .000E+00  .000E+00  .000E+00  .000E+00  .000E+00  .000E+00
  .000E+00  .000E+00  .000E+00  .000E+00
  .375E-01  .352E-01  .326E-01  .344E-01  .625E-01  .521E-01  .587E-01  .579E-01
  .126E+00  .264E+00  .352E+00  .694E+00  .447E+00  .386E+00  .724E+00  .692E+00
  .939E+00  .193E+01  .252E+01  .231E+01  .944E+00  .860E+00  .877E+00  .811E+00
  .179E+01  .241E+01  .170E+01  .349E+01  .516E+01  .624E+01  .196E+02  .158E+02
  .114E+02  .763E+01  .529E+01  .307E+01  .266E+01  .334E+01  .316E+01  .404E+01
  .439E+01  .272E+01  .170E+01  .445E+01  .245E+01  .442E+01  .439E+01  .600E+01
  .503E+01  .344E+01  .559E+01  .341E+01  .200E+01  .247E+01  .316E+01  .249E+01
  .210E+01  .190E+01  .155E+01  .153E+01  .131E+01  .148E+01  .159E+01  .125E+01
  .105E+01  .106E+01  .118E+01  .121E+01  .000E+00  .000E+00  .000E+00  .000E+00
  .000E+00  .000E+00  .000E+00  .000E+00  .000E+00  .000E+00  .000E+00  .000E+00
  .000E+00  .000E+00  .000E+00  .000E+00  .000E+00  .000E+00  .000E+00  .000E+00
  .000E+00  .000E+00  .000E+00  .000E+00  .000E+00  .000E+00  .000E+00  .000E+00
  .000E+00  .000E+00  .000E+00  .000E+00
  .566E-01  .516E-01  .505E-01  .525E-01  .640E-01  .552E-01  .500E-01  .537E-01
  .729E-01  .907E-01  .111E+00  .167E+00  .120E+00  .782E-01  .133E+00  .132E+00
  .150E+00  .272E+00  .317E+00  .276E+00  .109E+00  .102E+00  .111E+00  .109E+00
  .186E+00  .205E+00  .150E+00  .247E+00  .331E+00  .382E+00  .107E+01  .804E+00
  .546E+00  .337E+00  .228E+00  .110E+00  .103E+00  .111E+00  .981E-01  .138E+00
  .144E+00  .776E-01  .418E-01  .112E+00  .550E-01  .982E-01  .877E-01  .116E+00
  .915E-01  .594E-01  .899E-01  .496E-01  .270E-01  .303E-01  .341E-01  .272E-01
  .193E-01  .182E-01  .134E-01  .111E-01  .104E-01  .103E-01  .957E-02  .637E-02
  .274E-02  .301E-02  .272E-02  .321E-02  .000E+00  .000E+00  .000E+00  .000E+00
  .000E+00  .000E+00  .000E+00  .000E+00  .000E+00  .000E+00  .000E+00  .000E+00
  .000E+00  .000E+00  .000E+00  .000E+00  .000E+00  .000E+00  .000E+00  .000E+00
  .000E+00  .000E+00  .000E+00  .000E+00  .000E+00  .000E+00  .000E+00  .000E+00
  .000E+00  .000E+00  .000E+00  .000E+00
  .139E+00  .133E+00  .137E+00  .148E+00  .189E+00  .169E+00  .169E+00  .198E+00
  .291E+00  .390E+00  .510E+00  .820E+00  .629E+00  .433E+00  .776E+00  .809E+00
  .102E+01  .201E+01  .253E+01  .237E+01  .100E+01  .101E+01  .116E+01  .120E+01
  .217E+01  .252E+01  .202E+01  .364E+01  .529E+01  .657E+01  .197E+02  .158E+02
  .114E+02  .744E+01  .533E+01  .270E+01  .265E+01  .301E+01  .277E+01  .407E+01
  .442E+01  .262E+01  .154E+01  .446E+01  .237E+01  .452E+01  .431E+01  .604E+01
  .506E+01  .347E+01  .552E+01  .335E+01  .199E+01  .242E+01  .293E+01  .250E+01
  .189E+01  .190E+01  .148E+01  .130E+01  .128E+01  .139E+01  .141E+01  .102E+01
  .471E+00  .554E+00  .535E+00  .671E+00  .000E+00  .000E+00  .000E+00  .000E+00
  .000E+00  .000E+00  .000E+00  .000E+00  .000E+00  .000E+00  .000E+00  .000E+00
  .000E+00  .000E+00  .000E+00  .000E+00  .000E+00  .000E+00  .000E+00  .000E+00
  .000E+00  .000E+00  .000E+00  .000E+00  .000E+00  .000E+00  .000E+00  .000E+00
  .000E+00  .000E+00  .000E+00  .000E+00
  .299E+02  .302E+02  .299E+02  .299E+02  .299E+02  .302E+02  .302E+02  .302E+02
  .299E+02  .299E+02  .300E+02  .302E+02  .302E+02  .315E+02  .338E+02  .299E+02
  .295E+02  .399E+02  .515E+02  .389E+02  .343E+02  .299E+02  .300E+02  .300E+02
  .300E+02  .322E+02  .300E+02  .302E+02  .383E+02  .308E+02  .399E+02  .508E+02
  .484E+02  .312E+02  .529E+02  .313E+02  .340E+02  .305E+02  .304E+02  .602E+02
  .400E+02  .673E+02  .319E+02  .616E+02  .335E+02  .487E+02  .375E+02  .671E+02
  .528E+02  .721E+02  .508E+02  .499E+02  .701E+02  .491E+02  .485E+02  .729E+02
  .370E+02  .751E+02  .711E+02  .416E+02  .612E+02  .581E+02  .469E+02  .749E+02
  .520E+02  .508E+02  .672E+02  .598E+02  .000E+00  .000E+00  .000E+00  .000E+00
  .000E+00  .000E+00  .000E+00  .000E+00  .000E+00  .000E+00  .000E+00  .000E+00
  .000E+00  .000E+00  .000E+00  .000E+00  .000E+00  .000E+00  .000E+00  .000E+00
  .000E+00  .000E+00  .000E+00  .000E+00  .000E+00  .000E+00  .000E+00  .000E+00
  .000E+00  .000E+00  .000E+00  .000E+00
  .312E+02  .299E+02  .299E+02  .300E+02  .300E+02  .299E+02  .299E+02  .300E+02
  .307E+02  .299E+02  .300E+02  .313E+02  .302E+02  .700E+02  .334E+02  .312E+02
  .295E+02  .324E+02  .515E+02  .392E+02  .377E+02  .333E+02  .326E+02  .300E+02
  .301E+02  .322E+02  .315E+02  .475E+02  .382E+02  .308E+02  .398E+02  .509E+02
  .483E+02  .313E+02  .530E+02  .313E+02  .341E+02  .304E+02  .303E+02  .601E+02
  .401E+02  .300E+02  .317E+02  .614E+02  .336E+02  .488E+02  .373E+02  .669E+02
  .525E+02  .723E+02  .505E+02  .497E+02  .704E+02  .488E+02  .489E+02  .740E+02
  .367E+02  .755E+02  .716E+02  .489E+02  .607E+02  .576E+02  .489E+02  .301E+02
  .301E+02  .301E+02  .301E+02  .301E+02  .000E+00  .000E+00  .000E+00  .000E+00
  .000E+00  .000E+00  .000E+00  .000E+00  .000E+00  .000E+00  .000E+00  .000E+00
  .000E+00  .000E+00  .000E+00  .000E+00  .000E+00  .000E+00  .000E+00  .000E+00
  .000E+00  .000E+00  .000E+00  .000E+00  .000E+00  .000E+00  .000E+00  .000E+00
  .000E+00  .000E+00  .000E+00  .000E+00
  .299E+02  .302E+02  .299E+02  .299E+02  .299E+02  .302E+02  .302E+02  .302E+02
  .299E+02  .299E+02  .300E+02  .302E+02  .302E+02  .315E+02  .338E+02  .299E+02
  .295E+02  .399E+02  .515E+02  .389E+02  .343E+02  .299E+02  .300E+02  .300E+02
  .300E+02  .322E+02  .300E+02  .302E+02  .383E+02  .308E+02  .399E+02  .508E+02
  .484E+02  .312E+02  .529E+02  .313E+02  .340E+02  .305E+02  .304E+02  .602E+02
  .400E+02  .673E+02  .319E+02  .616E+02  .335E+02  .487E+02  .375E+02  .671E+02
  .528E+02  .721E+02  .508E+02  .499E+02  .701E+02  .491E+02  .485E+02  .729E+02
  .370E+02  .751E+02  .711E+02  .416E+02  .612E+02  .581E+02  .469E+02  .749E+02
  .520E+02  .508E+02  .672E+02  .598E+02  .000E+00  .000E+00  .000E+00  .000E+00
  .000E+00  .000E+00  .000E+00  .000E+00  .000E+00  .000E+00  .000E+00  .000E+00
  .000E+00  .000E+00  .000E+00  .000E+00  .000E+00  .000E+00  .000E+00  .000E+00
  .000E+00  .000E+00  .000E+00  .000E+00  .000E+00  .000E+00  .000E+00  .000E+00
  .000E+00  .000E+00  .000E+00  .000E+00
Damping =  .02. Data of Sd,Sv,Sa,Pssv,ttSd,ttSv,ttSa :
  .788E-03  .858E-03  .955E-03  .105E-02  .116E-02  .123E-02  .150E-02  .185E-02
  .228E-02  .259E-02  .341E-02  .407E-02  .454E-02  .500E-02  .537E-02  .631E-02
  .111E-01  .232E-01  .228E-01  .214E-01  .194E-01  .181E-01  .267E-01  .293E-01
  .447E-01  .467E-01  .582E-01  .105E+00  .174E+00  .244E+00  .381E+00  .393E+00
  .334E+00  .269E+00  .213E+00  .131E+00  .110E+00  .147E+00  .164E+00  .191E+00
  .202E+00  .167E+00  .133E+00  .182E+00  .207E+00  .280E+00  .325E+00  .284E+00
  .285E+00  .270E+00  .459E+00  .347E+00  .231E+00  .304E+00  .320E+00  .348E+00
  .331E+00  .272E+00  .248E+00  .273E+00  .272E+00  .267E+00  .344E+00  .254E+00
  .190E+00  .199E+00  .211E+00  .228E+00  .000E+00  .000E+00  .000E+00  .000E+00
  .000E+00  .000E+00  .000E+00  .000E+00  .000E+00  .000E+00  .000E+00  .000E+00
  .000E+00  .000E+00  .000E+00  .000E+00  .000E+00  .000E+00  .000E+00  .000E+00
  .000E+00  .000E+00  .000E+00  .000E+00  .000E+00  .000E+00  .000E+00  .000E+00
  .000E+00  .000E+00  .000E+00  .000E+00
  .218E-01  .256E-01  .286E-01  .309E-01  .319E-01  .388E-01  .492E-01  .565E-01
  .709E-01  .981E-01  .141E+00  .143E+00  .176E+00  .193E+00  .225E+00  .211E+00
  .494E+00  .105E+01  .103E+01  .905E+00  .638E+00  .533E+00  .639E+00  .657E+00
  .108E+01  .124E+01  .146E+01  .237E+01  .401E+01  .514E+01  .769E+01  .757E+01
  .612E+01  .498E+01  .391E+01  .255E+01  .188E+01  .234E+01  .269E+01  .273E+01
  .271E+01  .247E+01  .160E+01  .181E+01  .191E+01  .222E+01  .263E+01  .220E+01
  .198E+01  .184E+01  .293E+01  .206E+01  .153E+01  .163E+01  .162E+01  .151E+01
  .148E+01  .109E+01  .104E+01  .116E+01  .116E+01  .106E+01  .115E+01  .121E+01
  .108E+01  .108E+01  .116E+01  .118E+01  .000E+00  .000E+00  .000E+00  .000E+00
  .000E+00  .000E+00  .000E+00  .000E+00  .000E+00  .000E+00  .000E+00  .000E+00
  .000E+00  .000E+00  .000E+00  .000E+00  .000E+00  .000E+00  .000E+00  .000E+00
  .000E+00  .000E+00  .000E+00  .000E+00  .000E+00  .000E+00  .000E+00  .000E+00
  .000E+00  .000E+00  .000E+00  .000E+00
  .504E-01  .497E-01  .505E-01  .509E-01  .513E-01  .504E-01  .509E-01  .525E-01
  .553E-01  .541E-01  .619E-01  .650E-01  .643E-01  .632E-01  .607E-01  .646E-01
  .936E-01  .165E+00  .138E+00  .112E+00  .880E-01  .725E-01  .943E-01  .924E-01
  .127E+00  .119E+00  .123E+00  .186E+00  .264E+00  .319E+00  .433E+00  .393E+00
  .296E+00  .213E+00  .151E+00  .840E-01  .640E-01  .777E-01  .792E-01  .850E-01
  .829E-01  .567E-01  .377E-01  .440E-01  .432E-01  .510E-01  .519E-01  .403E-01
  .360E-01  .306E-01  .470E-01  .294E-01  .164E-01  .184E-01  .167E-01  .158E-01
  .133E-01  .963E-02  .782E-02  .773E-02  .696E-02  .565E-02  .612E-02  .385E-02
  .248E-02  .226E-02  .211E-02  .203E-02  .000E+00  .000E+00  .000E+00  .000E+00
  .000E+00  .000E+00  .000E+00  .000E+00  .000E+00  .000E+00  .000E+00  .000E+00
  .000E+00  .000E+00  .000E+00  .000E+00  .000E+00  .000E+00  .000E+00  .000E+00
  .000E+00  .000E+00  .000E+00  .000E+00  .000E+00  .000E+00  .000E+00  .000E+00
  .000E+00  .000E+00  .000E+00  .000E+00
  .124E+00  .128E+00  .136E+00  .144E+00  .151E+00  .155E+00  .172E+00  .193E+00
  .220E+00  .232E+00  .286E+00  .320E+00  .335E+00  .349E+00  .355E+00  .397E+00
  .631E+00  .121E+01  .110E+01  .959E+00  .811E+00  .713E+00  .985E+00  .102E+01
  .148E+01  .147E+01  .166E+01  .275E+01  .422E+01  .548E+01  .797E+01  .772E+01
  .618E+01  .470E+01  .353E+01  .206E+01  .165E+01  .210E+01  .223E+01  .250E+01
  .254E+01  .191E+01  .139E+01  .176E+01  .186E+01  .235E+01  .255E+01  .210E+01
  .199E+01  .179E+01  .288E+01  .198E+01  .121E+01  .147E+01  .144E+01  .146E+01
  .130E+01  .100E+01  .864E+00  .902E+00  .853E+00  .762E+00  .901E+00  .615E+00
  .426E+00  .416E+00  .415E+00  .422E+00  .000E+00  .000E+00  .000E+00  .000E+00
  .000E+00  .000E+00  .000E+00  .000E+00  .000E+00  .000E+00  .000E+00  .000E+00
  .000E+00  .000E+00  .000E+00  .000E+00  .000E+00  .000E+00  .000E+00  .000E+00
  .000E+00  .000E+00  .000E+00  .000E+00  .000E+00  .000E+00  .000E+00  .000E+00
  .000E+00  .000E+00  .000E+00  .000E+00
  .299E+02  .299E+02  .299E+02  .299E+02  .299E+02  .299E+02  .299E+02  .299E+02
  .299E+02  .299E+02  .301E+02  .302E+02  .299E+02  .302E+02  .315E+02  .299E+02
  .315E+02  .317E+02  .317E+02  .315E+02  .300E+02  .300E+02  .300E+02  .300E+02
  .300E+02  .302E+02  .298E+02  .300E+02  .302E+02  .307E+02  .309E+02  .317E+02
  .313E+02  .305E+02  .302E+02  .299E+02  .312E+02  .303E+02  .304E+02  .312E+02
  .310E+02  .299E+02  .318E+02  .337E+02  .335E+02  .400E+02  .371E+02  .357E+02
  .523E+02  .534E+02  .498E+02  .494E+02  .342E+02  .490E+02  .485E+02  .404E+02
  .339E+02  .693E+02  .695E+02  .415E+02  .333E+02  .570E+02  .456E+02  .604E+02
  .520E+02  .508E+02  .672E+02  .481E+02  .000E+00  .000E+00  .000E+00  .000E+00
  .000E+00  .000E+00  .000E+00  .000E+00  .000E+00  .000E+00  .000E+00  .000E+00
  .000E+00  .000E+00  .000E+00  .000E+00  .000E+00  .000E+00  .000E+00  .000E+00
  .000E+00  .000E+00  .000E+00  .000E+00  .000E+00  .000E+00  .000E+00  .000E+00
  .000E+00  .000E+00  .000E+00  .000E+00
  .300E+02  .299E+02  .299E+02  .299E+02  .299E+02  .299E+02  .299E+02  .299E+02
  .299E+02  .299E+02  .300E+02  .250E+02  .314E+02  .314E+02  .314E+02  .314E+02
  .313E+02  .317E+02  .317E+02  .315E+02  .314E+02  .306E+02  .300E+02  .300E+02
  .301E+02  .308E+02  .298E+02  .301E+02  .303E+02  .306E+02  .309E+02  .318E+02
  .312E+02  .306E+02  .301E+02  .300E+02  .313E+02  .304E+02  .303E+02  .301E+02
  .311E+02  .300E+02  .298E+02  .309E+02  .336E+02  .394E+02  .373E+02  .355E+02
  .525E+02  .307E+02  .495E+02  .497E+02  .344E+02  .493E+02  .488E+02  .355E+02
  .334E+02  .307E+02  .337E+02  .337E+02  .301E+02  .301E+02  .301E+02  .301E+02
  .301E+02  .301E+02  .301E+02  .301E+02  .000E+00  .000E+00  .000E+00  .000E+00
  .000E+00  .000E+00  .000E+00  .000E+00  .000E+00  .000E+00  .000E+00  .000E+00
  .000E+00  .000E+00  .000E+00  .000E+00  .000E+00  .000E+00  .000E+00  .000E+00
  .000E+00  .000E+00  .000E+00  .000E+00  .000E+00  .000E+00  .000E+00  .000E+00
  .000E+00  .000E+00  .000E+00  .000E+00
  .299E+02  .299E+02  .299E+02  .299E+02  .299E+02  .299E+02  .299E+02  .299E+02
  .299E+02  .299E+02  .301E+02  .302E+02  .299E+02  .302E+02  .315E+02  .299E+02
  .315E+02  .317E+02  .317E+02  .300E+02  .300E+02  .300E+02  .300E+02  .300E+02
  .300E+02  .302E+02  .298E+02  .300E+02  .302E+02  .307E+02  .309E+02  .317E+02
  .313E+02  .305E+02  .302E+02  .299E+02  .312E+02  .303E+02  .304E+02  .312E+02
  .310E+02  .299E+02  .318E+02  .337E+02  .335E+02  .400E+02  .371E+02  .357E+02
  .523E+02  .534E+02  .498E+02  .494E+02  .342E+02  .490E+02  .485E+02  .404E+02
  .339E+02  .693E+02  .695E+02  .415E+02  .333E+02  .570E+02  .456E+02  .604E+02
  .520E+02  .508E+02  .672E+02  .481E+02  .000E+00  .000E+00  .000E+00  .000E+00
  .000E+00  .000E+00  .000E+00  .000E+00  .000E+00  .000E+00  .000E+00  .000E+00
  .000E+00  .000E+00  .000E+00  .000E+00  .000E+00  .000E+00  .000E+00  .000E+00
  .000E+00  .000E+00  .000E+00  .000E+00  .000E+00  .000E+00  .000E+00  .000E+00
  .000E+00  .000E+00  .000E+00  .000E+00
Damping =  .05. Data of Sd,Sv,Sa,Pssv,ttSd,ttSv,ttSa :
  .785E-03  .864E-03  .954E-03  .105E-02  .115E-02  .124E-02  .151E-02  .185E-02
