Response and Fourier amplitude spectra (68 periods,  .04 -  3.4 sec)   for      
Corrected accelerogram   47796-M0115-07303.01       Chan  2:  90 Deg     from   
Uncorrected Accelerogram Data             Processed: 11/09/07, CDMG  ce47796d   
Record of Tue Oct 30, 2007 20:04:52.0 PDT             (Avol1 v7.5 7/07 CSMIP)   
CSMIP Preliminary Processing            (Origin:  To be determined)             
47796-M0115-07303.01                 Start time: 10/31/07, 03:04:52.0 UTC (GPS) 
Station No. 47796   36.697N, 121.632W    MtWtny  s/n  115 (15 Channels)         
Salinas - 3-story County Hospital         CGS                                   
Chan  2:  90 DegR                   Location: 1st Floor: Near Center            
Record of Tue Oct 30, 2007 20:04:52.0 PDT    Tue Oct 30, 2007 20:04:52.0 PDT    
Hypocenter:  To be determined.               ML:  To be determined.
Instr Period =  .0200 sec,  Damping =  .700,  Sensitivity =  .63  v/g  (Nominal)
                        Record length = 76.000 sec.
                                     Uncor Max  =  -.012 g , at  29.825 sec.
RMS accel of (uncor) record  =        .   Chn. metadata effective date: 01/01/04
Accelerogram bandpass filtered with 3 dB pts at   .30 and 40.00 cyc/sec
                 instrument- and baseline-corrected





Record of Tue Oct 30, 2007 20:04:52.0 PDT    Tue Oct 30, 2007 20:04:52.0 PDT

47796-M0115-07303.01      Salinas - 3-story County Hospital   Chan  2:  90 Deg

47796-M0115-07303.01      Salinas - 3-story County Hospital   Chan  2:  90 Deg

Units for spectra are inches and sec, except Sa is in fraction of g.

    2  100    2   18   15  200    1    3    1   24   13  115    047796    2    0
    3    4   52    0  304   10   31 2007   10    3   9015200   41   33   76   26
15200    1   50    3  115    1    1  760    2    0    0    0    0    0    0    0
    0    4    0    015200    1  220    1   18    4   76   33    0    0    015200
    315200   34   68    5   15    5    0    0    0   15    0    0    3    0    2
    2    2    4    0   72   99    0   32   32    0    1    1    0    0    0    0
    1    1   10    0
      .020      .700    76.000      .002      .000   625.000     -.012    29.825
    50.000      .298      .477      .000     5.000      .000      .000      .000
     2.500    12.046     2.500  -999.000    25.000    30.000      .000     -.004
      .022      .026     2.000    15.000    36.697  -121.632      .563      .842
     1.495     -.056      .109    26.000    25.800    45.700    12.800   106.340
     1.000     1.034     7.000      .000      .000      .000      .000      .000
     3.000     7.500     4.600   980.665      .005    76.000     7.958      .000
      .000    40.000      .000    76.000      .005      .303      .000      .000
    29.825   -11.215    36.495     1.070    45.850      .172      .000      .303
    40.000      .005      .005      .000      .005      .093      .000      .000
      .037      .190      .034      .022      .015      .001      .000      .000
      .000      .000      .000      .000      .000      .000      .000      .000
      .000      .000      .000      .000
      .000      .020      .050      .100      .200
      .040      .042      .044      .046      .048      .050      .055      .060
      .065      .070      .075      .080      .085      .090      .095      .100
      .110      .120      .130      .140      .150      .160      .170      .180
      .190      .200      .220      .240      .260      .280      .300      .320
      .340      .360      .380      .400      .420      .440      .460      .480
      .500      .550      .600      .650      .700      .750      .800      .850
      .900      .950     1.000     1.100     1.200     1.300     1.400     1.500
     1.600     1.700     1.800     1.900     2.000     2.200     2.400     2.600
     2.800     3.000     3.200     3.400      .000      .000      .000      .000
      .000      .000      .000      .000      .000      .000      .000      .000
      .000      .000      .000      .000      .000      .000      .000      .000
      .000      .000      .000      .000      .000      .000      .000      .000
      .000      .000      .000      .000
Fourier amplitude spectra in in/sec.
  .456E-02  .304E-02  .618E-02  .710E-02  .933E-02  .638E-02  .159E-01  .120E-01
  .368E-01  .296E-01  .125E-02  .705E-01  .324E-01  .901E-01  .156E+00  .163E+00
  .978E-01  .788E-01  .292E+00  .193E+00  .203E+00  .342E+00  .246E+00  .445E+00
  .123E+01  .718E+00  .966E+00  .507E+00  .440E+00  .721E+00  .111E+01  .114E+01
  .383E+00  .840E+00  .102E+01  .411E+00  .856E-01  .103E+01  .136E+01  .161E+01
  .530E+00  .156E+01  .132E+01  .128E+01  .332E+00  .296E+01  .282E+01  .423E+01
  .341E+01  .324E+01  .260E+01  .987E+00  .121E+01  .122E+01  .469E+01  .383E+01
  .142E+01  .443E+00  .240E+00  .106E+01  .113E+01  .245E+01  .108E+01  .596E+00
  .199E+00  .228E+00  .435E+00  .446E-01  .000E+00  .000E+00  .000E+00  .000E+00
  .000E+00  .000E+00  .000E+00  .000E+00  .000E+00  .000E+00  .000E+00  .000E+00
  .000E+00  .000E+00  .000E+00  .000E+00  .000E+00  .000E+00  .000E+00  .000E+00
  .000E+00  .000E+00  .000E+00  .000E+00  .000E+00  .000E+00  .000E+00  .000E+00
  .000E+00  .000E+00  .000E+00  .000E+00
Damping =  .00. Data of Sd,Sv,Sa,Pssv,ttSd,ttSv,ttSa :
  .216E-03  .225E-03  .260E-03  .280E-03  .321E-03  .311E-03  .453E-03  .491E-03
  .718E-03  .802E-03  .749E-03  .128E-02  .159E-02  .195E-02  .310E-02  .321E-02
  .283E-02  .465E-02  .950E-02  .737E-02  .773E-02  .980E-02  .153E-01  .158E-01
  .428E-01  .323E-01  .492E-01  .219E-01  .333E-01  .430E-01  .616E-01  .639E-01
  .495E-01  .652E-01  .786E-01  .499E-01  .392E-01  .904E-01  .110E+00  .150E+00
  .959E-01  .164E+00  .202E+00  .219E+00  .131E+00  .368E+00  .390E+00  .579E+00
  .542E+00  .542E+00  .531E+00  .241E+00  .352E+00  .396E+00  .109E+01  .100E+01
  .381E+00  .269E+00  .208E+00  .346E+00  .422E+00  .878E+00  .413E+00  .247E+00
  .188E+00  .164E+00  .221E+00  .149E+00  .000E+00  .000E+00  .000E+00  .000E+00
  .000E+00  .000E+00  .000E+00  .000E+00  .000E+00  .000E+00  .000E+00  .000E+00
  .000E+00  .000E+00  .000E+00  .000E+00  .000E+00  .000E+00  .000E+00  .000E+00
  .000E+00  .000E+00  .000E+00  .000E+00  .000E+00  .000E+00  .000E+00  .000E+00
  .000E+00  .000E+00  .000E+00  .000E+00
  .102E-01  .892E-02  .109E-01  .113E-01  .165E-01  .919E-02  .196E-01  .232E-01
  .423E-01  .463E-01  .246E-01  .726E-01  .775E-01  .109E+00  .173E+00  .173E+00
  .131E+00  .225E+00  .439E+00  .257E+00  .286E+00  .348E+00  .550E+00  .511E+00
  .137E+01  .964E+00  .139E+01  .549E+00  .737E+00  .951E+00  .123E+01  .124E+01
  .943E+00  .108E+01  .125E+01  .764E+00  .549E+00  .127E+01  .148E+01  .193E+01
  .111E+01  .185E+01  .206E+01  .202E+01  .116E+01  .308E+01  .303E+01  .428E+01
  .376E+01  .356E+01  .332E+01  .136E+01  .183E+01  .191E+01  .489E+01  .425E+01
  .153E+01  .108E+01  .934E+00  .116E+01  .128E+01  .253E+01  .108E+01  .803E+00
  .535E+00  .613E+00  .589E+00  .587E+00  .000E+00  .000E+00  .000E+00  .000E+00
  .000E+00  .000E+00  .000E+00  .000E+00  .000E+00  .000E+00  .000E+00  .000E+00
  .000E+00  .000E+00  .000E+00  .000E+00  .000E+00  .000E+00  .000E+00  .000E+00
  .000E+00  .000E+00  .000E+00  .000E+00  .000E+00  .000E+00  .000E+00  .000E+00
  .000E+00  .000E+00  .000E+00  .000E+00
  .138E-01  .130E-01  .137E-01  .135E-01  .143E-01  .127E-01  .153E-01  .139E-01
  .174E-01  .167E-01  .136E-01  .204E-01  .226E-01  .246E-01  .351E-01  .328E-01
  .239E-01  .330E-01  .575E-01  .384E-01  .351E-01  .391E-01  .541E-01  .499E-01
  .121E+00  .825E-01  .104E+00  .389E-01  .504E-01  .561E-01  .700E-01  .639E-01
  .438E-01  .515E-01  .557E-01  .319E-01  .227E-01  .478E-01  .533E-01  .666E-01
  .392E-01  .555E-01  .574E-01  .530E-01  .273E-01  .669E-01  .623E-01  .820E-01
  .684E-01  .615E-01  .543E-01  .204E-01  .250E-01  .239E-01  .568E-01  .457E-01
  .152E-01  .952E-02  .657E-02  .981E-02  .108E-01  .186E-01  .734E-02  .373E-02
  .245E-02  .186E-02  .221E-02  .132E-02  .000E+00  .000E+00  .000E+00  .000E+00
  .000E+00  .000E+00  .000E+00  .000E+00  .000E+00  .000E+00  .000E+00  .000E+00
  .000E+00  .000E+00  .000E+00  .000E+00  .000E+00  .000E+00  .000E+00  .000E+00
  .000E+00  .000E+00  .000E+00  .000E+00  .000E+00  .000E+00  .000E+00  .000E+00
  .000E+00  .000E+00  .000E+00  .000E+00
  .339E-01  .336E-01  .371E-01  .382E-01  .421E-01  .391E-01  .518E-01  .514E-01
  .694E-01  .720E-01  .627E-01  .100E+00  .118E+00  .136E+00  .205E+00  .201E+00
  .162E+00  .243E+00  .459E+00  .331E+00  .324E+00  .385E+00  .565E+00  .552E+00
  .141E+01  .101E+01  .140E+01  .573E+00  .805E+00  .965E+00  .129E+01  .126E+01
  .914E+00  .114E+01  .130E+01  .783E+00  .586E+00  .129E+01  .150E+01  .197E+01
  .121E+01  .188E+01  .212E+01  .211E+01  .117E+01  .308E+01  .306E+01  .428E+01
  .378E+01  .359E+01  .334E+01  .138E+01  .184E+01  .191E+01  .488E+01  .421E+01
  .150E+01  .994E+00  .727E+00  .115E+01  .132E+01  .251E+01  .108E+01  .596E+00
  .421E+00  .343E+00  .435E+00  .275E+00  .000E+00  .000E+00  .000E+00  .000E+00
  .000E+00  .000E+00  .000E+00  .000E+00  .000E+00  .000E+00  .000E+00  .000E+00
  .000E+00  .000E+00  .000E+00  .000E+00  .000E+00  .000E+00  .000E+00  .000E+00
  .000E+00  .000E+00  .000E+00  .000E+00  .000E+00  .000E+00  .000E+00  .000E+00
  .000E+00  .000E+00  .000E+00  .000E+00
  .298E+02  .298E+02  .298E+02  .298E+02  .298E+02  .298E+02  .298E+02  .298E+02
  .298E+02  .298E+02  .298E+02  .458E+02  .298E+02  .346E+02  .345E+02  .454E+02
  .346E+02  .309E+02  .335E+02  .298E+02  .345E+02  .458E+02  .307E+02  .326E+02
  .314E+02  .345E+02  .322E+02  .346E+02  .314E+02  .329E+02  .458E+02  .340E+02
  .320E+02  .454E+02  .403E+02  .435E+02  .300E+02  .492E+02  .640E+02  .459E+02
  .363E+02  .627E+02  .340E+02  .442E+02  .357E+02  .654E+02  .600E+02  .475E+02
  .633E+02  .634E+02  .587E+02  .695E+02  .587E+02  .355E+02  .715E+02  .621E+02
  .620E+02  .391E+02  .385E+02  .730E+02  .683E+02  .729E+02  .758E+02  .765E+02
  .405E+02  .459E+02  .773E+02  .606E+02  .000E+00  .000E+00  .000E+00  .000E+00
  .000E+00  .000E+00  .000E+00  .000E+00  .000E+00  .000E+00  .000E+00  .000E+00
  .000E+00  .000E+00  .000E+00  .000E+00  .000E+00  .000E+00  .000E+00  .000E+00
  .000E+00  .000E+00  .000E+00  .000E+00  .000E+00  .000E+00  .000E+00  .000E+00
  .000E+00  .000E+00  .000E+00  .000E+00
  .293E+02  .293E+02  .293E+02  .344E+02  .298E+02  .344E+02  .319E+02  .306E+02
  .364E+02  .344E+02  .313E+02  .456E+02  .299E+02  .343E+02  .344E+02  .405E+02
  .375E+02  .309E+02  .335E+02  .299E+02  .345E+02  .637E+02  .307E+02  .325E+02
  .318E+02  .351E+02  .323E+02  .557E+02  .313E+02  .328E+02  .304E+02  .339E+02
  .319E+02  .365E+02  .403E+02  .436E+02  .299E+02  .491E+02  .638E+02  .461E+02
  .362E+02  .628E+02  .339E+02  .466E+02  .355E+02  .656E+02  .598E+02  .477E+02
  .635E+02  .632E+02  .584E+02  .697E+02  .584E+02  .372E+02  .712E+02  .617E+02
  .624E+02  .394E+02  .365E+02  .735E+02  .657E+02  .735E+02  .752E+02  .456E+02
  .410E+02  .365E+02  .365E+02  .365E+02  .000E+00  .000E+00  .000E+00  .000E+00
  .000E+00  .000E+00  .000E+00  .000E+00  .000E+00  .000E+00  .000E+00  .000E+00
  .000E+00  .000E+00  .000E+00  .000E+00  .000E+00  .000E+00  .000E+00  .000E+00
  .000E+00  .000E+00  .000E+00  .000E+00  .000E+00  .000E+00  .000E+00  .000E+00
  .000E+00  .000E+00  .000E+00  .000E+00
  .298E+02  .298E+02  .298E+02  .298E+02  .298E+02  .298E+02  .298E+02  .298E+02
  .298E+02  .298E+02  .298E+02  .458E+02  .298E+02  .346E+02  .345E+02  .454E+02
  .346E+02  .309E+02  .335E+02  .298E+02  .345E+02  .458E+02  .307E+02  .326E+02
  .314E+02  .345E+02  .322E+02  .346E+02  .314E+02  .329E+02  .458E+02  .340E+02
  .320E+02  .454E+02  .403E+02  .435E+02  .300E+02  .492E+02  .640E+02  .459E+02
  .363E+02  .627E+02  .340E+02  .442E+02  .357E+02  .654E+02  .600E+02  .475E+02
  .633E+02  .634E+02  .587E+02  .695E+02  .587E+02  .355E+02  .715E+02  .621E+02
  .620E+02  .391E+02  .385E+02  .730E+02  .683E+02  .729E+02  .758E+02  .765E+02
  .405E+02  .459E+02  .773E+02  .606E+02  .000E+00  .000E+00  .000E+00  .000E+00
  .000E+00  .000E+00  .000E+00  .000E+00  .000E+00  .000E+00  .000E+00  .000E+00
  .000E+00  .000E+00  .000E+00  .000E+00  .000E+00  .000E+00  .000E+00  .000E+00
  .000E+00  .000E+00  .000E+00  .000E+00  .000E+00  .000E+00  .000E+00  .000E+00
  .000E+00  .000E+00  .000E+00  .000E+00
Damping =  .02. Data of Sd,Sv,Sa,Pssv,ttSd,ttSv,ttSa :
  .185E-03  .204E-03  .224E-03  .245E-03  .269E-03  .296E-03  .370E-03  .439E-03
  .586E-03  .656E-03  .746E-03  .908E-03  .100E-02  .110E-02  .136E-02  .156E-02
  .279E-02  .346E-02  .373E-02  .521E-02  .446E-02  .628E-02  .945E-02  .118E-01
  .193E-01  .189E-01  .218E-01  .153E-01  .168E-01  .220E-01  .294E-01  .344E-01
  .256E-01  .307E-01  .296E-01  .253E-01  .279E-01  .361E-01  .554E-01  .630E-01
  .557E-01  .644E-01  .904E-01  .115E+00  .107E+00  .197E+00  .206E+00  .257E+00
  .302E+00  .238E+00  .220E+00  .177E+00  .175E+00  .284E+00  .552E+00  .475E+00
  .261E+00  .227E+00  .178E+00  .195E+00  .264E+00  .433E+00  .283E+00  .194E+00
  .159E+00  .140E+00  .133E+00  .115E+00  .000E+00  .000E+00  .000E+00  .000E+00
  .000E+00  .000E+00  .000E+00  .000E+00  .000E+00  .000E+00  .000E+00  .000E+00
  .000E+00  .000E+00  .000E+00  .000E+00  .000E+00  .000E+00  .000E+00  .000E+00
  .000E+00  .000E+00  .000E+00  .000E+00  .000E+00  .000E+00  .000E+00  .000E+00
  .000E+00  .000E+00  .000E+00  .000E+00
  .455E-02  .501E-02  .547E-02  .602E-02  .694E-02  .767E-02  .881E-02  .123E-01
  .148E-01  .173E-01  .194E-01  .248E-01  .345E-01  .492E-01  .532E-01  .618E-01
  .100E+00  .140E+00  .167E+00  .182E+00  .164E+00  .184E+00  .322E+00  .352E+00
  .609E+00  .566E+00  .591E+00  .391E+00  .367E+00  .480E+00  .622E+00  .676E+00
  .485E+00  .478E+00  .463E+00  .382E+00  .347E+00  .500E+00  .750E+00  .851E+00
  .716E+00  .620E+00  .922E+00  .110E+01  .996E+00  .159E+01  .157E+01  .188E+01
  .210E+01  .156E+01  .139E+01  .106E+01  .928E+00  .133E+01  .251E+01  .209E+01
  .115E+01  .923E+00  .785E+00  .739E+00  .884E+00  .143E+01  .834E+00  .719E+00
  .537E+00  .590E+00  .581E+00  .571E+00  .000E+00  .000E+00  .000E+00  .000E+00
  .000E+00  .000E+00  .000E+00  .000E+00  .000E+00  .000E+00  .000E+00  .000E+00
  .000E+00  .000E+00  .000E+00  .000E+00  .000E+00  .000E+00  .000E+00  .000E+00
  .000E+00  .000E+00  .000E+00  .000E+00  .000E+00  .000E+00  .000E+00  .000E+00
  .000E+00  .000E+00  .000E+00  .000E+00
  .118E-01  .118E-01  .118E-01  .118E-01  .120E-01  .121E-01  .125E-01  .125E-01
  .142E-01  .137E-01  .136E-01  .145E-01  .142E-01  .139E-01  .153E-01  .160E-01
  .236E-01  .245E-01  .225E-01  .272E-01  .203E-01  .251E-01  .334E-01  .374E-01
  .548E-01  .482E-01  .461E-01  .271E-01  .255E-01  .286E-01  .335E-01  .344E-01
  .226E-01  .243E-01  .210E-01  .162E-01  .162E-01  .191E-01  .268E-01  .280E-01
  .228E-01  .218E-01  .257E-01  .278E-01  .224E-01  .358E-01  .330E-01  .365E-01
  .382E-01  .270E-01  .225E-01  .150E-01  .124E-01  .172E-01  .288E-01  .216E-01
  .104E-01  .804E-02  .562E-02  .553E-02  .676E-02  .916E-02  .504E-02  .294E-02
  .208E-02  .159E-02  .133E-02  .102E-02  .000E+00  .000E+00  .000E+00  .000E+00
  .000E+00  .000E+00  .000E+00  .000E+00  .000E+00  .000E+00  .000E+00  .000E+00
  .000E+00  .000E+00  .000E+00  .000E+00  .000E+00  .000E+00  .000E+00  .000E+00
  .000E+00  .000E+00  .000E+00  .000E+00  .000E+00  .000E+00  .000E+00  .000E+00
  .000E+00  .000E+00  .000E+00  .000E+00
  .290E-01  .305E-01  .319E-01  .334E-01  .352E-01  .372E-01  .422E-01  .460E-01
  .566E-01  .589E-01  .625E-01  .714E-01  .740E-01  .767E-01  .896E-01  .983E-01
  .160E+00  .181E+00  .180E+00  .234E+00  .187E+00  .247E+00  .349E+00  .413E+00
  .638E+00  .593E+00  .624E+00  .400E+00  .406E+00  .493E+00  .617E+00  .675E+00
  .472E+00  .536E+00  .490E+00  .397E+00  .418E+00  .516E+00  .757E+00  .825E+00
  .700E+00  .736E+00  .947E+00  .111E+01  .961E+00  .165E+01  .162E+01  .190E+01
  .211E+01  .157E+01  .138E+01  .101E+01  .916E+00  .137E+01  .248E+01  .199E+01
  .102E+01  .839E+00  .621E+00  .644E+00  .830E+00  .124E+01  .742E+00  .469E+00
  .357E+00  .293E+00  .262E+00  .212E+00  .000E+00  .000E+00  .000E+00  .000E+00
  .000E+00  .000E+00  .000E+00  .000E+00  .000E+00  .000E+00  .000E+00  .000E+00
  .000E+00  .000E+00  .000E+00  .000E+00  .000E+00  .000E+00  .000E+00  .000E+00
  .000E+00  .000E+00  .000E+00  .000E+00  .000E+00  .000E+00  .000E+00  .000E+00
  .000E+00  .000E+00  .000E+00  .000E+00
  .298E+02  .298E+02  .298E+02  .298E+02  .298E+02  .298E+02  .298E+02  .298E+02
  .298E+02  .298E+02  .298E+02  .298E+02  .298E+02  .293E+02  .293E+02  .298E+02
  .298E+02  .298E+02  .320E+02  .298E+02  .321E+02  .298E+02  .307E+02  .293E+02
  .301E+02  .302E+02  .302E+02  .294E+02  .302E+02  .303E+02  .305E+02  .320E+02
  .320E+02  .366E+02  .367E+02  .336E+02  .458E+02  .317E+02  .317E+02  .347E+02
  .316E+02  .367E+02  .295E+02  .299E+02  .304E+02  .459E+02  .464E+02  .369E+02
  .466E+02  .496E+02  .527E+02  .450E+02  .533E+02  .370E+02  .415E+02  .418E+02
  .419E+02  .391E+02  .384E+02  .482E+02  .524E+02  .498E+02  .459E+02  .459E+02
  .405E+02  .459E+02  .632E+02  .362E+02  .000E+00  .000E+00  .000E+00  .000E+00
  .000E+00  .000E+00  .000E+00  .000E+00  .000E+00  .000E+00  .000E+00  .000E+00
  .000E+00  .000E+00  .000E+00  .000E+00  .000E+00  .000E+00  .000E+00  .000E+00
  .000E+00  .000E+00  .000E+00  .000E+00  .000E+00  .000E+00  .000E+00  .000E+00
  .000E+00  .000E+00  .000E+00  .000E+00
  .293E+02  .293E+02  .293E+02  .293E+02  .293E+02  .293E+02  .293E+02  .293E+02
  .298E+02  .293E+02  .293E+02  .293E+02  .293E+02  .293E+02  .319E+02  .298E+02
  .298E+02  .299E+02  .320E+02  .311E+02  .321E+02  .299E+02  .307E+02  .294E+02
  .301E+02  .301E+02  .302E+02  .297E+02  .308E+02  .305E+02  .304E+02  .320E+02
  .319E+02  .351E+02  .348E+02  .335E+02  .299E+02  .318E+02  .316E+02  .317E+02
  .317E+02  .368E+02  .315E+02  .308E+02  .306E+02  .461E+02  .466E+02  .467E+02
  .468E+02  .498E+02  .494E+02  .453E+02  .440E+02  .373E+02  .418E+02  .415E+02
  .415E+02  .394E+02  .365E+02  .487E+02  .528E+02  .482E+02  .456E+02  .456E+02
  .456E+02  .365E+02  .365E+02  .365E+02  .000E+00  .000E+00  .000E+00  .000E+00
  .000E+00  .000E+00  .000E+00  .000E+00  .000E+00  .000E+00  .000E+00  .000E+00
  .000E+00  .000E+00  .000E+00  .000E+00  .000E+00  .000E+00  .000E+00  .000E+00
  .000E+00  .000E+00  .000E+00  .000E+00  .000E+00  .000E+00  .000E+00  .000E+00
  .000E+00  .000E+00  .000E+00  .000E+00
  .298E+02  .298E+02  .298E+02  .298E+02  .298E+02  .298E+02  .298E+02  .298E+02
  .298E+02  .298E+02  .298E+02  .298E+02  .298E+02  .293E+02  .293E+02  .298E+02
  .298E+02  .298E+02  .320E+02  .298E+02  .321E+02  .298E+02  .307E+02  .293E+02
  .300E+02  .302E+02  .302E+02  .296E+02  .302E+02  .326E+02  .305E+02  .320E+02
  .320E+02  .366E+02  .367E+02  .336E+02  .458E+02  .317E+02  .317E+02  .347E+02
  .316E+02  .367E+02  .295E+02  .299E+02  .304E+02  .459E+02  .464E+02  .369E+02
  .466E+02  .496E+02  .526E+02  .450E+02  .533E+02  .370E+02  .415E+02  .418E+02
  .419E+02  .391E+02  .384E+02  .482E+02  .524E+02  .498E+02  .458E+02  .459E+02
  .405E+02  .459E+02  .631E+02  .362E+02  .000E+00  .000E+00  .000E+00  .000E+00
  .000E+00  .000E+00  .000E+00  .000E+00  .000E+00  .000E+00  .000E+00  .000E+00
  .000E+00  .000E+00  .000E+00  .000E+00  .000E+00  .000E+00  .000E+00  .000E+00
  .000E+00  .000E+00  .000E+00  .000E+00  .000E+00  .000E+00  .000E+00  .000E+00
  .000E+00  .000E+00  .000E+00  .000E+00
Damping =  .05. Data of Sd,Sv,Sa,Pssv,ttSd,ttSv,ttSa :
  .184E-03  .204E-03  .224E-03  .246E-03  .269E-03  .295E-03  .368E-03  .446E-03
