Response and Fourier amplitude spectra (68 periods,  .04 -  3.4 sec)   for      
Corrected accelerogram   47796-M0115-07303.01       Chan  4:  90 Deg     from   
Uncorrected Accelerogram Data             Processed: 11/09/07, CDMG  ce47796d   
Record of Tue Oct 30, 2007 20:04:52.0 PDT             (Avol1 v7.5 7/07 CSMIP)   
CSMIP Preliminary Processing            (Origin:  To be determined)             
47796-M0115-07303.01                 Start time: 10/31/07, 03:04:52.0 UTC (GPS) 
Station No. 47796   36.697N, 121.632W    MtWtny  s/n  115 (15 Channels)         
Salinas - 3-story County Hospital         CGS                                   
Chan  4:  90 DegR                   Location: 2nd Floor: Near Center            
Record of Tue Oct 30, 2007 20:04:52.0 PDT    Tue Oct 30, 2007 20:04:52.0 PDT    
Hypocenter:  To be determined.               ML:  To be determined.
Instr Period =  .0200 sec,  Damping =  .700,  Sensitivity =  .63  v/g  (Nominal)
                        Record length = 76.000 sec.
                                     Uncor Max  =  -.009 g , at  29.835 sec.
RMS accel of (uncor) record  =        .   Chn. metadata effective date: 01/01/04
Accelerogram bandpass filtered with 3 dB pts at   .30 and 40.00 cyc/sec
                 instrument- and baseline-corrected





Record of Tue Oct 30, 2007 20:04:52.0 PDT    Tue Oct 30, 2007 20:04:52.0 PDT

47796-M0115-07303.01      Salinas - 3-story County Hospital   Chan  4:  90 Deg

47796-M0115-07303.01      Salinas - 3-story County Hospital   Chan  4:  90 Deg

Units for spectra are inches and sec, except Sa is in fraction of g.

    4  100    4   18   15  200    1    3    1   24   13  115    047796    2    0
    3    4   52    0  304   10   31 2007   10    3   9015200   41   33   76   26
15200    0   50    3  115    1    1  760    2    0    0    0    0    0    0    0
    0    4    0    015200    1  220    1   18    4   76   33    0    0    015200
    315200   34   68    5   15    5    0    0    0   15    0    0    3    0    2
    2    2    4    0   72   99    0   32   32    0    1    1    0    0    0    0
    1    1   20    0
      .020      .700    76.000      .002      .000   625.000     -.009    29.835
    50.000      .298      .477      .000     5.000      .000      .000      .000
     2.500    -3.595     2.500  -999.000    25.000    30.000      .000     -.002
      .019      .020     2.000    15.000    36.697  -121.632      .044      .675
    15.480     -.012      .053    26.000    25.800    45.700    12.800   106.340
     1.000    -1.066     7.000      .000      .000      .000      .000      .000
     3.000     7.500     4.600   980.665      .005    76.000     7.958      .000
      .000    40.000      .000    76.000      .005      .303      .000      .000
    29.830    -9.061    36.510     1.210    45.845      .181      .000      .303
    40.000      .005      .005      .000      .005      .100      .000      .000
      .034      .360      .025      .021      .016      .001      .000      .000
      .000      .000      .000      .000      .000      .000      .000      .000
      .000      .000      .000      .000
      .000      .020      .050      .100      .200
      .040      .042      .044      .046      .048      .050      .055      .060
      .065      .070      .075      .080      .085      .090      .095      .100
      .110      .120      .130      .140      .150      .160      .170      .180
      .190      .200      .220      .240      .260      .280      .300      .320
      .340      .360      .380      .400      .420      .440      .460      .480
      .500      .550      .600      .650      .700      .750      .800      .850
      .900      .950     1.000     1.100     1.200     1.300     1.400     1.500
     1.600     1.700     1.800     1.900     2.000     2.200     2.400     2.600
     2.800     3.000     3.200     3.400      .000      .000      .000      .000
      .000      .000      .000      .000      .000      .000      .000      .000
      .000      .000      .000      .000      .000      .000      .000      .000
      .000      .000      .000      .000      .000      .000      .000      .000
      .000      .000      .000      .000
Fourier amplitude spectra in in/sec.
  .854E-02  .637E-02  .426E-02  .140E-01  .807E-02  .136E-01  .707E-02  .666E-02
  .306E-01  .190E-01  .514E-02  .311E-01  .376E-01  .829E-01  .997E-01  .116E+00
  .877E-01  .868E-01  .431E+00  .312E+00  .294E+00  .265E+00  .254E+00  .390E+00
  .944E+00  .555E+00  .563E+00  .311E+00  .145E-01  .501E-01  .689E+00  .105E+01
  .207E+01  .307E+01  .224E+01  .938E+00  .130E+00  .142E+01  .208E+01  .233E+01
  .741E+00  .214E+01  .159E+01  .137E+01  .388E+00  .332E+01  .307E+01  .459E+01
  .360E+01  .343E+01  .275E+01  .101E+01  .127E+01  .123E+01  .480E+01  .393E+01
  .143E+01  .454E+00  .238E+00  .109E+01  .114E+01  .248E+01  .110E+01  .602E+00
  .203E+00  .230E+00  .438E+00  .463E-01  .000E+00  .000E+00  .000E+00  .000E+00
  .000E+00  .000E+00  .000E+00  .000E+00  .000E+00  .000E+00  .000E+00  .000E+00
  .000E+00  .000E+00  .000E+00  .000E+00  .000E+00  .000E+00  .000E+00  .000E+00
  .000E+00  .000E+00  .000E+00  .000E+00  .000E+00  .000E+00  .000E+00  .000E+00
  .000E+00  .000E+00  .000E+00  .000E+00
Damping =  .00. Data of Sd,Sv,Sa,Pssv,ttSd,ttSv,ttSa :
  .162E-03  .190E-03  .209E-03  .241E-03  .224E-03  .269E-03  .310E-03  .361E-03
  .616E-03  .658E-03  .765E-03  .840E-03  .150E-02  .176E-02  .217E-02  .276E-02
  .338E-02  .483E-02  .120E-01  .855E-02  .109E-01  .922E-02  .149E-01  .141E-01
  .344E-01  .252E-01  .318E-01  .158E-01  .121E-01  .244E-01  .456E-01  .649E-01
  .181E+00  .197E+00  .171E+00  .965E-01  .617E-01  .125E+00  .166E+00  .209E+00
  .129E+00  .225E+00  .249E+00  .250E+00  .144E+00  .413E+00  .423E+00  .633E+00
  .572E+00  .575E+00  .561E+00  .250E+00  .367E+00  .407E+00  .111E+01  .103E+01
  .388E+00  .274E+00  .216E+00  .355E+00  .425E+00  .890E+00  .421E+00  .249E+00
  .193E+00  .168E+00  .223E+00  .152E+00  .000E+00  .000E+00  .000E+00  .000E+00
  .000E+00  .000E+00  .000E+00  .000E+00  .000E+00  .000E+00  .000E+00  .000E+00
  .000E+00  .000E+00  .000E+00  .000E+00  .000E+00  .000E+00  .000E+00  .000E+00
  .000E+00  .000E+00  .000E+00  .000E+00  .000E+00  .000E+00  .000E+00  .000E+00
  .000E+00  .000E+00  .000E+00  .000E+00
  .945E-02  .107E-01  .101E-01  .143E-01  .109E-01  .143E-01  .114E-01  .158E-01
  .317E-01  .344E-01  .291E-01  .398E-01  .805E-01  .903E-01  .112E+00  .137E+00
  .169E+00  .213E+00  .537E+00  .364E+00  .412E+00  .305E+00  .531E+00  .451E+00
  .108E+01  .724E+00  .887E+00  .346E+00  .281E+00  .517E+00  .900E+00  .125E+01
  .330E+01  .332E+01  .280E+01  .149E+01  .896E+00  .176E+01  .225E+01  .270E+01
  .153E+01  .255E+01  .262E+01  .233E+01  .129E+01  .346E+01  .329E+01  .466E+01
  .398E+01  .377E+01  .351E+01  .142E+01  .190E+01  .198E+01  .502E+01  .437E+01
  .159E+01  .113E+01  .100E+01  .119E+01  .129E+01  .257E+01  .110E+01  .843E+00
  .564E+00  .672E+00  .647E+00  .648E+00  .000E+00  .000E+00  .000E+00  .000E+00
  .000E+00  .000E+00  .000E+00  .000E+00  .000E+00  .000E+00  .000E+00  .000E+00
  .000E+00  .000E+00  .000E+00  .000E+00  .000E+00  .000E+00  .000E+00  .000E+00
  .000E+00  .000E+00  .000E+00  .000E+00  .000E+00  .000E+00  .000E+00  .000E+00
  .000E+00  .000E+00  .000E+00  .000E+00
  .103E-01  .110E-01  .110E-01  .117E-01  .995E-02  .110E-01  .105E-01  .103E-01
  .149E-01  .137E-01  .139E-01  .134E-01  .212E-01  .223E-01  .246E-01  .282E-01
  .286E-01  .343E-01  .726E-01  .446E-01  .497E-01  .369E-01  .527E-01  .446E-01
  .975E-01  .644E-01  .673E-01  .280E-01  .183E-01  .318E-01  .519E-01  .648E-01
  .160E+00  .155E+00  .121E+00  .617E-01  .358E-01  .662E-01  .804E-01  .929E-01
  .527E-01  .762E-01  .706E-01  .605E-01  .300E-01  .751E-01  .675E-01  .896E-01
  .722E-01  .652E-01  .574E-01  .212E-01  .260E-01  .246E-01  .581E-01  .469E-01
  .155E-01  .969E-02  .683E-02  .101E-01  .109E-01  .188E-01  .747E-02  .377E-02
  .251E-02  .191E-02  .223E-02  .134E-02  .000E+00  .000E+00  .000E+00  .000E+00
  .000E+00  .000E+00  .000E+00  .000E+00  .000E+00  .000E+00  .000E+00  .000E+00
  .000E+00  .000E+00  .000E+00  .000E+00  .000E+00  .000E+00  .000E+00  .000E+00
  .000E+00  .000E+00  .000E+00  .000E+00  .000E+00  .000E+00  .000E+00  .000E+00
  .000E+00  .000E+00  .000E+00  .000E+00
  .254E-01  .285E-01  .298E-01  .330E-01  .293E-01  .338E-01  .354E-01  .378E-01
  .596E-01  .590E-01  .641E-01  .660E-01  .111E+00  .123E+00  .144E+00  .173E+00
  .193E+00  .253E+00  .580E+00  .384E+00  .458E+00  .362E+00  .550E+00  .493E+00
  .114E+01  .791E+00  .909E+00  .413E+00  .293E+00  .547E+00  .956E+00  .127E+01
  .334E+01  .343E+01  .283E+01  .152E+01  .923E+00  .179E+01  .227E+01  .274E+01
  .162E+01  .257E+01  .260E+01  .242E+01  .129E+01  .346E+01  .332E+01  .468E+01
  .399E+01  .380E+01  .353E+01  .143E+01  .192E+01  .197E+01  .500E+01  .432E+01
  .153E+01  .101E+01  .755E+00  .117E+01  .134E+01  .254E+01  .110E+01  .602E+00
  .432E+00  .352E+00  .438E+00  .280E+00  .000E+00  .000E+00  .000E+00  .000E+00
  .000E+00  .000E+00  .000E+00  .000E+00  .000E+00  .000E+00  .000E+00  .000E+00
  .000E+00  .000E+00  .000E+00  .000E+00  .000E+00  .000E+00  .000E+00  .000E+00
  .000E+00  .000E+00  .000E+00  .000E+00  .000E+00  .000E+00  .000E+00  .000E+00
  .000E+00  .000E+00  .000E+00  .000E+00
  .363E+02  .364E+02  .298E+02  .298E+02  .454E+02  .454E+02  .298E+02  .364E+02
  .364E+02  .363E+02  .298E+02  .458E+02  .310E+02  .458E+02  .458E+02  .458E+02
  .309E+02  .309E+02  .335E+02  .398E+02  .345E+02  .290E+02  .307E+02  .326E+02
  .317E+02  .345E+02  .320E+02  .454E+02  .291E+02  .320E+02  .438E+02  .329E+02
  .331E+02  .455E+02  .404E+02  .435E+02  .396E+02  .492E+02  .640E+02  .438E+02
  .363E+02  .627E+02  .341E+02  .442E+02  .357E+02  .654E+02  .620E+02  .475E+02
  .633E+02  .634E+02  .587E+02  .695E+02  .587E+02  .369E+02  .715E+02  .621E+02
  .620E+02  .391E+02  .385E+02  .730E+02  .683E+02  .729E+02  .758E+02  .765E+02
  .405E+02  .459E+02  .773E+02  .606E+02  .000E+00  .000E+00  .000E+00  .000E+00
  .000E+00  .000E+00  .000E+00  .000E+00  .000E+00  .000E+00  .000E+00  .000E+00
  .000E+00  .000E+00  .000E+00  .000E+00  .000E+00  .000E+00  .000E+00  .000E+00
  .000E+00  .000E+00  .000E+00  .000E+00  .000E+00  .000E+00  .000E+00  .000E+00
  .000E+00  .000E+00  .000E+00  .000E+00
  .677E+02  .334E+02  .287E+02  .737E+02  .439E+02  .691E+02  .287E+02  .310E+02
  .498E+02  .344E+02  .309E+02  .318E+02  .310E+02  .453E+02  .440E+02  .454E+02
  .324E+02  .309E+02  .335E+02  .304E+02  .345E+02  .291E+02  .307E+02  .326E+02
  .316E+02  .354E+02  .319E+02  .453E+02  .308E+02  .319E+02  .439E+02  .328E+02
  .330E+02  .488E+02  .382E+02  .436E+02  .395E+02  .491E+02  .638E+02  .461E+02
  .362E+02  .628E+02  .336E+02  .443E+02  .355E+02  .656E+02  .622E+02  .477E+02
  .635E+02  .632E+02  .634E+02  .697E+02  .584E+02  .358E+02  .712E+02  .617E+02
  .440E+02  .394E+02  .365E+02  .735E+02  .657E+02  .735E+02  .752E+02  .456E+02
  .365E+02  .365E+02  .365E+02  .365E+02  .000E+00  .000E+00  .000E+00  .000E+00
  .000E+00  .000E+00  .000E+00  .000E+00  .000E+00  .000E+00  .000E+00  .000E+00
  .000E+00  .000E+00  .000E+00  .000E+00  .000E+00  .000E+00  .000E+00  .000E+00
  .000E+00  .000E+00  .000E+00  .000E+00  .000E+00  .000E+00  .000E+00  .000E+00
  .000E+00  .000E+00  .000E+00  .000E+00
  .363E+02  .364E+02  .298E+02  .298E+02  .454E+02  .454E+02  .298E+02  .364E+02
  .364E+02  .363E+02  .298E+02  .458E+02  .310E+02  .458E+02  .458E+02  .458E+02
  .309E+02  .309E+02  .335E+02  .398E+02  .345E+02  .290E+02  .307E+02  .326E+02
  .317E+02  .345E+02  .320E+02  .454E+02  .291E+02  .320E+02  .438E+02  .329E+02
  .331E+02  .455E+02  .404E+02  .435E+02  .396E+02  .492E+02  .640E+02  .438E+02
  .363E+02  .627E+02  .341E+02  .442E+02  .357E+02  .654E+02  .620E+02  .475E+02
  .633E+02  .634E+02  .587E+02  .695E+02  .587E+02  .369E+02  .715E+02  .621E+02
  .620E+02  .391E+02  .385E+02  .730E+02  .683E+02  .729E+02  .758E+02  .765E+02
  .405E+02  .459E+02  .773E+02  .606E+02  .000E+00  .000E+00  .000E+00  .000E+00
  .000E+00  .000E+00  .000E+00  .000E+00  .000E+00  .000E+00  .000E+00  .000E+00
  .000E+00  .000E+00  .000E+00  .000E+00  .000E+00  .000E+00  .000E+00  .000E+00
  .000E+00  .000E+00  .000E+00  .000E+00  .000E+00  .000E+00  .000E+00  .000E+00
  .000E+00  .000E+00  .000E+00  .000E+00
Damping =  .02. Data of Sd,Sv,Sa,Pssv,ttSd,ttSv,ttSa :
  .147E-03  .162E-03  .184E-03  .202E-03  .219E-03  .243E-03  .307E-03  .361E-03
  .469E-03  .495E-03  .599E-03  .755E-03  .860E-03  .868E-03  .993E-03  .148E-02
  .246E-02  .349E-02  .497E-02  .633E-02  .602E-02  .662E-02  .855E-02  .924E-02
  .148E-01  .136E-01  .145E-01  .942E-02  .108E-01  .177E-01  .243E-01  .380E-01
  .496E-01  .820E-01  .604E-01  .456E-01  .427E-01  .533E-01  .815E-01  .956E-01
  .887E-01  .822E-01  .116E+00  .132E+00  .122E+00  .217E+00  .224E+00  .281E+00
  .319E+00  .253E+00  .231E+00  .185E+00  .181E+00  .292E+00  .569E+00  .488E+00
  .265E+00  .231E+00  .186E+00  .200E+00  .268E+00  .438E+00  .291E+00  .199E+00
  .164E+00  .144E+00  .136E+00  .117E+00  .000E+00  .000E+00  .000E+00  .000E+00
  .000E+00  .000E+00  .000E+00  .000E+00  .000E+00  .000E+00  .000E+00  .000E+00
  .000E+00  .000E+00  .000E+00  .000E+00  .000E+00  .000E+00  .000E+00  .000E+00
  .000E+00  .000E+00  .000E+00  .000E+00  .000E+00  .000E+00  .000E+00  .000E+00
  .000E+00  .000E+00  .000E+00  .000E+00
  .397E-02  .535E-02  .551E-02  .617E-02  .626E-02  .704E-02  .943E-02  .115E-01
  .137E-01  .172E-01  .182E-01  .251E-01  .326E-01  .365E-01  .401E-01  .501E-01
  .903E-01  .144E+00  .223E+00  .253E+00  .241E+00  .201E+00  .287E+00  .300E+00
  .488E+00  .393E+00  .393E+00  .215E+00  .189E+00  .388E+00  .458E+00  .702E+00
  .892E+00  .133E+01  .971E+00  .725E+00  .545E+00  .797E+00  .113E+01  .125E+01
  .109E+01  .880E+00  .126E+01  .131E+01  .114E+01  .178E+01  .170E+01  .204E+01
  .221E+01  .167E+01  .147E+01  .115E+01  .100E+01  .142E+01  .259E+01  .218E+01
  .122E+01  .968E+00  .847E+00  .766E+00  .902E+00  .147E+01  .880E+00  .761E+00
  .588E+00  .648E+00  .640E+00  .631E+00  .000E+00  .000E+00  .000E+00  .000E+00
  .000E+00  .000E+00  .000E+00  .000E+00  .000E+00  .000E+00  .000E+00  .000E+00
  .000E+00  .000E+00  .000E+00  .000E+00  .000E+00  .000E+00  .000E+00  .000E+00
  .000E+00  .000E+00  .000E+00  .000E+00  .000E+00  .000E+00  .000E+00  .000E+00
  .000E+00  .000E+00  .000E+00  .000E+00
  .941E-02  .937E-02  .970E-02  .978E-02  .973E-02  .992E-02  .104E-01  .103E-01
  .113E-01  .103E-01  .109E-01  .121E-01  .122E-01  .109E-01  .113E-01  .152E-01
  .207E-01  .248E-01  .301E-01  .330E-01  .273E-01  .265E-01  .302E-01  .292E-01
  .419E-01  .347E-01  .306E-01  .167E-01  .163E-01  .232E-01  .277E-01  .380E-01
  .438E-01  .647E-01  .428E-01  .292E-01  .248E-01  .282E-01  .394E-01  .424E-01
  .363E-01  .278E-01  .329E-01  .319E-01  .255E-01  .395E-01  .358E-01  .398E-01
  .403E-01  .287E-01  .237E-01  .157E-01  .129E-01  .177E-01  .297E-01  .222E-01
  .106E-01  .817E-02  .588E-02  .567E-02  .686E-02  .926E-02  .517E-02  .301E-02
  .214E-02  .164E-02  .136E-02  .104E-02  .000E+00  .000E+00  .000E+00  .000E+00
  .000E+00  .000E+00  .000E+00  .000E+00  .000E+00  .000E+00  .000E+00  .000E+00
  .000E+00  .000E+00  .000E+00  .000E+00  .000E+00  .000E+00  .000E+00  .000E+00
  .000E+00  .000E+00  .000E+00  .000E+00  .000E+00  .000E+00  .000E+00  .000E+00
  .000E+00  .000E+00  .000E+00  .000E+00
  .231E-01  .242E-01  .262E-01  .276E-01  .287E-01  .305E-01  .351E-01  .379E-01
  .453E-01  .445E-01  .502E-01  .593E-01  .636E-01  .606E-01  .657E-01  .931E-01
  .140E+00  .183E+00  .240E+00  .284E+00  .252E+00  .260E+00  .316E+00  .322E+00
  .489E+00  .427E+00  .413E+00  .246E+00  .261E+00  .398E+00  .510E+00  .746E+00
  .916E+00  .143E+01  .998E+00  .716E+00  .639E+00  .761E+00  .111E+01  .125E+01
  .112E+01  .939E+00  .121E+01  .127E+01  .109E+01  .182E+01  .176E+01  .208E+01
  .223E+01  .167E+01  .145E+01  .106E+01  .947E+00  .141E+01  .255E+01  .204E+01
  .104E+01  .852E+00  .649E+00  .661E+00  .842E+00  .125E+01  .761E+00  .480E+00
  .367E+00  .301E+00  .267E+00  .216E+00  .000E+00  .000E+00  .000E+00  .000E+00
  .000E+00  .000E+00  .000E+00  .000E+00  .000E+00  .000E+00  .000E+00  .000E+00
  .000E+00  .000E+00  .000E+00  .000E+00  .000E+00  .000E+00  .000E+00  .000E+00
  .000E+00  .000E+00  .000E+00  .000E+00  .000E+00  .000E+00  .000E+00  .000E+00
  .000E+00  .000E+00  .000E+00  .000E+00
  .298E+02  .298E+02  .298E+02  .298E+02  .298E+02  .298E+02  .298E+02  .298E+02
  .298E+02  .321E+02  .298E+02  .310E+02  .321E+02  .321E+02  .290E+02  .298E+02
  .298E+02  .310E+02  .312E+02  .298E+02  .322E+02  .290E+02  .307E+02  .295E+02
  .311E+02  .302E+02  .302E+02  .346E+02  .346E+02  .320E+02  .340E+02  .326E+02
  .326E+02  .366E+02  .342E+02  .336E+02  .458E+02  .322E+02  .322E+02  .318E+02
  .318E+02  .459E+02  .317E+02  .309E+02  .304E+02  .459E+02  .464E+02  .369E+02
  .466E+02  .496E+02  .527E+02  .450E+02  .533E+02  .370E+02  .415E+02  .418E+02
  .419E+02  .391E+02  .384E+02  .483E+02  .524E+02  .498E+02  .459E+02  .459E+02
  .405E+02  .459E+02  .632E+02  .362E+02  .000E+00  .000E+00  .000E+00  .000E+00
  .000E+00  .000E+00  .000E+00  .000E+00  .000E+00  .000E+00  .000E+00  .000E+00
  .000E+00  .000E+00  .000E+00  .000E+00  .000E+00  .000E+00  .000E+00  .000E+00
  .000E+00  .000E+00  .000E+00  .000E+00  .000E+00  .000E+00  .000E+00  .000E+00
  .000E+00  .000E+00  .000E+00  .000E+00
  .310E+02  .310E+02  .310E+02  .310E+02  .310E+02  .310E+02  .310E+02  .310E+02
  .310E+02  .310E+02  .321E+02  .318E+02  .310E+02  .322E+02  .310E+02  .298E+02
  .299E+02  .310E+02  .312E+02  .312E+02  .321E+02  .291E+02  .307E+02  .323E+02
  .311E+02  .301E+02  .311E+02  .297E+02  .305E+02  .319E+02  .340E+02  .328E+02
  .327E+02  .366E+02  .348E+02  .338E+02  .457E+02  .323E+02  .321E+02  .319E+02
  .317E+02  .318E+02  .315E+02  .308E+02  .306E+02  .461E+02  .466E+02  .367E+02
  .468E+02  .498E+02  .495E+02  .453E+02  .440E+02  .352E+02  .418E+02  .415E+02
  .415E+02  .394E+02  .365E+02  .487E+02  .528E+02  .482E+02  .456E+02  .456E+02
  .365E+02  .365E+02  .365E+02  .365E+02  .000E+00  .000E+00  .000E+00  .000E+00
  .000E+00  .000E+00  .000E+00  .000E+00  .000E+00  .000E+00  .000E+00  .000E+00
  .000E+00  .000E+00  .000E+00  .000E+00  .000E+00  .000E+00  .000E+00  .000E+00
  .000E+00  .000E+00  .000E+00  .000E+00  .000E+00  .000E+00  .000E+00  .000E+00
  .000E+00  .000E+00  .000E+00  .000E+00
  .298E+02  .298E+02  .298E+02  .298E+02  .298E+02  .298E+02  .298E+02  .298E+02
  .298E+02  .321E+02  .298E+02  .310E+02  .321E+02  .321E+02  .290E+02  .298E+02
  .298E+02  .310E+02  .312E+02  .298E+02  .322E+02  .290E+02  .307E+02  .295E+02
  .311E+02  .302E+02  .302E+02  .346E+02  .346E+02  .320E+02  .340E+02  .326E+02
  .326E+02  .366E+02  .381E+02  .336E+02  .458E+02  .322E+02  .322E+02  .318E+02
  .318E+02  .459E+02  .317E+02  .309E+02  .304E+02  .459E+02  .464E+02  .369E+02
  .466E+02  .496E+02  .526E+02  .450E+02  .533E+02  .370E+02  .415E+02  .418E+02
  .419E+02  .391E+02  .384E+02  .482E+02  .524E+02  .498E+02  .458E+02  .459E+02
  .405E+02  .458E+02  .631E+02  .362E+02  .000E+00  .000E+00  .000E+00  .000E+00
  .000E+00  .000E+00  .000E+00  .000E+00  .000E+00  .000E+00  .000E+00  .000E+00
  .000E+00  .000E+00  .000E+00  .000E+00  .000E+00  .000E+00  .000E+00  .000E+00
  .000E+00  .000E+00  .000E+00  .000E+00  .000E+00  .000E+00  .000E+00  .000E+00
  .000E+00  .000E+00  .000E+00  .000E+00
Damping =  .05. Data of Sd,Sv,Sa,Pssv,ttSd,ttSv,ttSa :
  .148E-03  .162E-03  .180E-03  .201E-03  .220E-03  .242E-03  .301E-03  .364E-03
