Response and Fourier amplitude spectra (68 periods,  .04 -  3.4 sec)   for      
Corrected accelerogram   47796-M0115-07303.01       Chan  5: 360 Deg     from   
Uncorrected Accelerogram Data             Processed: 11/09/07, CDMG  ce47796d   
Record of Tue Oct 30, 2007 20:04:52.0 PDT             (Avol1 v7.5 7/07 CSMIP)   
CSMIP Preliminary Processing            (Origin:  To be determined)             
47796-M0115-07303.01                 Start time: 10/31/07, 03:04:52.0 UTC (GPS) 
Station No. 47796   36.697N, 121.632W    MtWtny  s/n  115 (15 Channels)         
Salinas - 3-story County Hospital         CGS                                   
Chan  5: 360 DegR                   Location: 2nd Floor: Near East End          
Record of Tue Oct 30, 2007 20:04:52.0 PDT    Tue Oct 30, 2007 20:04:52.0 PDT    
Hypocenter:  To be determined.               ML:  To be determined.
Instr Period =  .0200 sec,  Damping =  .700,  Sensitivity =  .63  v/g  (Nominal)
                        Record length = 76.000 sec.
                                     Uncor Max  =  -.015 g , at  30.865 sec.
RMS accel of (uncor) record  =        .   Chn. metadata effective date: 01/01/04
Accelerogram bandpass filtered with 3 dB pts at   .30 and 40.00 cyc/sec
                 instrument- and baseline-corrected





Record of Tue Oct 30, 2007 20:04:52.0 PDT    Tue Oct 30, 2007 20:04:52.0 PDT

47796-M0115-07303.01      Salinas - 3-story County Hospital   Chan  5: 360 Deg

47796-M0115-07303.01      Salinas - 3-story County Hospital   Chan  5: 360 Deg

Units for spectra are inches and sec, except Sa is in fraction of g.

    5  100    5   18   15  200    1    3    1   24   13  115    047796    2    0
    3    4   52    0  304   10   31 2007   10    3  36015200   41   33   76   26
15200    0   50    3  115    1    1  760    2    0    0    0    0    0    0    0
    0    4    0    015200    1  220    1   18    4   76   33    0    0    015200
    315200   34   68    5   15    5    0    0    0   15    0    0    3    0    2
    2    2    4    0   72   99    0   32   32    0    1    1    0    0    0    0
    1    1   25    0
      .020      .700    76.000      .002      .000   625.000     -.015    30.865
    50.000      .298      .477      .000     5.000      .000      .000      .000
     2.500   -17.821     2.500  -999.000    25.000    30.000      .000     -.194
     -.206     -.013     2.000    15.000    36.697  -121.632      .033      .859
    25.978     -.053      .028    26.000    25.800    45.700    12.800   106.340
     1.000    -1.448     7.000      .000      .000      .000      .000      .000
     3.000     7.500     4.600   980.665      .005    76.000     7.958      .000
      .000    40.000      .000    76.000      .005      .303      .000      .000
    30.860   -14.322    16.440     1.269    15.955     -.470     -.003      .303
    40.000      .005      .005     -.002      .005      .133      .000      .000
      .066      .320      .028      .057      .023      .004      .000      .000
      .000      .000      .000      .000      .000      .000      .000      .000
      .000      .000      .000      .000
      .000      .020      .050      .100      .200
      .040      .042      .044      .046      .048      .050      .055      .060
      .065      .070      .075      .080      .085      .090      .095      .100
      .110      .120      .130      .140      .150      .160      .170      .180
      .190      .200      .220      .240      .260      .280      .300      .320
      .340      .360      .380      .400      .420      .440      .460      .480
      .500      .550      .600      .650      .700      .750      .800      .850
      .900      .950     1.000     1.100     1.200     1.300     1.400     1.500
     1.600     1.700     1.800     1.900     2.000     2.200     2.400     2.600
     2.800     3.000     3.200     3.400      .000      .000      .000      .000
      .000      .000      .000      .000      .000      .000      .000      .000
      .000      .000      .000      .000      .000      .000      .000      .000
      .000      .000      .000      .000      .000      .000      .000      .000
      .000      .000      .000      .000
Fourier amplitude spectra in in/sec.
  .987E-02  .429E-01  .102E-01  .808E-02  .194E-01  .236E-01  .424E-01  .298E-01
  .309E-01  .591E-01  .571E-01  .546E-01  .659E-01  .638E-01  .184E+00  .512E-01
  .178E+00  .244E+00  .790E+00  .328E+00  .324E+00  .365E+00  .285E+00  .100E+00
  .168E+00  .858E+00  .448E+00  .588E+00  .550E+00  .148E+00  .342E+01  .397E+01
  .361E+01  .251E+01  .247E+01  .798E-01  .129E+01  .100E+01  .115E+01  .204E+01
  .195E+01  .187E+01  .474E+00  .353E+01  .202E+00  .410E+01  .347E+01  .533E+01
  .409E+01  .327E+01  .420E+01  .175E+01  .177E+01  .173E+01  .222E+01  .174E+01
  .749E+00  .554E+00  .210E+01  .187E+01  .202E+01  .131E+01  .336E+01  .105E+01
  .983E+00  .127E+01  .851E+00  .783E+00  .000E+00  .000E+00  .000E+00  .000E+00
  .000E+00  .000E+00  .000E+00  .000E+00  .000E+00  .000E+00  .000E+00  .000E+00
  .000E+00  .000E+00  .000E+00  .000E+00  .000E+00  .000E+00  .000E+00  .000E+00
  .000E+00  .000E+00  .000E+00  .000E+00  .000E+00  .000E+00  .000E+00  .000E+00
  .000E+00  .000E+00  .000E+00  .000E+00
Damping =  .00. Data of Sd,Sv,Sa,Pssv,ttSd,ttSv,ttSa :
  .310E-03  .453E-03  .383E-03  .365E-03  .450E-03  .546E-03  .791E-03  .890E-03
  .835E-03  .130E-02  .139E-02  .180E-02  .152E-02  .255E-02  .358E-02  .236E-02
  .482E-02  .745E-02  .179E-01  .979E-02  .964E-02  .130E-01  .973E-02  .125E-01
  .195E-01  .337E-01  .195E-01  .366E-01  .357E-01  .457E-01  .192E+00  .213E+00
  .209E+00  .175E+00  .156E+00  .902E-01  .106E+00  .112E+00  .104E+00  .178E+00
  .211E+00  .180E+00  .124E+00  .394E+00  .220E+00  .523E+00  .513E+00  .774E+00
  .642E+00  .526E+00  .793E+00  .520E+00  .345E+00  .487E+00  .509E+00  .442E+00
  .703E+00  .323E+00  .602E+00  .655E+00  .769E+00  .696E+00  .129E+01  .776E+00
  .565E+00  .614E+00  .491E+00  .753E+00  .000E+00  .000E+00  .000E+00  .000E+00
  .000E+00  .000E+00  .000E+00  .000E+00  .000E+00  .000E+00  .000E+00  .000E+00
  .000E+00  .000E+00  .000E+00  .000E+00  .000E+00  .000E+00  .000E+00  .000E+00
  .000E+00  .000E+00  .000E+00  .000E+00  .000E+00  .000E+00  .000E+00  .000E+00
  .000E+00  .000E+00  .000E+00  .000E+00
  .169E-01  .445E-01  .276E-01  .158E-01  .263E-01  .301E-01  .487E-01  .513E-01
  .575E-01  .794E-01  .634E-01  .840E-01  .755E-01  .127E+00  .203E+00  .113E+00
  .252E+00  .363E+00  .812E+00  .404E+00  .378E+00  .471E+00  .309E+00  .381E+00
  .576E+00  .103E+01  .512E+00  .833E+00  .786E+00  .920E+00  .392E+01  .414E+01
  .384E+01  .305E+01  .257E+01  .141E+01  .158E+01  .170E+01  .137E+01  .229E+01
  .261E+01  .201E+01  .127E+01  .380E+01  .202E+01  .436E+01  .402E+01  .568E+01
  .444E+01  .345E+01  .504E+01  .301E+01  .182E+01  .248E+01  .237E+01  .184E+01
  .295E+01  .126E+01  .216E+01  .217E+01  .249E+01  .221E+01  .338E+01  .191E+01
  .130E+01  .128E+01  .105E+01  .158E+01  .000E+00  .000E+00  .000E+00  .000E+00
  .000E+00  .000E+00  .000E+00  .000E+00  .000E+00  .000E+00  .000E+00  .000E+00
  .000E+00  .000E+00  .000E+00  .000E+00  .000E+00  .000E+00  .000E+00  .000E+00
  .000E+00  .000E+00  .000E+00  .000E+00  .000E+00  .000E+00  .000E+00  .000E+00
  .000E+00  .000E+00  .000E+00  .000E+00
  .198E-01  .262E-01  .202E-01  .176E-01  .200E-01  .223E-01  .267E-01  .253E-01
  .202E-01  .271E-01  .253E-01  .287E-01  .215E-01  .321E-01  .406E-01  .242E-01
  .407E-01  .529E-01  .108E+00  .511E-01  .438E-01  .519E-01  .344E-01  .393E-01
  .551E-01  .861E-01  .412E-01  .650E-01  .540E-01  .596E-01  .218E+00  .213E+00
  .185E+00  .138E+00  .110E+00  .577E-01  .612E-01  .591E-01  .503E-01  .789E-01
  .865E-01  .608E-01  .353E-01  .955E-01  .458E-01  .952E-01  .820E-01  .110E+00
  .811E-01  .596E-01  .811E-01  .440E-01  .245E-01  .295E-01  .265E-01  .201E-01
  .281E-01  .114E-01  .190E-01  .185E-01  .197E-01  .147E-01  .228E-01  .117E-01
  .737E-02  .698E-02  .490E-02  .667E-02  .000E+00  .000E+00  .000E+00  .000E+00
  .000E+00  .000E+00  .000E+00  .000E+00  .000E+00  .000E+00  .000E+00  .000E+00
  .000E+00  .000E+00  .000E+00  .000E+00  .000E+00  .000E+00  .000E+00  .000E+00
  .000E+00  .000E+00  .000E+00  .000E+00  .000E+00  .000E+00  .000E+00  .000E+00
  .000E+00  .000E+00  .000E+00  .000E+00
  .486E-01  .677E-01  .547E-01  .498E-01  .589E-01  .686E-01  .904E-01  .932E-01
  .807E-01  .116E+00  .116E+00  .141E+00  .112E+00  .178E+00  .237E+00  .149E+00
  .275E+00  .390E+00  .866E+00  .439E+00  .404E+00  .510E+00  .359E+00  .435E+00
  .643E+00  .106E+01  .557E+00  .958E+00  .862E+00  .103E+01  .402E+01  .418E+01
  .386E+01  .306E+01  .257E+01  .142E+01  .158E+01  .160E+01  .142E+01  .233E+01
  .266E+01  .206E+01  .130E+01  .381E+01  .197E+01  .438E+01  .403E+01  .572E+01
  .448E+01  .348E+01  .498E+01  .297E+01  .181E+01  .236E+01  .228E+01  .185E+01
  .276E+01  .119E+01  .210E+01  .217E+01  .242E+01  .199E+01  .336E+01  .187E+01
  .127E+01  .129E+01  .963E+00  .139E+01  .000E+00  .000E+00  .000E+00  .000E+00
  .000E+00  .000E+00  .000E+00  .000E+00  .000E+00  .000E+00  .000E+00  .000E+00
  .000E+00  .000E+00  .000E+00  .000E+00  .000E+00  .000E+00  .000E+00  .000E+00
  .000E+00  .000E+00  .000E+00  .000E+00  .000E+00  .000E+00  .000E+00  .000E+00
  .000E+00  .000E+00  .000E+00  .000E+00
  .309E+02  .309E+02  .308E+02  .309E+02  .309E+02  .309E+02  .309E+02  .309E+02
  .307E+02  .309E+02  .309E+02  .309E+02  .309E+02  .309E+02  .333E+02  .307E+02
  .311E+02  .316E+02  .399E+02  .333E+02  .334E+02  .332E+02  .398E+02  .310E+02
  .302E+02  .316E+02  .297E+02  .307E+02  .308E+02  .307E+02  .399E+02  .508E+02
  .487E+02  .314E+02  .631E+02  .314E+02  .340E+02  .294E+02  .314E+02  .593E+02
  .400E+02  .673E+02  .386E+02  .613E+02  .334E+02  .667E+02  .426E+02  .671E+02
  .528E+02  .721E+02  .508E+02  .499E+02  .730E+02  .516E+02  .729E+02  .730E+02
  .371E+02  .597E+02  .755E+02  .586E+02  .696E+02  .342E+02  .749E+02  .528E+02
  .673E+02  .743E+02  .718E+02  .563E+02  .000E+00  .000E+00  .000E+00  .000E+00
  .000E+00  .000E+00  .000E+00  .000E+00  .000E+00  .000E+00  .000E+00  .000E+00
  .000E+00  .000E+00  .000E+00  .000E+00  .000E+00  .000E+00  .000E+00  .000E+00
  .000E+00  .000E+00  .000E+00  .000E+00  .000E+00  .000E+00  .000E+00  .000E+00
  .000E+00  .000E+00  .000E+00  .000E+00
  .303E+02  .719E+02  .213E+02  .164E+02  .316E+02  .315E+02  .299E+02  .226E+02
  .298E+02  .309E+02  .316E+02  .309E+02  .489E+02  .309E+02  .350E+02  .304E+02
  .311E+02  .315E+02  .398E+02  .388E+02  .342E+02  .334E+02  .384E+02  .309E+02
  .303E+02  .321E+02  .296E+02  .307E+02  .308E+02  .308E+02  .399E+02  .483E+02
  .483E+02  .311E+02  .630E+02  .313E+02  .341E+02  .304E+02  .313E+02  .608E+02
  .401E+02  .663E+02  .411E+02  .614E+02  .336E+02  .669E+02  .424E+02  .669E+02
  .525E+02  .723E+02  .505E+02  .497E+02  .739E+02  .493E+02  .488E+02  .734E+02
  .367E+02  .303E+02  .715E+02  .600E+02  .691E+02  .337E+02  .744E+02  .560E+02
  .667E+02  .721E+02  .614E+02  .315E+02  .000E+00  .000E+00  .000E+00  .000E+00
  .000E+00  .000E+00  .000E+00  .000E+00  .000E+00  .000E+00  .000E+00  .000E+00
  .000E+00  .000E+00  .000E+00  .000E+00  .000E+00  .000E+00  .000E+00  .000E+00
  .000E+00  .000E+00  .000E+00  .000E+00  .000E+00  .000E+00  .000E+00  .000E+00
  .000E+00  .000E+00  .000E+00  .000E+00
  .309E+02  .309E+02  .308E+02  .309E+02  .309E+02  .309E+02  .309E+02  .309E+02
  .307E+02  .309E+02  .309E+02  .309E+02  .309E+02  .309E+02  .333E+02  .307E+02
  .311E+02  .316E+02  .399E+02  .333E+02  .334E+02  .332E+02  .398E+02  .310E+02
  .302E+02  .316E+02  .297E+02  .307E+02  .308E+02  .307E+02  .399E+02  .508E+02
  .487E+02  .314E+02  .631E+02  .314E+02  .340E+02  .294E+02  .314E+02  .593E+02
  .400E+02  .673E+02  .386E+02  .613E+02  .334E+02  .667E+02  .426E+02  .671E+02
  .528E+02  .721E+02  .508E+02  .499E+02  .730E+02  .516E+02  .729E+02  .730E+02
  .371E+02  .597E+02  .755E+02  .586E+02  .696E+02  .342E+02  .749E+02  .528E+02
  .673E+02  .743E+02  .718E+02  .563E+02  .000E+00  .000E+00  .000E+00  .000E+00
  .000E+00  .000E+00  .000E+00  .000E+00  .000E+00  .000E+00  .000E+00  .000E+00
  .000E+00  .000E+00  .000E+00  .000E+00  .000E+00  .000E+00  .000E+00  .000E+00
  .000E+00  .000E+00  .000E+00  .000E+00  .000E+00  .000E+00  .000E+00  .000E+00
  .000E+00  .000E+00  .000E+00  .000E+00
Damping =  .02. Data of Sd,Sv,Sa,Pssv,ttSd,ttSv,ttSa :
  .234E-03  .260E-03  .297E-03  .322E-03  .345E-03  .379E-03  .467E-03  .562E-03
  .723E-03  .850E-03  .993E-03  .110E-02  .131E-02  .178E-02  .198E-02  .198E-02
  .264E-02  .480E-02  .783E-02  .684E-02  .557E-02  .598E-02  .637E-02  .770E-02
  .881E-02  .165E-01  .149E-01  .253E-01  .234E-01  .394E-01  .787E-01  .101E+00
  .945E-01  .835E-01  .709E-01  .541E-01  .550E-01  .660E-01  .740E-01  .100E+00
  .124E+00  .950E-01  .991E-01  .137E+00  .160E+00  .234E+00  .285E+00  .251E+00
  .253E+00  .246E+00  .414E+00  .316E+00  .207E+00  .287E+00  .299E+00  .301E+00
  .373E+00  .264E+00  .294E+00  .321E+00  .361E+00  .500E+00  .500E+00  .423E+00
  .427E+00  .418E+00  .398E+00  .415E+00  .000E+00  .000E+00  .000E+00  .000E+00
  .000E+00  .000E+00  .000E+00  .000E+00  .000E+00  .000E+00  .000E+00  .000E+00
  .000E+00  .000E+00  .000E+00  .000E+00  .000E+00  .000E+00  .000E+00  .000E+00
  .000E+00  .000E+00  .000E+00  .000E+00  .000E+00  .000E+00  .000E+00  .000E+00
  .000E+00  .000E+00  .000E+00  .000E+00
  .122E-01  .140E-01  .147E-01  .163E-01  .148E-01  .161E-01  .197E-01  .195E-01
  .244E-01  .306E-01  .316E-01  .418E-01  .408E-01  .662E-01  .945E-01  .808E-01
  .128E+00  .223E+00  .346E+00  .269E+00  .195E+00  .193E+00  .176E+00  .222E+00
  .245E+00  .475E+00  .331E+00  .523E+00  .469E+00  .771E+00  .158E+01  .193E+01
  .174E+01  .154E+01  .120E+01  .797E+00  .772E+00  .942E+00  .104E+01  .137E+01
  .151E+01  .107E+01  .947E+00  .131E+01  .141E+01  .183E+01  .228E+01  .192E+01
  .175E+01  .162E+01  .260E+01  .189E+01  .128E+01  .157E+01  .150E+01  .128E+01
  .160E+01  .931E+00  .999E+00  .103E+01  .137E+01  .141E+01  .132E+01  .102E+01
  .974E+00  .913E+00  .907E+00  .118E+01  .000E+00  .000E+00  .000E+00  .000E+00
  .000E+00  .000E+00  .000E+00  .000E+00  .000E+00  .000E+00  .000E+00  .000E+00
  .000E+00  .000E+00  .000E+00  .000E+00  .000E+00  .000E+00  .000E+00  .000E+00
  .000E+00  .000E+00  .000E+00  .000E+00  .000E+00  .000E+00  .000E+00  .000E+00
  .000E+00  .000E+00  .000E+00  .000E+00
  .150E-01  .151E-01  .157E-01  .156E-01  .153E-01  .155E-01  .158E-01  .160E-01
  .175E-01  .178E-01  .180E-01  .176E-01  .186E-01  .225E-01  .224E-01  .202E-01
  .223E-01  .340E-01  .473E-01  .357E-01  .254E-01  .240E-01  .226E-01  .243E-01
  .249E-01  .422E-01  .316E-01  .449E-01  .354E-01  .514E-01  .894E-01  .101E+00
  .836E-01  .660E-01  .503E-01  .346E-01  .319E-01  .349E-01  .358E-01  .445E-01
  .508E-01  .321E-01  .282E-01  .332E-01  .335E-01  .426E-01  .455E-01  .355E-01
  .320E-01  .279E-01  .423E-01  .267E-01  .147E-01  .174E-01  .156E-01  .137E-01
  .149E-01  .934E-02  .928E-02  .909E-02  .925E-02  .106E-01  .888E-02  .641E-02
  .558E-02  .476E-02  .398E-02  .367E-02  .000E+00  .000E+00  .000E+00  .000E+00
  .000E+00  .000E+00  .000E+00  .000E+00  .000E+00  .000E+00  .000E+00  .000E+00
  .000E+00  .000E+00  .000E+00  .000E+00  .000E+00  .000E+00  .000E+00  .000E+00
  .000E+00  .000E+00  .000E+00  .000E+00  .000E+00  .000E+00  .000E+00  .000E+00
  .000E+00  .000E+00  .000E+00  .000E+00
  .368E-01  .389E-01  .424E-01  .440E-01  .451E-01  .476E-01  .533E-01  .589E-01
  .699E-01  .763E-01  .832E-01  .863E-01  .969E-01  .124E+00  .131E+00  .124E+00
  .151E+00  .251E+00  .378E+00  .307E+00  .233E+00  .235E+00  .235E+00  .269E+00
  .291E+00  .518E+00  .427E+00  .662E+00  .565E+00  .884E+00  .165E+01  .199E+01
  .175E+01  .146E+01  .117E+01  .850E+00  .822E+00  .943E+00  .101E+01  .131E+01
  .156E+01  .108E+01  .104E+01  .132E+01  .144E+01  .196E+01  .224E+01  .185E+01
  .177E+01  .163E+01  .260E+01  .180E+01  .109E+01  .139E+01  .134E+01  .126E+01
  .146E+01  .975E+00  .103E+01  .106E+01  .114E+01  .143E+01  .131E+01  .102E+01
  .959E+00  .876E+00  .782E+00  .767E+00  .000E+00  .000E+00  .000E+00  .000E+00
  .000E+00  .000E+00  .000E+00  .000E+00  .000E+00  .000E+00  .000E+00  .000E+00
  .000E+00  .000E+00  .000E+00  .000E+00  .000E+00  .000E+00  .000E+00  .000E+00
  .000E+00  .000E+00  .000E+00  .000E+00  .000E+00  .000E+00  .000E+00  .000E+00
  .000E+00  .000E+00  .000E+00  .000E+00
  .309E+02  .309E+02  .309E+02  .309E+02  .309E+02  .309E+02  .309E+02  .309E+02
  .309E+02  .309E+02  .309E+02  .309E+02  .309E+02  .309E+02  .309E+02  .302E+02
  .311E+02  .315E+02  .316E+02  .314E+02  .310E+02  .310E+02  .305E+02  .310E+02
  .299E+02  .310E+02  .306E+02  .307E+02  .307E+02  .307E+02  .309E+02  .317E+02
  .313E+02  .303E+02  .304E+02  .313E+02  .294E+02  .294E+02  .304E+02  .314E+02
  .318E+02  .298E+02  .318E+02  .333E+02  .334E+02  .400E+02  .371E+02  .357E+02
  .523E+02  .534E+02  .498E+02  .494E+02  .341E+02  .490E+02  .485E+02  .404E+02
  .339E+02  .172E+02  .173E+02  .174E+02  .205E+02  .220E+02  .616E+02  .179E+02
  .180E+02  .182E+02  .183E+02  .223E+02  .000E+00  .000E+00  .000E+00  .000E+00
  .000E+00  .000E+00  .000E+00  .000E+00  .000E+00  .000E+00  .000E+00  .000E+00
  .000E+00  .000E+00  .000E+00  .000E+00  .000E+00  .000E+00  .000E+00  .000E+00
  .000E+00  .000E+00  .000E+00  .000E+00  .000E+00  .000E+00  .000E+00  .000E+00
  .000E+00  .000E+00  .000E+00  .000E+00
  .211E+02  .211E+02  .211E+02  .211E+02  .211E+02  .211E+02  .211E+02  .211E+02
  .211E+02  .211E+02  .309E+02  .211E+02  .211E+02  .309E+02  .309E+02  .304E+02
  .311E+02  .315E+02  .318E+02  .314E+02  .309E+02  .309E+02  .305E+02  .309E+02
  .299E+02  .310E+02  .312E+02  .307E+02  .308E+02  .308E+02  .309E+02  .316E+02
  .312E+02  .304E+02  .303E+02  .312E+02  .293E+02  .293E+02  .303E+02  .311E+02
  .319E+02  .300E+02  .317E+02  .335E+02  .336E+02  .402E+02  .373E+02  .367E+02
  .525E+02  .532E+02  .495E+02  .497E+02  .344E+02  .493E+02  .488E+02  .416E+02
  .351E+02  .185E+02  .187E+02  .198E+02  .330E+02  .225E+02  .229E+02  .173E+02
  .174E+02  .175E+02  .164E+02  .315E+02  .000E+00  .000E+00  .000E+00  .000E+00
  .000E+00  .000E+00  .000E+00  .000E+00  .000E+00  .000E+00  .000E+00  .000E+00
  .000E+00  .000E+00  .000E+00  .000E+00  .000E+00  .000E+00  .000E+00  .000E+00
  .000E+00  .000E+00  .000E+00  .000E+00  .000E+00  .000E+00  .000E+00  .000E+00
  .000E+00  .000E+00  .000E+00  .000E+00
  .309E+02  .309E+02  .309E+02  .309E+02  .309E+02  .309E+02  .309E+02  .309E+02
  .309E+02  .309E+02  .309E+02  .309E+02  .309E+02  .309E+02  .309E+02  .302E+02
  .311E+02  .315E+02  .316E+02  .314E+02  .310E+02  .310E+02  .305E+02  .310E+02
  .299E+02  .310E+02  .306E+02  .307E+02  .307E+02  .307E+02  .309E+02  .317E+02
  .313E+02  .303E+02  .304E+02  .313E+02  .293E+02  .294E+02  .304E+02  .314E+02
  .318E+02  .298E+02  .318E+02  .333E+02  .334E+02  .400E+02  .371E+02  .356E+02
  .523E+02  .534E+02  .498E+02  .494E+02  .341E+02  .490E+02  .485E+02  .404E+02
  .339E+02  .172E+02  .173E+02  .174E+02  .205E+02  .220E+02  .616E+02  .179E+02
  .180E+02  .182E+02  .183E+02  .223E+02  .000E+00  .000E+00  .000E+00  .000E+00
  .000E+00  .000E+00  .000E+00  .000E+00  .000E+00  .000E+00  .000E+00  .000E+00
  .000E+00  .000E+00  .000E+00  .000E+00  .000E+00  .000E+00  .000E+00  .000E+00
  .000E+00  .000E+00  .000E+00  .000E+00  .000E+00  .000E+00  .000E+00  .000E+00
  .000E+00  .000E+00  .000E+00  .000E+00
Damping =  .05. Data of Sd,Sv,Sa,Pssv,ttSd,ttSv,ttSa :
  .236E-03  .260E-03  .291E-03  .320E-03  .348E-03  .380E-03  .471E-03  .569E-03
