Response and Fourier amplitude spectra (68 periods,  .04 -  3.4 sec)   for      
Corrected accelerogram   47796-M0115-07303.01       Chan  3: 360 Deg     from   
Uncorrected Accelerogram Data             Processed: 11/09/07, CDMG  ce47796d   
Record of Tue Oct 30, 2007 20:04:52.0 PDT             (Avol1 v7.5 7/07 CSMIP)   
CSMIP Preliminary Processing            (Origin:  To be determined)             
47796-M0115-07303.01                 Start time: 10/31/07, 03:04:52.0 UTC (GPS) 
Station No. 47796   36.697N, 121.632W    MtWtny  s/n  115 (15 Channels)         
Salinas - 3-story County Hospital         CGS                                   
Chan  3: 360 DegR                   Location: 1st Floor: Near East End          
Record of Tue Oct 30, 2007 20:04:52.0 PDT    Tue Oct 30, 2007 20:04:52.0 PDT    
Hypocenter:  To be determined.               ML:  To be determined.
Instr Period =  .0200 sec,  Damping =  .700,  Sensitivity =  .63  v/g  (Nominal)
                        Record length = 76.000 sec.
                                     Uncor Max  =  -.008 g , at  30.865 sec.
RMS accel of (uncor) record  =        .   Chn. metadata effective date: 01/01/04
Accelerogram bandpass filtered with 3 dB pts at   .30 and 40.00 cyc/sec
                 instrument- and baseline-corrected





Record of Tue Oct 30, 2007 20:04:52.0 PDT    Tue Oct 30, 2007 20:04:52.0 PDT

47796-M0115-07303.01      Salinas - 3-story County Hospital   Chan  3: 360 Deg

47796-M0115-07303.01      Salinas - 3-story County Hospital   Chan  3: 360 Deg

Units for spectra are inches and sec, except Sa is in fraction of g.

    3  100    3   18   15  200    1    3    1   24   13  115    047796    2    0
    3    4   52    0  304   10   31 2007   10    3  36015200   41   33   76   26
15200    1   50    3  115    1    1  760    2    0    0    0    0    0    0    0
    0    4    0    015200    1  220    1   18    4   76   33    0    0    015200
    315200   34   68    5   15    5    0    0    0   15    0    0    3    0    2
    2    2    4    0   72   99    0   32   32    0    1    1    0    0    0    0
    1    1   15    0
      .020      .700    76.000      .001      .000   625.000     -.008    30.865
    50.000      .298      .477      .000     5.000      .000      .000      .000
     2.500   -26.653     2.500  -999.000    25.000    30.000      .000      .000
     -.004     -.004     2.000    15.000    36.697  -121.632      .019      .833
    43.167     -.044      .035    26.000    25.800    45.700    12.800   106.340
     1.000    -1.614     7.000      .000      .000      .000      .000      .000
     3.000     7.500     4.600   980.665      .005    76.000     7.958      .000
      .000    40.000      .000    76.000      .005      .303      .000      .000
    30.860    -7.964    31.535     -.966    39.975      .157      .000      .303
    40.000      .005      .005      .000      .005      .097      .000      .000
      .033      .260      .028      .028      .022      .002      .000      .000
      .000      .000      .000      .000      .000      .000      .000      .000
      .000      .000      .000      .000
      .000      .020      .050      .100      .200
      .040      .042      .044      .046      .048      .050      .055      .060
      .065      .070      .075      .080      .085      .090      .095      .100
      .110      .120      .130      .140      .150      .160      .170      .180
      .190      .200      .220      .240      .260      .280      .300      .320
      .340      .360      .380      .400      .420      .440      .460      .480
      .500      .550      .600      .650      .700      .750      .800      .850
      .900      .950     1.000     1.100     1.200     1.300     1.400     1.500
     1.600     1.700     1.800     1.900     2.000     2.200     2.400     2.600
     2.800     3.000     3.200     3.400      .000      .000      .000      .000
      .000      .000      .000      .000      .000      .000      .000      .000
      .000      .000      .000      .000      .000      .000      .000      .000
      .000      .000      .000      .000      .000      .000      .000      .000
      .000      .000      .000      .000
Fourier amplitude spectra in in/sec.
  .301E-02  .469E-02  .102E-01  .165E-01  .855E-02  .383E-02  .108E-01  .302E-01
  .276E-01  .508E-01  .236E-01  .499E-01  .217E-01  .447E-01  .646E-01  .440E-01
  .146E+00  .317E+00  .393E+00  .294E+00  .152E+00  .208E+00  .200E+00  .142E+00
  .195E+00  .105E+01  .523E+00  .114E+01  .994E+00  .917E+00  .644E+00  .610E+00
  .154E+01  .113E+01  .171E+01  .322E+00  .866E+00  .570E+00  .610E+00  .175E+01
  .152E+01  .117E+01  .373E+00  .299E+01  .454E+00  .321E+01  .282E+01  .467E+01
  .399E+01  .278E+01  .409E+01  .180E+01  .177E+01  .175E+01  .221E+01  .214E+01
  .725E+00  .179E+01  .137E+01  .980E+00  .814E+00  .448E+00  .139E+01  .976E+00
  .144E+00  .339E+00  .493E+00  .562E+00  .000E+00  .000E+00  .000E+00  .000E+00
  .000E+00  .000E+00  .000E+00  .000E+00  .000E+00  .000E+00  .000E+00  .000E+00
  .000E+00  .000E+00  .000E+00  .000E+00  .000E+00  .000E+00  .000E+00  .000E+00
  .000E+00  .000E+00  .000E+00  .000E+00  .000E+00  .000E+00  .000E+00  .000E+00
  .000E+00  .000E+00  .000E+00  .000E+00
Damping =  .00. Data of Sd,Sv,Sa,Pssv,ttSd,ttSv,ttSa :
  .158E-03  .159E-03  .213E-03  .292E-03  .249E-03  .285E-03  .298E-03  .504E-03
  .511E-03  .944E-03  .572E-03  .127E-02  .879E-03  .109E-02  .184E-02  .245E-02
  .394E-02  .673E-02  .904E-02  .880E-02  .563E-02  .947E-02  .772E-02  .106E-01
  .200E-01  .407E-01  .252E-01  .465E-01  .532E-01  .457E-01  .511E-01  .422E-01
  .883E-01  .817E-01  .111E+00  .499E-01  .652E-01  .775E-01  .722E-01  .151E+00
  .176E+00  .121E+00  .956E-01  .331E+00  .182E+00  .444E+00  .451E+00  .688E+00
  .621E+00  .453E+00  .732E+00  .509E+00  .347E+00  .467E+00  .595E+00  .532E+00
  .440E+00  .484E+00  .402E+00  .384E+00  .401E+00  .471E+00  .533E+00  .405E+00
  .201E+00  .263E+00  .252E+00  .357E+00  .000E+00  .000E+00  .000E+00  .000E+00
  .000E+00  .000E+00  .000E+00  .000E+00  .000E+00  .000E+00  .000E+00  .000E+00
  .000E+00  .000E+00  .000E+00  .000E+00  .000E+00  .000E+00  .000E+00  .000E+00
  .000E+00  .000E+00  .000E+00  .000E+00  .000E+00  .000E+00  .000E+00  .000E+00
  .000E+00  .000E+00  .000E+00  .000E+00
  .739E-02  .517E-02  .132E-01  .228E-01  .159E-01  .142E-01  .137E-01  .336E-01
  .287E-01  .562E-01  .276E-01  .701E-01  .428E-01  .522E-01  .851E-01  .121E+00
  .207E+00  .327E+00  .414E+00  .350E+00  .218E+00  .329E+00  .271E+00  .343E+00
  .624E+00  .126E+01  .684E+00  .118E+01  .123E+01  .968E+00  .108E+01  .762E+00
  .161E+01  .137E+01  .179E+01  .701E+00  .927E+00  .112E+01  .884E+00  .196E+01
  .216E+01  .132E+01  .940E+00  .318E+01  .161E+01  .362E+01  .355E+01  .506E+01
  .428E+01  .297E+01  .466E+01  .294E+01  .183E+01  .235E+01  .284E+01  .222E+01
  .186E+01  .179E+01  .146E+01  .141E+01  .131E+01  .146E+01  .154E+01  .980E+00
  .685E+00  .666E+00  .627E+00  .717E+00  .000E+00  .000E+00  .000E+00  .000E+00
  .000E+00  .000E+00  .000E+00  .000E+00  .000E+00  .000E+00  .000E+00  .000E+00
  .000E+00  .000E+00  .000E+00  .000E+00  .000E+00  .000E+00  .000E+00  .000E+00
  .000E+00  .000E+00  .000E+00  .000E+00  .000E+00  .000E+00  .000E+00  .000E+00
  .000E+00  .000E+00  .000E+00  .000E+00
  .101E-01  .924E-02  .113E-01  .141E-01  .110E-01  .116E-01  .101E-01  .143E-01
  .124E-01  .197E-01  .104E-01  .202E-01  .124E-01  .138E-01  .208E-01  .250E-01
  .333E-01  .478E-01  .547E-01  .459E-01  .256E-01  .378E-01  .273E-01  .334E-01
  .567E-01  .104E+00  .533E-01  .825E-01  .805E-01  .596E-01  .581E-01  .421E-01
  .782E-01  .645E-01  .784E-01  .319E-01  .378E-01  .409E-01  .349E-01  .671E-01
  .718E-01  .411E-01  .272E-01  .802E-01  .380E-01  .808E-01  .721E-01  .974E-01
  .784E-01  .513E-01  .749E-01  .430E-01  .247E-01  .283E-01  .311E-01  .242E-01
  .176E-01  .171E-01  .127E-01  .109E-01  .102E-01  .994E-02  .946E-02  .613E-02
  .263E-02  .299E-02  .252E-02  .316E-02  .000E+00  .000E+00  .000E+00  .000E+00
  .000E+00  .000E+00  .000E+00  .000E+00  .000E+00  .000E+00  .000E+00  .000E+00
  .000E+00  .000E+00  .000E+00  .000E+00  .000E+00  .000E+00  .000E+00  .000E+00
  .000E+00  .000E+00  .000E+00  .000E+00  .000E+00  .000E+00  .000E+00  .000E+00
  .000E+00  .000E+00  .000E+00  .000E+00
  .248E-01  .238E-01  .304E-01  .399E-01  .325E-01  .358E-01  .340E-01  .528E-01
  .494E-01  .847E-01  .479E-01  .995E-01  .650E-01  .761E-01  .122E+00  .154E+00
  .225E+00  .352E+00  .437E+00  .395E+00  .236E+00  .372E+00  .285E+00  .369E+00
  .662E+00  .128E+01  .720E+00  .122E+01  .129E+01  .103E+01  .107E+01  .828E+00
  .163E+01  .143E+01  .183E+01  .784E+00  .976E+00  .111E+01  .987E+00  .198E+01
  .221E+01  .139E+01  .100E+01  .320E+01  .163E+01  .372E+01  .354E+01  .509E+01
  .433E+01  .300E+01  .460E+01  .291E+01  .182E+01  .226E+01  .267E+01  .223E+01
  .173E+01  .179E+01  .140E+01  .127E+01  .126E+01  .134E+01  .139E+01  .979E+00
  .452E+00  .552E+00  .495E+00  .659E+00  .000E+00  .000E+00  .000E+00  .000E+00
  .000E+00  .000E+00  .000E+00  .000E+00  .000E+00  .000E+00  .000E+00  .000E+00
  .000E+00  .000E+00  .000E+00  .000E+00  .000E+00  .000E+00  .000E+00  .000E+00
  .000E+00  .000E+00  .000E+00  .000E+00  .000E+00  .000E+00  .000E+00  .000E+00
  .000E+00  .000E+00  .000E+00  .000E+00
  .309E+02  .309E+02  .309E+02  .306E+02  .295E+02  .309E+02  .309E+02  .333E+02
  .306E+02  .309E+02  .398E+02  .309E+02  .329E+02  .333E+02  .333E+02  .306E+02
  .323E+02  .490E+02  .320E+02  .329E+02  .342E+02  .332E+02  .326E+02  .391E+02
  .295E+02  .320E+02  .317E+02  .307E+02  .349E+02  .480E+02  .306E+02  .317E+02
  .487E+02  .346E+02  .529E+02  .313E+02  .491E+02  .294E+02  .313E+02  .602E+02
  .400E+02  .490E+02  .318E+02  .612E+02  .334E+02  .490E+02  .375E+02  .671E+02
  .528E+02  .720E+02  .508E+02  .499E+02  .731E+02  .491E+02  .485E+02  .729E+02
  .370E+02  .751E+02  .711E+02  .416E+02  .612E+02  .570E+02  .748E+02  .748E+02
  .520E+02  .508E+02  .672E+02  .598E+02  .000E+00  .000E+00  .000E+00  .000E+00
  .000E+00  .000E+00  .000E+00  .000E+00  .000E+00  .000E+00  .000E+00  .000E+00
  .000E+00  .000E+00  .000E+00  .000E+00  .000E+00  .000E+00  .000E+00  .000E+00
  .000E+00  .000E+00  .000E+00  .000E+00  .000E+00  .000E+00  .000E+00  .000E+00
  .000E+00  .000E+00  .000E+00  .000E+00
  .294E+02  .296E+02  .294E+02  .309E+02  .270E+02  .312E+02  .398E+02  .379E+02
  .493E+02  .309E+02  .398E+02  .309E+02  .312E+02  .288E+02  .333E+02  .304E+02
  .323E+02  .433E+02  .320E+02  .330E+02  .342E+02  .332E+02  .326E+02  .391E+02
  .300E+02  .321E+02  .316E+02  .307E+02  .345E+02  .477E+02  .301E+02  .316E+02
  .483E+02  .347E+02  .530E+02  .314E+02  .616E+02  .293E+02  .315E+02  .601E+02
  .401E+02  .690E+02  .320E+02  .614E+02  .336E+02  .488E+02  .377E+02  .669E+02
  .525E+02  .723E+02  .510E+02  .497E+02  .739E+02  .488E+02  .488E+02  .733E+02
  .367E+02  .755E+02  .716E+02  .488E+02  .607E+02  .576E+02  .488E+02  .649E+02
  .397E+02  .685E+02  .315E+02  .724E+02  .000E+00  .000E+00  .000E+00  .000E+00
  .000E+00  .000E+00  .000E+00  .000E+00  .000E+00  .000E+00  .000E+00  .000E+00
  .000E+00  .000E+00  .000E+00  .000E+00  .000E+00  .000E+00  .000E+00  .000E+00
  .000E+00  .000E+00  .000E+00  .000E+00  .000E+00  .000E+00  .000E+00  .000E+00
  .000E+00  .000E+00  .000E+00  .000E+00
  .309E+02  .309E+02  .309E+02  .306E+02  .295E+02  .309E+02  .309E+02  .333E+02
  .306E+02  .309E+02  .398E+02  .309E+02  .329E+02  .333E+02  .333E+02  .306E+02
  .323E+02  .490E+02  .320E+02  .329E+02  .342E+02  .332E+02  .326E+02  .391E+02
  .295E+02  .320E+02  .317E+02  .307E+02  .349E+02  .480E+02  .306E+02  .317E+02
  .487E+02  .346E+02  .529E+02  .313E+02  .491E+02  .294E+02  .313E+02  .602E+02
  .400E+02  .490E+02  .318E+02  .612E+02  .334E+02  .490E+02  .375E+02  .671E+02
  .528E+02  .720E+02  .508E+02  .499E+02  .731E+02  .491E+02  .485E+02  .729E+02
  .370E+02  .751E+02  .711E+02  .416E+02  .612E+02  .570E+02  .748E+02  .748E+02
  .520E+02  .508E+02  .672E+02  .598E+02  .000E+00  .000E+00  .000E+00  .000E+00
  .000E+00  .000E+00  .000E+00  .000E+00  .000E+00  .000E+00  .000E+00  .000E+00
  .000E+00  .000E+00  .000E+00  .000E+00  .000E+00  .000E+00  .000E+00  .000E+00
  .000E+00  .000E+00  .000E+00  .000E+00  .000E+00  .000E+00  .000E+00  .000E+00
  .000E+00  .000E+00  .000E+00  .000E+00
Damping =  .02. Data of Sd,Sv,Sa,Pssv,ttSd,ttSv,ttSa :
  .133E-03  .148E-03  .166E-03  .177E-03  .201E-03  .220E-03  .278E-03  .325E-03
  .421E-03  .496E-03  .544E-03  .715E-03  .707E-03  .892E-03  .113E-02  .136E-02
  .233E-02  .359E-02  .456E-02  .431E-02  .389E-02  .505E-02  .612E-02  .693E-02
  .115E-01  .182E-01  .175E-01  .273E-01  .321E-01  .319E-01  .325E-01  .295E-01
  .344E-01  .408E-01  .362E-01  .351E-01  .415E-01  .506E-01  .541E-01  .842E-01
  .101E+00  .817E-01  .886E-01  .124E+00  .144E+00  .211E+00  .263E+00  .232E+00
  .240E+00  .234E+00  .387E+00  .301E+00  .211E+00  .281E+00  .297E+00  .310E+00
  .299E+00  .261E+00  .239E+00  .265E+00  .246E+00  .262E+00  .339E+00  .242E+00
  .183E+00  .194E+00  .200E+00  .217E+00  .000E+00  .000E+00  .000E+00  .000E+00
  .000E+00  .000E+00  .000E+00  .000E+00  .000E+00  .000E+00  .000E+00  .000E+00
  .000E+00  .000E+00  .000E+00  .000E+00  .000E+00  .000E+00  .000E+00  .000E+00
  .000E+00  .000E+00  .000E+00  .000E+00  .000E+00  .000E+00  .000E+00  .000E+00
  .000E+00  .000E+00  .000E+00  .000E+00
  .360E-02  .395E-02  .404E-02  .503E-02  .540E-02  .637E-02  .837E-02  .103E-01
  .121E-01  .174E-01  .186E-01  .280E-01  .272E-01  .286E-01  .456E-01  .541E-01
  .120E+00  .166E+00  .194E+00  .166E+00  .128E+00  .145E+00  .188E+00  .229E+00
  .313E+00  .567E+00  .432E+00  .660E+00  .749E+00  .717E+00  .710E+00  .578E+00
  .636E+00  .740E+00  .617E+00  .551E+00  .590E+00  .759E+00  .730E+00  .998E+00
  .120E+01  .956E+00  .836E+00  .114E+01  .123E+01  .166E+01  .209E+01  .177E+01
  .166E+01  .153E+01  .243E+01  .179E+01  .125E+01  .153E+01  .149E+01  .134E+01
  .130E+01  .976E+00  .906E+00  .907E+00  .889E+00  .834E+00  .956E+00  .681E+00
  .613E+00  .520E+00  .584E+00  .578E+00  .000E+00  .000E+00  .000E+00  .000E+00
  .000E+00  .000E+00  .000E+00  .000E+00  .000E+00  .000E+00  .000E+00  .000E+00
  .000E+00  .000E+00  .000E+00  .000E+00  .000E+00  .000E+00  .000E+00  .000E+00
  .000E+00  .000E+00  .000E+00  .000E+00  .000E+00  .000E+00  .000E+00  .000E+00
  .000E+00  .000E+00  .000E+00  .000E+00
  .852E-02  .856E-02  .875E-02  .854E-02  .891E-02  .901E-02  .938E-02  .921E-02
  .102E-01  .104E-01  .990E-02  .114E-01  .100E-01  .113E-01  .129E-01  .139E-01
  .197E-01  .255E-01  .275E-01  .225E-01  .177E-01  .202E-01  .217E-01  .219E-01
  .325E-01  .464E-01  .370E-01  .485E-01  .485E-01  .416E-01  .370E-01  .295E-01
  .304E-01  .323E-01  .256E-01  .224E-01  .241E-01  .268E-01  .262E-01  .374E-01
  .413E-01  .276E-01  .252E-01  .301E-01  .301E-01  .384E-01  .420E-01  .328E-01
  .303E-01  .266E-01  .396E-01  .254E-01  .150E-01  .170E-01  .155E-01  .141E-01
  .120E-01  .924E-02  .754E-02  .751E-02  .631E-02  .553E-02  .603E-02  .367E-02
  .239E-02  .221E-02  .200E-02  .192E-02  .000E+00  .000E+00  .000E+00  .000E+00
  .000E+00  .000E+00  .000E+00  .000E+00  .000E+00  .000E+00  .000E+00  .000E+00
  .000E+00  .000E+00  .000E+00  .000E+00  .000E+00  .000E+00  .000E+00  .000E+00
  .000E+00  .000E+00  .000E+00  .000E+00  .000E+00  .000E+00  .000E+00  .000E+00
  .000E+00  .000E+00  .000E+00  .000E+00
  .209E-01  .221E-01  .237E-01  .241E-01  .263E-01  .277E-01  .317E-01  .340E-01
  .407E-01  .445E-01  .456E-01  .561E-01  .523E-01  .623E-01  .750E-01  .856E-01
  .133E+00  .188E+00  .220E+00  .193E+00  .163E+00  .198E+00  .226E+00  .242E+00
  .380E+00  .571E+00  .500E+00  .715E+00  .775E+00  .716E+00  .681E+00  .579E+00
  .635E+00  .713E+00  .598E+00  .551E+00  .620E+00  .723E+00  .739E+00  .110E+01
  .127E+01  .933E+00  .928E+00  .120E+01  .130E+01  .177E+01  .206E+01  .171E+01
  .168E+01  .155E+01  .243E+01  .172E+01  .110E+01  .136E+01  .133E+01  .130E+01
  .117E+01  .964E+00  .833E+00  .876E+00  .774E+00  .747E+00  .888E+00  .585E+00
  .411E+00  .407E+00  .392E+00  .401E+00  .000E+00  .000E+00  .000E+00  .000E+00
  .000E+00  .000E+00  .000E+00  .000E+00  .000E+00  .000E+00  .000E+00  .000E+00
  .000E+00  .000E+00  .000E+00  .000E+00  .000E+00  .000E+00  .000E+00  .000E+00
  .000E+00  .000E+00  .000E+00  .000E+00  .000E+00  .000E+00  .000E+00  .000E+00
  .000E+00  .000E+00  .000E+00  .000E+00
  .309E+02  .309E+02  .309E+02  .309E+02  .309E+02  .309E+02  .309E+02  .309E+02
  .309E+02  .309E+02  .309E+02  .309E+02  .309E+02  .309E+02  .309E+02  .309E+02
  .312E+02  .315E+02  .317E+02  .313E+02  .295E+02  .295E+02  .306E+02  .309E+02
  .295E+02  .309E+02  .296E+02  .307E+02  .303E+02  .301E+02  .300E+02  .307E+02
  .311E+02  .298E+02  .298E+02  .293E+02  .293E+02  .294E+02  .314E+02  .314E+02
  .317E+02  .350E+02  .318E+02  .333E+02  .334E+02  .400E+02  .371E+02  .356E+02
  .523E+02  .534E+02  .498E+02  .494E+02  .341E+02  .490E+02  .485E+02  .404E+02
  .370E+02  .693E+02  .695E+02  .415E+02  .333E+02  .570E+02  .456E+02  .604E+02
  .520E+02  .508E+02  .672E+02  .481E+02  .000E+00  .000E+00  .000E+00  .000E+00
  .000E+00  .000E+00  .000E+00  .000E+00  .000E+00  .000E+00  .000E+00  .000E+00
  .000E+00  .000E+00  .000E+00  .000E+00  .000E+00  .000E+00  .000E+00  .000E+00
  .000E+00  .000E+00  .000E+00  .000E+00  .000E+00  .000E+00  .000E+00  .000E+00
  .000E+00  .000E+00  .000E+00  .000E+00
  .309E+02  .309E+02  .309E+02  .295E+02  .308E+02  .312E+02  .293E+02  .327E+02
  .309E+02  .309E+02  .309E+02  .309E+02  .312E+02  .309E+02  .309E+02  .309E+02
  .312E+02  .315E+02  .315E+02  .312E+02  .309E+02  .305E+02  .305E+02  .309E+02
  .294E+02  .310E+02  .296E+02  .307E+02  .303E+02  .302E+02  .301E+02  .301E+02
  .311E+02  .298E+02  .297E+02  .294E+02  .293E+02  .293E+02  .293E+02  .313E+02
  .316E+02  .297E+02  .320E+02  .335E+02  .336E+02  .402E+02  .373E+02  .367E+02
  .525E+02  .532E+02  .495E+02  .497E+02  .344E+02  .493E+02  .488E+02  .401E+02
  .351E+02  .697E+02  .691E+02  .337E+02  .330E+02  .576E+02  .452E+02  .483E+02
  .397E+02  .483E+02  .315E+02  .315E+02  .000E+00  .000E+00  .000E+00  .000E+00
  .000E+00  .000E+00  .000E+00  .000E+00  .000E+00  .000E+00  .000E+00  .000E+00
  .000E+00  .000E+00  .000E+00  .000E+00  .000E+00  .000E+00  .000E+00  .000E+00
  .000E+00  .000E+00  .000E+00  .000E+00  .000E+00  .000E+00  .000E+00  .000E+00
  .000E+00  .000E+00  .000E+00  .000E+00
  .309E+02  .309E+02  .309E+02  .309E+02  .309E+02  .309E+02  .309E+02  .309E+02
  .309E+02  .309E+02  .309E+02  .309E+02  .309E+02  .309E+02  .309E+02  .309E+02
  .312E+02  .315E+02  .317E+02  .313E+02  .295E+02  .295E+02  .306E+02  .309E+02
  .295E+02  .309E+02  .296E+02  .307E+02  .303E+02  .301E+02  .300E+02  .307E+02
  .311E+02  .298E+02  .298E+02  .293E+02  .293E+02  .294E+02  .314E+02  .314E+02
  .317E+02  .350E+02  .318E+02  .333E+02  .334E+02  .400E+02  .371E+02  .356E+02
  .523E+02  .534E+02  .498E+02  .494E+02  .341E+02  .490E+02  .485E+02  .404E+02
  .370E+02  .693E+02  .695E+02  .415E+02  .333E+02  .570E+02  .456E+02  .603E+02
  .519E+02  .508E+02  .672E+02  .480E+02  .000E+00  .000E+00  .000E+00  .000E+00
  .000E+00  .000E+00  .000E+00  .000E+00  .000E+00  .000E+00  .000E+00  .000E+00
  .000E+00  .000E+00  .000E+00  .000E+00  .000E+00  .000E+00  .000E+00  .000E+00
  .000E+00  .000E+00  .000E+00  .000E+00  .000E+00  .000E+00  .000E+00  .000E+00
  .000E+00  .000E+00  .000E+00  .000E+00
Damping =  .05. Data of Sd,Sv,Sa,Pssv,ttSd,ttSv,ttSa :
  .133E-03  .148E-03  .164E-03  .180E-03  .199E-03  .218E-03  .275E-03  .330E-03
