Response and Fourier amplitude spectra (68 periods,  .04 -  3.4 sec)   for      
Corrected accelerogram   47796-M0115-07303.01       Chan 11: 360 Deg     from   
Uncorrected Accelerogram Data             Processed: 11/09/07, CDMG  ce47796d   
Record of Tue Oct 30, 2007 20:04:52.0 PDT             (Avol1 v7.5 7/07 CSMIP)   
CSMIP Preliminary Processing            (Origin:  To be determined)             
47796-M0115-07303.01                 Start time: 10/31/07, 03:04:52.0 UTC (GPS) 
Station No. 47796   36.697N, 121.632W    MtWtny  s/n  115 (15 Channels)         
Salinas - 3-story County Hospital         CGS                                   
Chan 11: 360 DegR                   Location: Roof: West End                    
Record of Tue Oct 30, 2007 20:04:52.0 PDT    Tue Oct 30, 2007 20:04:52.0 PDT    
Hypocenter:  To be determined.               ML:  To be determined.
Instr Period =  .0200 sec,  Damping =  .700,  Sensitivity =  .63  v/g  (Nominal)
                        Record length = 76.000 sec.
                                     Uncor Max  =   .037 g , at  30.035 sec.
RMS accel of (uncor) record  =        .   Chn. metadata effective date: 01/01/04
Accelerogram bandpass filtered with 3 dB pts at   .30 and 40.00 cyc/sec
                 instrument- and baseline-corrected





Record of Tue Oct 30, 2007 20:04:52.0 PDT    Tue Oct 30, 2007 20:04:52.0 PDT

47796-M0115-07303.01      Salinas - 3-story County Hospital   Chan 11: 360 Deg

47796-M0115-07303.01      Salinas - 3-story County Hospital   Chan 11: 360 Deg

Units for spectra are inches and sec, except Sa is in fraction of g.

   11  100   11   18   15  200    1    3    1   24   13  115    047796    2    0
    3    4   52    0  304   10   31 2007   10    3  36015200   41   33   76   26
15200    0   50    3  115    1    1  760    2    0    0    0    0    0    0    0
    0    4    0    015200    1  220    1   18    4   76   33    0    0    015200
    315200   34   68    5   15    5    0    0    0   15    0    0    3    0    2
    2    2    4    0   72   99    0   32   32    0    1    1    0    0    0    0
    1    1   55    0
      .020      .700    76.000      .004      .000   625.000      .037    30.035
    50.000      .298      .477      .000     5.000      .000      .000      .000
     2.500    -1.944     2.500  -999.000    25.000    30.000      .000      .009
     -.002     -.011     2.000    15.000    36.697  -121.632      .085      .972
    11.452     -.058      .036    26.000    25.800    45.700    12.800   106.340
     1.000    -1.279     7.000      .000      .000      .000      .000      .000
     3.000     7.500     4.600   980.665      .005    76.000     7.958      .000
      .000    40.000      .000    76.000      .005      .303      .000      .000
    30.030    36.513    30.105     2.049    33.335     -.178      .000      .303
    40.000      .005      .005      .000      .005      .126      .000      .000
      .180      .300      .073      .172      .023      .002      .000      .000
      .000      .000      .000      .000      .000      .000      .000      .000
      .000      .000      .000      .000
      .000      .020      .050      .100      .200
      .040      .042      .044      .046      .048      .050      .055      .060
      .065      .070      .075      .080      .085      .090      .095      .100
      .110      .120      .130      .140      .150      .160      .170      .180
      .190      .200      .220      .240      .260      .280      .300      .320
      .340      .360      .380      .400      .420      .440      .460      .480
      .500      .550      .600      .650      .700      .750      .800      .850
      .900      .950     1.000     1.100     1.200     1.300     1.400     1.500
     1.600     1.700     1.800     1.900     2.000     2.200     2.400     2.600
     2.800     3.000     3.200     3.400      .000      .000      .000      .000
      .000      .000      .000      .000      .000      .000      .000      .000
      .000      .000      .000      .000      .000      .000      .000      .000
      .000      .000      .000      .000      .000      .000      .000      .000
      .000      .000      .000      .000
Fourier amplitude spectra in in/sec.
  .659E-02  .128E-01  .475E-02  .972E-02  .931E-02  .114E-01  .945E-02  .599E-03
  .417E-01  .325E-01  .702E-01  .200E-01  .493E-01  .119E+00  .230E+00  .371E-01
  .116E+00  .485E+00  .421E+00  .118E+00  .159E+00  .237E+00  .365E+00  .119E+00
  .714E+00  .964E+00  .104E+01  .309E+01  .265E+01  .427E+01  .127E+02  .983E+01
  .751E+01  .486E+01  .378E+01  .632E+00  .243E+01  .145E+01  .146E+01  .347E+01
  .276E+01  .217E+01  .109E+00  .432E+01  .141E+01  .364E+01  .413E+01  .576E+01
  .427E+01  .311E+01  .455E+01  .199E+01  .190E+01  .194E+01  .208E+01  .227E+01
  .746E+00  .180E+01  .136E+01  .993E+00  .823E+00  .352E+00  .139E+01  .102E+01
  .151E+00  .340E+00  .528E+00  .567E+00  .000E+00  .000E+00  .000E+00  .000E+00
  .000E+00  .000E+00  .000E+00  .000E+00  .000E+00  .000E+00  .000E+00  .000E+00
  .000E+00  .000E+00  .000E+00  .000E+00  .000E+00  .000E+00  .000E+00  .000E+00
  .000E+00  .000E+00  .000E+00  .000E+00  .000E+00  .000E+00  .000E+00  .000E+00
  .000E+00  .000E+00  .000E+00  .000E+00
Damping =  .00. Data of Sd,Sv,Sa,Pssv,ttSd,ttSv,ttSa :
  .675E-03  .682E-03  .763E-03  .900E-03  .912E-03  .926E-03  .111E-02  .132E-02
  .166E-02  .232E-02  .257E-02  .279E-02  .312E-02  .439E-02  .499E-02  .627E-02
  .508E-02  .123E-01  .104E-01  .932E-02  .116E-01  .149E-01  .202E-01  .176E-01
  .372E-01  .431E-01  .658E-01  .126E+00  .159E+00  .223E+00  .720E+00  .518E+00
  .412E+00  .326E+00  .246E+00  .143E+00  .188E+00  .191E+00  .180E+00  .306E+00
  .291E+00  .211E+00  .115E+00  .469E+00  .255E+00  .486E+00  .551E+00  .822E+00
  .686E+00  .503E+00  .828E+00  .576E+00  .386E+00  .491E+00  .613E+00  .570E+00
  .465E+00  .486E+00  .402E+00  .383E+00  .394E+00  .445E+00  .533E+00  .423E+00
  .206E+00  .261E+00  .273E+00  .361E+00  .000E+00  .000E+00  .000E+00  .000E+00
  .000E+00  .000E+00  .000E+00  .000E+00  .000E+00  .000E+00  .000E+00  .000E+00
  .000E+00  .000E+00  .000E+00  .000E+00  .000E+00  .000E+00  .000E+00  .000E+00
  .000E+00  .000E+00  .000E+00  .000E+00  .000E+00  .000E+00  .000E+00  .000E+00
  .000E+00  .000E+00  .000E+00  .000E+00
  .255E-01  .181E-01  .195E-01  .295E-01  .208E-01  .205E-01  .258E-01  .310E-01
  .500E-01  .778E-01  .771E-01  .579E-01  .799E-01  .171E+00  .284E+00  .225E+00
  .218E+00  .577E+00  .464E+00  .251E+00  .319E+00  .382E+00  .502E+00  .373E+00
  .925E+00  .125E+01  .157E+01  .325E+01  .376E+01  .490E+01  .150E+02  .101E+02
  .758E+01  .579E+01  .402E+01  .233E+01  .277E+01  .296E+01  .269E+01  .396E+01
  .367E+01  .240E+01  .130E+01  .452E+01  .229E+01  .395E+01  .430E+01  .605E+01
  .473E+01  .330E+01  .526E+01  .333E+01  .203E+01  .241E+01  .300E+01  .237E+01
  .203E+01  .180E+01  .147E+01  .148E+01  .125E+01  .139E+01  .160E+01  .103E+01
  .813E+00  .837E+00  .952E+00  .975E+00  .000E+00  .000E+00  .000E+00  .000E+00
  .000E+00  .000E+00  .000E+00  .000E+00  .000E+00  .000E+00  .000E+00  .000E+00
  .000E+00  .000E+00  .000E+00  .000E+00  .000E+00  .000E+00  .000E+00  .000E+00
  .000E+00  .000E+00  .000E+00  .000E+00  .000E+00  .000E+00  .000E+00  .000E+00
  .000E+00  .000E+00  .000E+00  .000E+00
  .432E-01  .396E-01  .403E-01  .435E-01  .405E-01  .379E-01  .376E-01  .376E-01
  .401E-01  .483E-01  .467E-01  .445E-01  .442E-01  .554E-01  .566E-01  .641E-01
  .429E-01  .872E-01  .631E-01  .487E-01  .529E-01  .594E-01  .716E-01  .556E-01
  .105E+00  .110E+00  .139E+00  .223E+00  .241E+00  .291E+00  .818E+00  .518E+00
  .365E+00  .257E+00  .174E+00  .916E-01  .109E+00  .101E+00  .871E-01  .136E+00
  .119E+00  .715E-01  .326E-01  .114E+00  .531E-01  .885E-01  .880E-01  .116E+00
  .866E-01  .570E-01  .846E-01  .487E-01  .274E-01  .297E-01  .320E-01  .259E-01
  .186E-01  .172E-01  .127E-01  .108E-01  .101E-01  .940E-02  .947E-02  .640E-02
  .269E-02  .297E-02  .273E-02  .319E-02  .000E+00  .000E+00  .000E+00  .000E+00
  .000E+00  .000E+00  .000E+00  .000E+00  .000E+00  .000E+00  .000E+00  .000E+00
  .000E+00  .000E+00  .000E+00  .000E+00  .000E+00  .000E+00  .000E+00  .000E+00
  .000E+00  .000E+00  .000E+00  .000E+00  .000E+00  .000E+00  .000E+00  .000E+00
  .000E+00  .000E+00  .000E+00  .000E+00
  .106E+00  .102E+00  .109E+00  .123E+00  .119E+00  .116E+00  .127E+00  .139E+00
  .160E+00  .208E+00  .215E+00  .219E+00  .231E+00  .306E+00  .330E+00  .394E+00
  .290E+00  .643E+00  .504E+00  .418E+00  .487E+00  .584E+00  .748E+00  .615E+00
  .123E+01  .136E+01  .188E+01  .329E+01  .385E+01  .501E+01  .151E+02  .102E+02
  .762E+01  .569E+01  .406E+01  .225E+01  .282E+01  .273E+01  .246E+01  .400E+01
  .366E+01  .242E+01  .120E+01  .453E+01  .229E+01  .408E+01  .433E+01  .608E+01
  .479E+01  .333E+01  .520E+01  .329E+01  .202E+01  .237E+01  .275E+01  .239E+01
  .183E+01  .180E+01  .140E+01  .127E+01  .124E+01  .127E+01  .140E+01  .102E+01
  .463E+00  .547E+00  .537E+00  .667E+00  .000E+00  .000E+00  .000E+00  .000E+00
  .000E+00  .000E+00  .000E+00  .000E+00  .000E+00  .000E+00  .000E+00  .000E+00
  .000E+00  .000E+00  .000E+00  .000E+00  .000E+00  .000E+00  .000E+00  .000E+00
  .000E+00  .000E+00  .000E+00  .000E+00  .000E+00  .000E+00  .000E+00  .000E+00
  .000E+00  .000E+00  .000E+00  .000E+00
  .300E+02  .300E+02  .300E+02  .300E+02  .300E+02  .300E+02  .300E+02  .300E+02
  .300E+02  .300E+02  .300E+02  .300E+02  .300E+02  .300E+02  .334E+02  .300E+02
  .301E+02  .316E+02  .347E+02  .300E+02  .300E+02  .302E+02  .300E+02  .300E+02
  .300E+02  .322E+02  .300E+02  .473E+02  .328E+02  .394E+02  .399E+02  .508E+02
  .579E+02  .312E+02  .529E+02  .313E+02  .369E+02  .303E+02  .303E+02  .491E+02
  .400E+02  .598E+02  .318E+02  .612E+02  .335E+02  .487E+02  .499E+02  .671E+02
  .528E+02  .720E+02  .508E+02  .500E+02  .707E+02  .516E+02  .485E+02  .729E+02
  .370E+02  .751E+02  .694E+02  .416E+02  .612E+02  .581E+02  .748E+02  .749E+02
  .520E+02  .508E+02  .672E+02  .598E+02  .000E+00  .000E+00  .000E+00  .000E+00
  .000E+00  .000E+00  .000E+00  .000E+00  .000E+00  .000E+00  .000E+00  .000E+00
  .000E+00  .000E+00  .000E+00  .000E+00  .000E+00  .000E+00  .000E+00  .000E+00
  .000E+00  .000E+00  .000E+00  .000E+00  .000E+00  .000E+00  .000E+00  .000E+00
  .000E+00  .000E+00  .000E+00  .000E+00
  .298E+02  .298E+02  .298E+02  .298E+02  .300E+02  .662E+02  .298E+02  .298E+02
  .384E+02  .298E+02  .298E+02  .300E+02  .256E+02  .405E+02  .349E+02  .306E+02
  .322E+02  .316E+02  .347E+02  .298E+02  .300E+02  .298E+02  .307E+02  .301E+02
  .301E+02  .322E+02  .300E+02  .474E+02  .328E+02  .393E+02  .398E+02  .509E+02
  .483E+02  .311E+02  .530E+02  .313E+02  .381E+02  .304E+02  .303E+02  .493E+02
  .401E+02  .589E+02  .298E+02  .614E+02  .336E+02  .488E+02  .497E+02  .669E+02
  .526E+02  .723E+02  .510E+02  .497E+02  .704E+02  .488E+02  .488E+02  .733E+02
  .367E+02  .755E+02  .716E+02  .489E+02  .607E+02  .576E+02  .488E+02  .650E+02
  .301E+02  .301E+02  .301E+02  .301E+02  .000E+00  .000E+00  .000E+00  .000E+00
  .000E+00  .000E+00  .000E+00  .000E+00  .000E+00  .000E+00  .000E+00  .000E+00
  .000E+00  .000E+00  .000E+00  .000E+00  .000E+00  .000E+00  .000E+00  .000E+00
  .000E+00  .000E+00  .000E+00  .000E+00  .000E+00  .000E+00  .000E+00  .000E+00
  .000E+00  .000E+00  .000E+00  .000E+00
  .300E+02  .300E+02  .300E+02  .300E+02  .300E+02  .300E+02  .300E+02  .300E+02
  .300E+02  .300E+02  .300E+02  .300E+02  .300E+02  .300E+02  .334E+02  .300E+02
  .301E+02  .316E+02  .347E+02  .300E+02  .300E+02  .302E+02  .300E+02  .300E+02
  .300E+02  .322E+02  .300E+02  .473E+02  .328E+02  .394E+02  .399E+02  .508E+02
  .579E+02  .312E+02  .529E+02  .313E+02  .369E+02  .303E+02  .303E+02  .491E+02
  .400E+02  .598E+02  .318E+02  .612E+02  .335E+02  .487E+02  .499E+02  .671E+02
  .528E+02  .720E+02  .508E+02  .500E+02  .707E+02  .516E+02  .485E+02  .729E+02
  .370E+02  .751E+02  .694E+02  .416E+02  .612E+02  .581E+02  .748E+02  .749E+02
  .520E+02  .508E+02  .672E+02  .598E+02  .000E+00  .000E+00  .000E+00  .000E+00
  .000E+00  .000E+00  .000E+00  .000E+00  .000E+00  .000E+00  .000E+00  .000E+00
  .000E+00  .000E+00  .000E+00  .000E+00  .000E+00  .000E+00  .000E+00  .000E+00
  .000E+00  .000E+00  .000E+00  .000E+00  .000E+00  .000E+00  .000E+00  .000E+00
  .000E+00  .000E+00  .000E+00  .000E+00
Damping =  .02. Data of Sd,Sv,Sa,Pssv,ttSd,ttSv,ttSa :
  .592E-03  .648E-03  .728E-03  .787E-03  .860E-03  .941E-03  .116E-02  .137E-02
  .160E-02  .195E-02  .235E-02  .262E-02  .319E-02  .368E-02  .413E-02  .478E-02
  .576E-02  .867E-02  .861E-02  .883E-02  .105E-01  .122E-01  .158E-01  .177E-01
  .269E-01  .259E-01  .462E-01  .794E-01  .124E+00  .163E+00  .250E+00  .259E+00
  .239E+00  .211E+00  .154E+00  .106E+00  .988E-01  .127E+00  .141E+00  .156E+00
  .167E+00  .139E+00  .108E+00  .174E+00  .199E+00  .259E+00  .299E+00  .277E+00
  .271E+00  .258E+00  .427E+00  .334E+00  .232E+00  .299E+00  .309E+00  .319E+00
  .328E+00  .268E+00  .241E+00  .262E+00  .265E+00  .246E+00  .334E+00  .253E+00
  .187E+00  .195E+00  .212E+00  .224E+00  .000E+00  .000E+00  .000E+00  .000E+00
  .000E+00  .000E+00  .000E+00  .000E+00  .000E+00  .000E+00  .000E+00  .000E+00
  .000E+00  .000E+00  .000E+00  .000E+00  .000E+00  .000E+00  .000E+00  .000E+00
  .000E+00  .000E+00  .000E+00  .000E+00  .000E+00  .000E+00  .000E+00  .000E+00
  .000E+00  .000E+00  .000E+00  .000E+00
  .136E-01  .146E-01  .150E-01  .170E-01  .174E-01  .183E-01  .233E-01  .266E-01
  .313E-01  .434E-01  .532E-01  .493E-01  .647E-01  .819E-01  .111E+00  .132E+00
  .153E+00  .319E+00  .290E+00  .243E+00  .236E+00  .279E+00  .395E+00  .436E+00
  .619E+00  .612E+00  .108E+01  .181E+01  .280E+01  .344E+01  .502E+01  .498E+01
  .442E+01  .377E+01  .293E+01  .198E+01  .168E+01  .192E+01  .222E+01  .217E+01
  .224E+01  .187E+01  .137E+01  .172E+01  .176E+01  .200E+01  .236E+01  .206E+01
  .205E+01  .171E+01  .272E+01  .197E+01  .139E+01  .161E+01  .160E+01  .140E+01
  .141E+01  .989E+00  .977E+00  .110E+01  .103E+01  .833E+00  .994E+00  .971E+00
  .846E+00  .853E+00  .929E+00  .951E+00  .000E+00  .000E+00  .000E+00  .000E+00
  .000E+00  .000E+00  .000E+00  .000E+00  .000E+00  .000E+00  .000E+00  .000E+00
  .000E+00  .000E+00  .000E+00  .000E+00  .000E+00  .000E+00  .000E+00  .000E+00
  .000E+00  .000E+00  .000E+00  .000E+00  .000E+00  .000E+00  .000E+00  .000E+00
  .000E+00  .000E+00  .000E+00  .000E+00
  .379E-01  .376E-01  .384E-01  .380E-01  .382E-01  .385E-01  .391E-01  .389E-01
  .388E-01  .407E-01  .428E-01  .419E-01  .452E-01  .464E-01  .468E-01  .488E-01
  .487E-01  .616E-01  .521E-01  .461E-01  .477E-01  .488E-01  .558E-01  .558E-01
  .763E-01  .663E-01  .976E-01  .141E+00  .187E+00  .213E+00  .284E+00  .259E+00
  .211E+00  .166E+00  .109E+00  .679E-01  .573E-01  .671E-01  .680E-01  .693E-01
  .683E-01  .470E-01  .306E-01  .421E-01  .415E-01  .471E-01  .478E-01  .392E-01
  .343E-01  .293E-01  .437E-01  .283E-01  .165E-01  .181E-01  .161E-01  .145E-01
  .131E-01  .948E-02  .763E-02  .744E-02  .679E-02  .520E-02  .594E-02  .383E-02
  .244E-02  .223E-02  .212E-02  .199E-02  .000E+00  .000E+00  .000E+00  .000E+00
  .000E+00  .000E+00  .000E+00  .000E+00  .000E+00  .000E+00  .000E+00  .000E+00
  .000E+00  .000E+00  .000E+00  .000E+00  .000E+00  .000E+00  .000E+00  .000E+00
  .000E+00  .000E+00  .000E+00  .000E+00  .000E+00  .000E+00  .000E+00  .000E+00
  .000E+00  .000E+00  .000E+00  .000E+00
  .930E-01  .970E-01  .104E+00  .107E+00  .113E+00  .118E+00  .132E+00  .143E+00
  .155E+00  .175E+00  .197E+00  .206E+00  .236E+00  .257E+00  .273E+00  .300E+00
  .329E+00  .454E+00  .416E+00  .396E+00  .440E+00  .479E+00  .583E+00  .617E+00
  .891E+00  .815E+00  .132E+01  .208E+01  .299E+01  .365E+01  .523E+01  .508E+01
  .441E+01  .367E+01  .255E+01  .166E+01  .148E+01  .181E+01  .192E+01  .204E+01
  .210E+01  .159E+01  .113E+01  .168E+01  .178E+01  .217E+01  .235E+01  .205E+01
  .189E+01  .171E+01  .268E+01  .191E+01  .122E+01  .145E+01  .139E+01  .134E+01
  .129E+01  .990E+00  .843E+00  .867E+00  .832E+00  .703E+00  .875E+00  .611E+00
  .419E+00  .409E+00  .416E+00  .414E+00  .000E+00  .000E+00  .000E+00  .000E+00
  .000E+00  .000E+00  .000E+00  .000E+00  .000E+00  .000E+00  .000E+00  .000E+00
  .000E+00  .000E+00  .000E+00  .000E+00  .000E+00  .000E+00  .000E+00  .000E+00
  .000E+00  .000E+00  .000E+00  .000E+00  .000E+00  .000E+00  .000E+00  .000E+00
  .000E+00  .000E+00  .000E+00  .000E+00
  .300E+02  .300E+02  .300E+02  .300E+02  .300E+02  .300E+02  .300E+02  .300E+02
  .300E+02  .300E+02  .300E+02  .300E+02  .300E+02  .300E+02  .300E+02  .300E+02
  .300E+02  .299E+02  .299E+02  .300E+02  .300E+02  .302E+02  .300E+02  .300E+02
  .300E+02  .302E+02  .300E+02  .302E+02  .302E+02  .307E+02  .309E+02  .312E+02
  .313E+02  .303E+02  .300E+02  .299E+02  .296E+02  .303E+02  .303E+02  .312E+02
  .330E+02  .299E+02  .318E+02  .330E+02  .335E+02  .400E+02  .371E+02  .357E+02
  .523E+02  .534E+02  .498E+02  .494E+02  .347E+02  .490E+02  .485E+02  .404E+02
  .339E+02  .693E+02  .687E+02  .333E+02  .333E+02  .570E+02  .457E+02  .604E+02
  .520E+02  .508E+02  .672E+02  .481E+02  .000E+00  .000E+00  .000E+00  .000E+00
  .000E+00  .000E+00  .000E+00  .000E+00  .000E+00  .000E+00  .000E+00  .000E+00
  .000E+00  .000E+00  .000E+00  .000E+00  .000E+00  .000E+00  .000E+00  .000E+00
  .000E+00  .000E+00  .000E+00  .000E+00  .000E+00  .000E+00  .000E+00  .000E+00
  .000E+00  .000E+00  .000E+00  .000E+00
  .301E+02  .301E+02  .298E+02  .301E+02  .301E+02  .301E+02  .298E+02  .298E+02
  .300E+02  .298E+02  .298E+02  .300E+02  .300E+02  .307E+02  .310E+02  .301E+02
  .298E+02  .301E+02  .299E+02  .299E+02  .300E+02  .299E+02  .299E+02  .299E+02
  .300E+02  .313E+02  .300E+02  .301E+02  .303E+02  .306E+02  .308E+02  .313E+02
  .312E+02  .304E+02  .301E+02  .298E+02  .296E+02  .304E+02  .303E+02  .301E+02
  .311E+02  .300E+02  .298E+02  .335E+02  .336E+02  .402E+02  .369E+02  .355E+02
  .348E+02  .532E+02  .495E+02  .492E+02  .344E+02  .493E+02  .488E+02  .356E+02
  .342E+02  .337E+02  .337E+02  .337E+02  .338E+02  .301E+02  .489E+02  .301E+02
  .301E+02  .301E+02  .301E+02  .301E+02  .000E+00  .000E+00  .000E+00  .000E+00
  .000E+00  .000E+00  .000E+00  .000E+00  .000E+00  .000E+00  .000E+00  .000E+00
  .000E+00  .000E+00  .000E+00  .000E+00  .000E+00  .000E+00  .000E+00  .000E+00
  .000E+00  .000E+00  .000E+00  .000E+00  .000E+00  .000E+00  .000E+00  .000E+00
  .000E+00  .000E+00  .000E+00  .000E+00
  .300E+02  .300E+02  .300E+02  .300E+02  .300E+02  .300E+02  .300E+02  .300E+02
  .300E+02  .300E+02  .300E+02  .300E+02  .300E+02  .300E+02  .300E+02  .300E+02
  .300E+02  .299E+02  .299E+02  .300E+02  .300E+02  .302E+02  .300E+02  .300E+02
  .300E+02  .302E+02  .300E+02  .302E+02  .302E+02  .307E+02  .309E+02  .312E+02
  .313E+02  .303E+02  .300E+02  .299E+02  .296E+02  .303E+02  .303E+02  .312E+02
  .330E+02  .299E+02  .318E+02  .330E+02  .335E+02  .400E+02  .371E+02  .357E+02
  .523E+02  .534E+02  .498E+02  .494E+02  .347E+02  .490E+02  .485E+02  .404E+02
  .339E+02  .693E+02  .687E+02  .333E+02  .333E+02  .580E+02  .456E+02  .604E+02
  .520E+02  .508E+02  .672E+02  .481E+02  .000E+00  .000E+00  .000E+00  .000E+00
  .000E+00  .000E+00  .000E+00  .000E+00  .000E+00  .000E+00  .000E+00  .000E+00
  .000E+00  .000E+00  .000E+00  .000E+00  .000E+00  .000E+00  .000E+00  .000E+00
  .000E+00  .000E+00  .000E+00  .000E+00  .000E+00  .000E+00  .000E+00  .000E+00
  .000E+00  .000E+00  .000E+00  .000E+00
Damping =  .05. Data of Sd,Sv,Sa,Pssv,ttSd,ttSv,ttSa :
  .592E-03  .652E-03  .721E-03  .789E-03  .861E-03  .939E-03  .115E-02  .137E-02
