Response and Fourier amplitude spectra (68 periods,  .04 -  3.4 sec)   for      
Corrected accelerogram   47796-M0115-07303.01       Chan  9:  90 Deg     from   
Uncorrected Accelerogram Data             Processed: 11/09/07, CDMG  ce47796d   
Record of Tue Oct 30, 2007 20:04:52.0 PDT             (Avol1 v7.5 7/07 CSMIP)   
CSMIP Preliminary Processing            (Origin:  To be determined)             
47796-M0115-07303.01                 Start time: 10/31/07, 03:04:52.0 UTC (GPS) 
Station No. 47796   36.697N, 121.632W    MtWtny  s/n  115 (15 Channels)         
Salinas - 3-story County Hospital         CGS                                   
Chan  9:  90 DegR                   Location: Roof: Near Center                 
Record of Tue Oct 30, 2007 20:04:52.0 PDT    Tue Oct 30, 2007 20:04:52.0 PDT    
Hypocenter:  To be determined.               ML:  To be determined.
Instr Period =  .0200 sec,  Damping =  .700,  Sensitivity =  .63  v/g  (Nominal)
                        Record length = 76.000 sec.
                                     Uncor Max  =   .020 g , at  31.705 sec.
RMS accel of (uncor) record  =        .   Chn. metadata effective date: 01/01/04
Accelerogram bandpass filtered with 3 dB pts at   .30 and 40.00 cyc/sec
                 instrument- and baseline-corrected





Record of Tue Oct 30, 2007 20:04:52.0 PDT    Tue Oct 30, 2007 20:04:52.0 PDT

47796-M0115-07303.01      Salinas - 3-story County Hospital   Chan  9:  90 Deg

47796-M0115-07303.01      Salinas - 3-story County Hospital   Chan  9:  90 Deg

Units for spectra are inches and sec, except Sa is in fraction of g.

    9  100    9   18   15  200    1    3    1   24   13  115    047796    2    0
    3    4   52    0  304   10   31 2007   10    3   9015200   41   33   76   26
15200    0   50    3  115    1    1  760    2    0    0    0    0    0    0    0
    0    4    0    015200    1  220    1   18    4   76   33    0    0    015200
    315200   34   68    5   15    5    0    0    0   15    0    0    3    0    2
    2    2    4    0   72   99    0   32   32    0    1    1    0    0    0    0
    1    1   45    0
      .020      .700    76.000      .003      .000   625.000      .020    31.705
    50.000      .298      .477      .000     5.000      .000      .000      .000
     2.500    11.219     2.500  -999.000    25.000    30.000      .000      .051
     -.020     -.070     2.000    15.000    36.697  -121.632      .119      .828
     6.938     -.112     -.029    26.000    25.800    45.700    12.800   106.340
     1.000     1.178     7.000      .000      .000      .000      .000      .000
     3.000     7.500     4.600   980.665      .005    76.000     7.958      .000
      .000    40.000      .000    76.000      .005      .303      .000      .000
    31.700    19.668    36.525     1.511    45.835      .196      .001      .303
    40.000      .005      .005      .001      .005      .126      .000      .000
      .117      .320      .040      .098      .017      .002      .000      .000
      .000      .000      .000      .000      .000      .000      .000      .000
      .000      .000      .000      .000
      .000      .020      .050      .100      .200
      .040      .042      .044      .046      .048      .050      .055      .060
      .065      .070      .075      .080      .085      .090      .095      .100
      .110      .120      .130      .140      .150      .160      .170      .180
      .190      .200      .220      .240      .260      .280      .300      .320
      .340      .360      .380      .400      .420      .440      .460      .480
      .500      .550      .600      .650      .700      .750      .800      .850
      .900      .950     1.000     1.100     1.200     1.300     1.400     1.500
     1.600     1.700     1.800     1.900     2.000     2.200     2.400     2.600
     2.800     3.000     3.200     3.400      .000      .000      .000      .000
      .000      .000      .000      .000      .000      .000      .000      .000
      .000      .000      .000      .000      .000      .000      .000      .000
      .000      .000      .000      .000      .000      .000      .000      .000
      .000      .000      .000      .000
Fourier amplitude spectra in in/sec.
  .169E-01  .155E-02  .341E-01  .372E-01  .292E-01  .558E-02  .105E-01  .164E-01
  .694E-01  .827E-01  .705E-01  .539E-01  .341E-01  .812E-01  .183E+00  .287E+00
  .409E-01  .306E+00  .379E+00  .128E+00  .187E+00  .359E+00  .133E+00  .289E+00
  .860E+00  .474E+00  .993E+00  .640E+00  .125E+01  .213E+01  .417E+01  .478E+01
  .668E+01  .873E+01  .527E+01  .218E+01  .472E+00  .220E+01  .364E+01  .383E+01
  .135E+01  .313E+01  .203E+01  .146E+01  .476E+00  .399E+01  .349E+01  .527E+01
  .399E+01  .369E+01  .292E+01  .107E+01  .135E+01  .120E+01  .490E+01  .405E+01
  .142E+01  .450E+00  .219E+00  .109E+01  .116E+01  .250E+01  .112E+01  .611E+00
  .214E+00  .217E+00  .440E+00  .418E-01  .000E+00  .000E+00  .000E+00  .000E+00
  .000E+00  .000E+00  .000E+00  .000E+00  .000E+00  .000E+00  .000E+00  .000E+00
  .000E+00  .000E+00  .000E+00  .000E+00  .000E+00  .000E+00  .000E+00  .000E+00
  .000E+00  .000E+00  .000E+00  .000E+00  .000E+00  .000E+00  .000E+00  .000E+00
  .000E+00  .000E+00  .000E+00  .000E+00
Damping =  .00. Data of Sd,Sv,Sa,Pssv,ttSd,ttSv,ttSa :
  .377E-03  .396E-03  .571E-03  .656E-03  .763E-03  .654E-03  .714E-03  .765E-03
  .151E-02  .178E-02  .193E-02  .196E-02  .190E-02  .241E-02  .471E-02  .590E-02
  .534E-02  .106E-01  .152E-01  .752E-02  .103E-01  .140E-01  .149E-01  .187E-01
  .392E-01  .283E-01  .617E-01  .326E-01  .831E-01  .126E+00  .230E+00  .344E+00
  .575E+00  .532E+00  .409E+00  .205E+00  .133E+00  .197E+00  .287E+00  .336E+00
  .202E+00  .329E+00  .356E+00  .308E+00  .175E+00  .497E+00  .479E+00  .730E+00
  .632E+00  .620E+00  .597E+00  .267E+00  .383E+00  .422E+00  .114E+01  .106E+01
  .392E+00  .277E+00  .230E+00  .355E+00  .432E+00  .895E+00  .428E+00  .253E+00
  .195E+00  .175E+00  .224E+00  .149E+00  .000E+00  .000E+00  .000E+00  .000E+00
  .000E+00  .000E+00  .000E+00  .000E+00  .000E+00  .000E+00  .000E+00  .000E+00
  .000E+00  .000E+00  .000E+00  .000E+00  .000E+00  .000E+00  .000E+00  .000E+00
  .000E+00  .000E+00  .000E+00  .000E+00  .000E+00  .000E+00  .000E+00  .000E+00
  .000E+00  .000E+00  .000E+00  .000E+00
  .216E-01  .180E-01  .345E-01  .423E-01  .539E-01  .336E-01  .273E-01  .219E-01
  .825E-01  .103E+00  .110E+00  .930E-01  .783E-01  .960E-01  .230E+00  .312E+00
  .210E+00  .442E+00  .642E+00  .246E+00  .299E+00  .463E+00  .480E+00  .548E+00
  .119E+01  .802E+00  .163E+01  .739E+00  .185E+01  .271E+01  .477E+01  .674E+01
  .106E+02  .925E+01  .677E+01  .321E+01  .197E+01  .277E+01  .390E+01  .438E+01
  .262E+01  .373E+01  .393E+01  .290E+01  .159E+01  .419E+01  .373E+01  .536E+01
  .443E+01  .407E+01  .377E+01  .152E+01  .199E+01  .215E+01  .514E+01  .449E+01
  .171E+01  .120E+01  .113E+01  .120E+01  .131E+01  .259E+01  .113E+01  .915E+00
  .700E+00  .802E+00  .767E+00  .768E+00  .000E+00  .000E+00  .000E+00  .000E+00
  .000E+00  .000E+00  .000E+00  .000E+00  .000E+00  .000E+00  .000E+00  .000E+00
  .000E+00  .000E+00  .000E+00  .000E+00  .000E+00  .000E+00  .000E+00  .000E+00
  .000E+00  .000E+00  .000E+00  .000E+00  .000E+00  .000E+00  .000E+00  .000E+00
  .000E+00  .000E+00  .000E+00  .000E+00
  .241E-01  .230E-01  .302E-01  .317E-01  .339E-01  .268E-01  .242E-01  .217E-01
  .365E-01  .372E-01  .351E-01  .313E-01  .270E-01  .304E-01  .534E-01  .603E-01
  .452E-01  .756E-01  .918E-01  .392E-01  .470E-01  .561E-01  .527E-01  .589E-01
  .111E+00  .725E-01  .130E+00  .579E-01  .126E+00  .164E+00  .261E+00  .343E+00
  .508E+00  .420E+00  .290E+00  .131E+00  .769E-01  .104E+00  .139E+00  .149E+00
  .828E-01  .111E+00  .101E+00  .745E-01  .366E-01  .904E-01  .765E-01  .103E+00
  .798E-01  .702E-01  .611E-01  .226E-01  .272E-01  .255E-01  .595E-01  .483E-01
  .157E-01  .979E-02  .725E-02  .101E-01  .110E-01  .189E-01  .760E-02  .382E-02
  .254E-02  .199E-02  .224E-02  .132E-02  .000E+00  .000E+00  .000E+00  .000E+00
  .000E+00  .000E+00  .000E+00  .000E+00  .000E+00  .000E+00  .000E+00  .000E+00
  .000E+00  .000E+00  .000E+00  .000E+00  .000E+00  .000E+00  .000E+00  .000E+00
  .000E+00  .000E+00  .000E+00  .000E+00  .000E+00  .000E+00  .000E+00  .000E+00
  .000E+00  .000E+00  .000E+00  .000E+00
  .592E-01  .592E-01  .815E-01  .896E-01  .999E-01  .822E-01  .816E-01  .801E-01
  .146E+00  .160E+00  .162E+00  .154E+00  .141E+00  .168E+00  .312E+00  .370E+00
  .305E+00  .557E+00  .733E+00  .337E+00  .433E+00  .552E+00  .550E+00  .651E+00
  .130E+01  .890E+00  .176E+01  .854E+00  .201E+01  .282E+01  .481E+01  .675E+01
  .106E+02  .929E+01  .677E+01  .321E+01  .198E+01  .281E+01  .392E+01  .440E+01
  .254E+01  .376E+01  .373E+01  .297E+01  .157E+01  .417E+01  .376E+01  .539E+01
  .441E+01  .410E+01  .375E+01  .152E+01  .200E+01  .204E+01  .511E+01  .445E+01
  .154E+01  .102E+01  .802E+00  .117E+01  .136E+01  .256E+01  .112E+01  .611E+00
  .438E+00  .366E+00  .440E+00  .275E+00  .000E+00  .000E+00  .000E+00  .000E+00
  .000E+00  .000E+00  .000E+00  .000E+00  .000E+00  .000E+00  .000E+00  .000E+00
  .000E+00  .000E+00  .000E+00  .000E+00  .000E+00  .000E+00  .000E+00  .000E+00
  .000E+00  .000E+00  .000E+00  .000E+00  .000E+00  .000E+00  .000E+00  .000E+00
  .000E+00  .000E+00  .000E+00  .000E+00
  .320E+02  .317E+02  .317E+02  .320E+02  .291E+02  .317E+02  .320E+02  .320E+02
  .317E+02  .320E+02  .320E+02  .315E+02  .320E+02  .317E+02  .320E+02  .335E+02
  .317E+02  .317E+02  .340E+02  .317E+02  .320E+02  .340E+02  .307E+02  .325E+02
  .318E+02  .338E+02  .322E+02  .355E+02  .315E+02  .322E+02  .438E+02  .329E+02
  .330E+02  .455E+02  .383E+02  .429E+02  .396E+02  .493E+02  .640E+02  .450E+02
  .363E+02  .627E+02  .337E+02  .442E+02  .357E+02  .658E+02  .620E+02  .475E+02
  .633E+02  .634E+02  .587E+02  .695E+02  .587E+02  .369E+02  .715E+02  .621E+02
  .620E+02  .391E+02  .385E+02  .730E+02  .683E+02  .729E+02  .758E+02  .765E+02
  .405E+02  .459E+02  .773E+02  .606E+02  .000E+00  .000E+00  .000E+00  .000E+00
  .000E+00  .000E+00  .000E+00  .000E+00  .000E+00  .000E+00  .000E+00  .000E+00
  .000E+00  .000E+00  .000E+00  .000E+00  .000E+00  .000E+00  .000E+00  .000E+00
  .000E+00  .000E+00  .000E+00  .000E+00  .000E+00  .000E+00  .000E+00  .000E+00
  .000E+00  .000E+00  .000E+00  .000E+00
  .578E+02  .237E+02  .319E+02  .320E+02  .269E+02  .309E+02  .319E+02  .308E+02
  .319E+02  .357E+02  .319E+02  .309E+02  .354E+02  .506E+02  .351E+02  .440E+02
  .310E+02  .313E+02  .336E+02  .316E+02  .294E+02  .358E+02  .308E+02  .325E+02
  .318E+02  .351E+02  .322E+02  .534E+02  .316E+02  .321E+02  .491E+02  .330E+02
  .330E+02  .488E+02  .382E+02  .430E+02  .395E+02  .516E+02  .638E+02  .449E+02
  .320E+02  .628E+02  .336E+02  .443E+02  .355E+02  .656E+02  .622E+02  .477E+02
  .635E+02  .632E+02  .634E+02  .697E+02  .584E+02  .352E+02  .712E+02  .617E+02
  .439E+02  .394E+02  .365E+02  .735E+02  .658E+02  .735E+02  .456E+02  .456E+02
  .316E+02  .365E+02  .365E+02  .365E+02  .000E+00  .000E+00  .000E+00  .000E+00
  .000E+00  .000E+00  .000E+00  .000E+00  .000E+00  .000E+00  .000E+00  .000E+00
  .000E+00  .000E+00  .000E+00  .000E+00  .000E+00  .000E+00  .000E+00  .000E+00
  .000E+00  .000E+00  .000E+00  .000E+00  .000E+00  .000E+00  .000E+00  .000E+00
  .000E+00  .000E+00  .000E+00  .000E+00
  .320E+02  .317E+02  .317E+02  .320E+02  .291E+02  .317E+02  .320E+02  .320E+02
  .317E+02  .320E+02  .320E+02  .315E+02  .320E+02  .317E+02  .320E+02  .335E+02
  .317E+02  .317E+02  .340E+02  .317E+02  .320E+02  .340E+02  .307E+02  .325E+02
  .318E+02  .338E+02  .322E+02  .355E+02  .315E+02  .322E+02  .438E+02  .329E+02
  .330E+02  .455E+02  .383E+02  .429E+02  .396E+02  .493E+02  .640E+02  .450E+02
  .363E+02  .627E+02  .337E+02  .442E+02  .357E+02  .658E+02  .620E+02  .475E+02
  .633E+02  .634E+02  .587E+02  .695E+02  .587E+02  .369E+02  .715E+02  .621E+02
  .620E+02  .391E+02  .385E+02  .730E+02  .683E+02  .729E+02  .758E+02  .765E+02
  .405E+02  .459E+02  .773E+02  .606E+02  .000E+00  .000E+00  .000E+00  .000E+00
  .000E+00  .000E+00  .000E+00  .000E+00  .000E+00  .000E+00  .000E+00  .000E+00
  .000E+00  .000E+00  .000E+00  .000E+00  .000E+00  .000E+00  .000E+00  .000E+00
  .000E+00  .000E+00  .000E+00  .000E+00  .000E+00  .000E+00  .000E+00  .000E+00
  .000E+00  .000E+00  .000E+00  .000E+00
Damping =  .02. Data of Sd,Sv,Sa,Pssv,ttSd,ttSv,ttSa :
  .321E-03  .360E-03  .403E-03  .437E-03  .468E-03  .495E-03  .615E-03  .760E-03
  .907E-03  .106E-02  .122E-02  .156E-02  .168E-02  .214E-02  .251E-02  .273E-02
  .307E-02  .527E-02  .734E-02  .588E-02  .821E-02  .923E-02  .116E-01  .147E-01
  .185E-01  .176E-01  .311E-01  .254E-01  .509E-01  .868E-01  .118E+00  .191E+00
  .174E+00  .210E+00  .159E+00  .108E+00  .940E-01  .115E+00  .158E+00  .176E+00
  .167E+00  .128E+00  .188E+00  .179E+00  .153E+00  .258E+00  .253E+00  .332E+00
  .350E+00  .274E+00  .249E+00  .199E+00  .187E+00  .303E+00  .587E+00  .497E+00
  .270E+00  .233E+00  .199E+00  .203E+00  .272E+00  .442E+00  .303E+00  .204E+00
  .167E+00  .150E+00  .138E+00  .120E+00  .000E+00  .000E+00  .000E+00  .000E+00
  .000E+00  .000E+00  .000E+00  .000E+00  .000E+00  .000E+00  .000E+00  .000E+00
  .000E+00  .000E+00  .000E+00  .000E+00  .000E+00  .000E+00  .000E+00  .000E+00
  .000E+00  .000E+00  .000E+00  .000E+00  .000E+00  .000E+00  .000E+00  .000E+00
  .000E+00  .000E+00  .000E+00  .000E+00
  .100E-01  .116E-01  .123E-01  .129E-01  .123E-01  .136E-01  .150E-01  .190E-01
  .301E-01  .316E-01  .406E-01  .340E-01  .472E-01  .691E-01  .885E-01  .731E-01
  .127E+00  .208E+00  .222E+00  .167E+00  .196E+00  .214E+00  .291E+00  .390E+00
  .532E+00  .478E+00  .741E+00  .584E+00  .108E+01  .180E+01  .238E+01  .368E+01
  .318E+01  .365E+01  .267E+01  .182E+01  .153E+01  .178E+01  .238E+01  .262E+01
  .224E+01  .167E+01  .210E+01  .181E+01  .145E+01  .216E+01  .194E+01  .252E+01
  .243E+01  .190E+01  .157E+01  .132E+01  .113E+01  .165E+01  .271E+01  .230E+01
  .136E+01  .105E+01  .970E+00  .795E+00  .925E+00  .153E+01  .997E+00  .836E+00
  .721E+00  .776E+00  .761E+00  .750E+00  .000E+00  .000E+00  .000E+00  .000E+00
  .000E+00  .000E+00  .000E+00  .000E+00  .000E+00  .000E+00  .000E+00  .000E+00
  .000E+00  .000E+00  .000E+00  .000E+00  .000E+00  .000E+00  .000E+00  .000E+00
  .000E+00  .000E+00  .000E+00  .000E+00  .000E+00  .000E+00  .000E+00  .000E+00
  .000E+00  .000E+00  .000E+00  .000E+00
  .205E-01  .208E-01  .213E-01  .211E-01  .208E-01  .202E-01  .208E-01  .216E-01
  .220E-01  .220E-01  .221E-01  .250E-01  .237E-01  .270E-01  .285E-01  .279E-01
  .259E-01  .375E-01  .445E-01  .307E-01  .374E-01  .369E-01  .410E-01  .463E-01
  .525E-01  .450E-01  .658E-01  .451E-01  .771E-01  .113E+00  .134E+00  .191E+00
  .154E+00  .166E+00  .113E+00  .689E-01  .545E-01  .609E-01  .763E-01  .783E-01
  .684E-01  .432E-01  .535E-01  .433E-01  .319E-01  .469E-01  .405E-01  .470E-01
  .442E-01  .311E-01  .255E-01  .168E-01  .133E-01  .183E-01  .306E-01  .226E-01
  .108E-01  .824E-02  .630E-02  .577E-02  .695E-02  .935E-02  .539E-02  .310E-02
  .219E-02  .172E-02  .138E-02  .106E-02  .000E+00  .000E+00  .000E+00  .000E+00
  .000E+00  .000E+00  .000E+00  .000E+00  .000E+00  .000E+00  .000E+00  .000E+00
  .000E+00  .000E+00  .000E+00  .000E+00  .000E+00  .000E+00  .000E+00  .000E+00
  .000E+00  .000E+00  .000E+00  .000E+00  .000E+00  .000E+00  .000E+00  .000E+00
  .000E+00  .000E+00  .000E+00  .000E+00
  .503E-01  .538E-01  .575E-01  .597E-01  .613E-01  .622E-01  .703E-01  .796E-01
  .877E-01  .948E-01  .102E+00  .123E+00  .124E+00  .149E+00  .166E+00  .171E+00
  .175E+00  .276E+00  .355E+00  .264E+00  .344E+00  .362E+00  .428E+00  .512E+00
  .612E+00  .553E+00  .888E+00  .664E+00  .123E+01  .195E+01  .248E+01  .376E+01
  .321E+01  .366E+01  .262E+01  .169E+01  .141E+01  .164E+01  .216E+01  .231E+01
  .210E+01  .146E+01  .197E+01  .173E+01  .137E+01  .216E+01  .199E+01  .245E+01
  .244E+01  .181E+01  .156E+01  .113E+01  .980E+00  .146E+01  .263E+01  .208E+01
  .106E+01  .861E+00  .695E+00  .673E+00  .853E+00  .126E+01  .793E+00  .493E+00
  .375E+00  .315E+00  .270E+00  .222E+00  .000E+00  .000E+00  .000E+00  .000E+00
  .000E+00  .000E+00  .000E+00  .000E+00  .000E+00  .000E+00  .000E+00  .000E+00
  .000E+00  .000E+00  .000E+00  .000E+00  .000E+00  .000E+00  .000E+00  .000E+00
  .000E+00  .000E+00  .000E+00  .000E+00  .000E+00  .000E+00  .000E+00  .000E+00
  .000E+00  .000E+00  .000E+00  .000E+00
  .317E+02  .320E+02  .320E+02  .320E+02  .317E+02  .320E+02  .317E+02  .317E+02
  .320E+02  .320E+02  .315E+02  .317E+02  .317E+02  .317E+02  .320E+02  .320E+02
  .317E+02  .315E+02  .320E+02  .320E+02  .320E+02  .320E+02  .320E+02  .320E+02
  .299E+02  .303E+02  .315E+02  .295E+02  .315E+02  .320E+02  .359E+02  .326E+02
  .326E+02  .359E+02  .342E+02  .337E+02  .322E+02  .322E+02  .322E+02  .318E+02
  .318E+02  .319E+02  .317E+02  .309E+02  .307E+02  .459E+02  .464E+02  .369E+02
  .466E+02  .496E+02  .497E+02  .450E+02  .437E+02  .370E+02  .415E+02  .418E+02
  .412E+02  .391E+02  .384E+02  .483E+02  .524E+02  .519E+02  .458E+02  .459E+02
  .405E+02  .459E+02  .632E+02  .363E+02  .000E+00  .000E+00  .000E+00  .000E+00
  .000E+00  .000E+00  .000E+00  .000E+00  .000E+00  .000E+00  .000E+00  .000E+00
  .000E+00  .000E+00  .000E+00  .000E+00  .000E+00  .000E+00  .000E+00  .000E+00
  .000E+00  .000E+00  .000E+00  .000E+00  .000E+00  .000E+00  .000E+00  .000E+00
  .000E+00  .000E+00  .000E+00  .000E+00
  .319E+02  .319E+02  .320E+02  .320E+02  .320E+02  .320E+02  .319E+02  .320E+02
  .238E+02  .319E+02  .319E+02  .317E+02  .319E+02  .319E+02  .320E+02  .298E+02
  .299E+02  .311E+02  .320E+02  .312E+02  .321E+02  .291E+02  .324E+02  .321E+02
  .300E+02  .300E+02  .316E+02  .296E+02  .316E+02  .321E+02  .358E+02  .327E+02
  .327E+02  .360E+02  .341E+02  .338E+02  .323E+02  .323E+02  .321E+02  .319E+02
  .320E+02  .318E+02  .318E+02  .311E+02  .308E+02  .461E+02  .466E+02  .367E+02
  .459E+02  .456E+02  .495E+02  .453E+02  .440E+02  .352E+02  .418E+02  .415E+02
  .415E+02  .394E+02  .365E+02  .487E+02  .528E+02  .482E+02  .365E+02  .456E+02
  .365E+02  .365E+02  .365E+02  .365E+02  .000E+00  .000E+00  .000E+00  .000E+00
  .000E+00  .000E+00  .000E+00  .000E+00  .000E+00  .000E+00  .000E+00  .000E+00
  .000E+00  .000E+00  .000E+00  .000E+00  .000E+00  .000E+00  .000E+00  .000E+00
  .000E+00  .000E+00  .000E+00  .000E+00  .000E+00  .000E+00  .000E+00  .000E+00
  .000E+00  .000E+00  .000E+00  .000E+00
  .317E+02  .320E+02  .320E+02  .320E+02  .317E+02  .320E+02  .317E+02  .317E+02
  .320E+02  .320E+02  .315E+02  .317E+02  .317E+02  .317E+02  .320E+02  .320E+02
  .317E+02  .315E+02  .320E+02  .320E+02  .320E+02  .320E+02  .320E+02  .320E+02
  .299E+02  .303E+02  .315E+02  .295E+02  .315E+02  .320E+02  .359E+02  .326E+02
  .326E+02  .359E+02  .342E+02  .337E+02  .322E+02  .322E+02  .322E+02  .318E+02
  .318E+02  .319E+02  .317E+02  .309E+02  .307E+02  .459E+02  .464E+02  .369E+02
  .466E+02  .496E+02  .497E+02  .450E+02  .437E+02  .370E+02  .415E+02  .418E+02
  .412E+02  .391E+02  .384E+02  .482E+02  .524E+02  .519E+02  .458E+02  .458E+02
  .404E+02  .458E+02  .631E+02  .362E+02  .000E+00  .000E+00  .000E+00  .000E+00
  .000E+00  .000E+00  .000E+00  .000E+00  .000E+00  .000E+00  .000E+00  .000E+00
  .000E+00  .000E+00  .000E+00  .000E+00  .000E+00  .000E+00  .000E+00  .000E+00
  .000E+00  .000E+00  .000E+00  .000E+00  .000E+00  .000E+00  .000E+00  .000E+00
  .000E+00  .000E+00  .000E+00  .000E+00
Damping =  .05. Data of Sd,Sv,Sa,Pssv,ttSd,ttSv,ttSa :
  .321E-03  .353E-03  .393E-03  .427E-03  .457E-03  .492E-03  .614E-03  .744E-03
