Response and Fourier amplitude spectra (68 periods,  .04 -  3.4 sec)   for      
Corrected accelerogram   47796-M0115-07303.01       Chan 12: 360 Deg     from   
Uncorrected Accelerogram Data             Processed: 11/09/07, CDMG  ce47796d   
Record of Tue Oct 30, 2007 20:04:52.0 PDT             (Avol1 v7.5 7/07 CSMIP)   
CSMIP Preliminary Processing            (Origin:  To be determined)             
47796-M0115-07303.01                 Start time: 10/31/07, 03:04:52.0 UTC (GPS) 
Station No. 47796   36.697N, 121.632W    MtWtny  s/n  115 (15 Channels)         
Salinas - 3-story County Hospital         CGS                                   
Chan 12: 360 DegR                   Location: Roof: Near East End               
Record of Tue Oct 30, 2007 20:04:52.0 PDT    Tue Oct 30, 2007 20:04:52.0 PDT    
Hypocenter:  To be determined.               ML:  To be determined.
Instr Period =  .0200 sec,  Damping =  .700,  Sensitivity =  .63  v/g  (Nominal)
                        Record length = 76.000 sec.
                                     Uncor Max  =   .039 g , at  30.050 sec.
RMS accel of (uncor) record  =        .   Chn. metadata effective date: 01/01/04
Accelerogram bandpass filtered with 3 dB pts at   .30 and 40.00 cyc/sec
                 instrument- and baseline-corrected





Record of Tue Oct 30, 2007 20:04:52.0 PDT    Tue Oct 30, 2007 20:04:52.0 PDT

47796-M0115-07303.01      Salinas - 3-story County Hospital   Chan 12: 360 Deg

47796-M0115-07303.01      Salinas - 3-story County Hospital   Chan 12: 360 Deg

Units for spectra are inches and sec, except Sa is in fraction of g.

   12  100   12   18   15  200    1    3    1   24   13  115    047796    2    0
    3    4   52    0  304   10   31 2007   10    3  36015200   41   33   76   26
15200    0   50    3  115    1    1  760    2    0    0    0    0    0    0    0
    0    4    0    015200    1  220    1   18    4   76   33    0    0    015200
    315200   34   68    5   15    5    0    0    0   15    0    0    3    0    2
    2    2    4    0   72   99    0   32   32    0    1    1    0    0    0    0
    1    1   60    0
      .020      .700    76.000      .004      .000   625.000      .039    30.050
    50.000      .298      .477      .000     5.000      .000      .000      .000
     2.500    20.560     2.500  -999.000    25.000    30.000      .000      .003
     -.006     -.009     2.000    15.000    36.697  -121.632      .088      .973
    11.076     -.057      .038    26.000    25.800    45.700    12.800   106.340
     1.000    -1.754     7.000      .000      .000      .000      .000      .000
     3.000     7.500     4.600   980.665      .005    76.000     7.958      .000
      .000    40.000      .000    76.000      .005      .303      .000      .000
    30.045    38.139    30.120     2.262    33.325     -.179      .000      .303
    40.000      .005      .005      .000      .005      .136      .000      .000
      .237      .300      .077      .218      .025      .002      .000      .000
      .000      .000      .000      .000      .000      .000      .000      .000
      .000      .000      .000      .000
      .000      .020      .050      .100      .200
      .040      .042      .044      .046      .048      .050      .055      .060
      .065      .070      .075      .080      .085      .090      .095      .100
      .110      .120      .130      .140      .150      .160      .170      .180
      .190      .200      .220      .240      .260      .280      .300      .320
      .340      .360      .380      .400      .420      .440      .460      .480
      .500      .550      .600      .650      .700      .750      .800      .850
      .900      .950     1.000     1.100     1.200     1.300     1.400     1.500
     1.600     1.700     1.800     1.900     2.000     2.200     2.400     2.600
     2.800     3.000     3.200     3.400      .000      .000      .000      .000
      .000      .000      .000      .000      .000      .000      .000      .000
      .000      .000      .000      .000      .000      .000      .000      .000
      .000      .000      .000      .000      .000      .000      .000      .000
      .000      .000      .000      .000
Fourier amplitude spectra in in/sec.
  .155E-01  .170E-02  .127E-01  .274E-01  .129E-01  .839E-02  .119E-01  .257E-02
  .279E-01  .623E-01  .224E-01  .636E-01  .790E-01  .370E-01  .146E+00  .867E-01
  .915E-01  .208E+00  .354E+00  .153E+00  .112E+00  .153E+00  .311E+00  .694E-01
  .242E+00  .106E+01  .691E+00  .200E+01  .293E+01  .344E+01  .149E+02  .136E+02
  .958E+01  .505E+01  .472E+01  .873E+00  .201E+01  .125E+01  .148E+01  .316E+01
  .304E+01  .223E+01  .258E+00  .379E+01  .578E+00  .401E+01  .351E+01  .558E+01
  .465E+01  .317E+01  .469E+01  .205E+01  .178E+01  .189E+01  .221E+01  .237E+01
  .693E+00  .191E+01  .145E+01  .102E+01  .815E+00  .473E+00  .139E+01  .101E+01
  .153E+00  .345E+00  .530E+00  .569E+00  .000E+00  .000E+00  .000E+00  .000E+00
  .000E+00  .000E+00  .000E+00  .000E+00  .000E+00  .000E+00  .000E+00  .000E+00
  .000E+00  .000E+00  .000E+00  .000E+00  .000E+00  .000E+00  .000E+00  .000E+00
  .000E+00  .000E+00  .000E+00  .000E+00  .000E+00  .000E+00  .000E+00  .000E+00
  .000E+00  .000E+00  .000E+00  .000E+00
Damping =  .00. Data of Sd,Sv,Sa,Pssv,ttSd,ttSv,ttSa :
  .690E-03  .686E-03  .794E-03  .923E-03  .980E-03  .102E-02  .127E-02  .153E-02
  .180E-02  .249E-02  .265E-02  .389E-02  .343E-02  .384E-02  .429E-02  .577E-02
  .573E-02  .748E-02  .119E-01  .109E-01  .124E-01  .145E-01  .223E-01  .246E-01
  .409E-01  .454E-01  .519E-01  .104E+00  .165E+00  .244E+00  .798E+00  .707E+00
  .541E+00  .374E+00  .304E+00  .158E+00  .166E+00  .188E+00  .181E+00  .277E+00
  .327E+00  .214E+00  .141E+00  .427E+00  .255E+00  .537E+00  .548E+00  .809E+00
  .729E+00  .510E+00  .863E+00  .577E+00  .367E+00  .496E+00  .638E+00  .593E+00
  .479E+00  .516E+00  .427E+00  .394E+00  .410E+00  .495E+00  .542E+00  .421E+00
  .209E+00  .265E+00  .273E+00  .361E+00  .000E+00  .000E+00  .000E+00  .000E+00
  .000E+00  .000E+00  .000E+00  .000E+00  .000E+00  .000E+00  .000E+00  .000E+00
  .000E+00  .000E+00  .000E+00  .000E+00  .000E+00  .000E+00  .000E+00  .000E+00
  .000E+00  .000E+00  .000E+00  .000E+00  .000E+00  .000E+00  .000E+00  .000E+00
  .000E+00  .000E+00  .000E+00  .000E+00
  .262E-01  .171E-01  .279E-01  .328E-01  .368E-01  .309E-01  .357E-01  .489E-01
  .511E-01  .994E-01  .797E-01  .162E+00  .111E+00  .115E+00  .178E+00  .172E+00
  .198E+00  .272E+00  .526E+00  .308E+00  .286E+00  .317E+00  .521E+00  .559E+00
  .105E+01  .134E+01  .122E+01  .242E+01  .389E+01  .520E+01  .166E+02  .138E+02
  .999E+01  .674E+01  .499E+01  .265E+01  .248E+01  .299E+01  .278E+01  .359E+01
  .406E+01  .244E+01  .158E+01  .411E+01  .239E+01  .440E+01  .435E+01  .595E+01
  .506E+01  .334E+01  .549E+01  .335E+01  .193E+01  .245E+01  .307E+01  .246E+01
  .209E+01  .191E+01  .156E+01  .151E+01  .134E+01  .151E+01  .157E+01  .110E+01
  .899E+00  .916E+00  .103E+01  .106E+01  .000E+00  .000E+00  .000E+00  .000E+00
  .000E+00  .000E+00  .000E+00  .000E+00  .000E+00  .000E+00  .000E+00  .000E+00
  .000E+00  .000E+00  .000E+00  .000E+00  .000E+00  .000E+00  .000E+00  .000E+00
  .000E+00  .000E+00  .000E+00  .000E+00  .000E+00  .000E+00  .000E+00  .000E+00
  .000E+00  .000E+00  .000E+00  .000E+00
  .441E-01  .398E-01  .420E-01  .446E-01  .435E-01  .416E-01  .430E-01  .434E-01
  .436E-01  .519E-01  .482E-01  .622E-01  .486E-01  .485E-01  .486E-01  .590E-01
  .484E-01  .531E-01  .717E-01  .567E-01  .563E-01  .578E-01  .788E-01  .775E-01
  .116E+00  .116E+00  .110E+00  .185E+00  .250E+00  .319E+00  .907E+00  .706E+00
  .479E+00  .295E+00  .215E+00  .101E+00  .960E-01  .995E-01  .877E-01  .123E+00
  .134E+00  .723E-01  .399E-01  .103E+00  .533E-01  .976E-01  .876E-01  .115E+00
  .920E-01  .578E-01  .883E-01  .488E-01  .261E-01  .300E-01  .333E-01  .270E-01
  .191E-01  .183E-01  .135E-01  .112E-01  .105E-01  .105E-01  .963E-02  .637E-02
  .273E-02  .301E-02  .272E-02  .320E-02  .000E+00  .000E+00  .000E+00  .000E+00
  .000E+00  .000E+00  .000E+00  .000E+00  .000E+00  .000E+00  .000E+00  .000E+00
  .000E+00  .000E+00  .000E+00  .000E+00  .000E+00  .000E+00  .000E+00  .000E+00
  .000E+00  .000E+00  .000E+00  .000E+00  .000E+00  .000E+00  .000E+00  .000E+00
  .000E+00  .000E+00  .000E+00  .000E+00
  .108E+00  .103E+00  .113E+00  .126E+00  .128E+00  .128E+00  .145E+00  .160E+00
  .174E+00  .223E+00  .222E+00  .306E+00  .254E+00  .268E+00  .284E+00  .362E+00
  .327E+00  .391E+00  .573E+00  .488E+00  .518E+00  .568E+00  .823E+00  .857E+00
  .135E+01  .143E+01  .148E+01  .273E+01  .400E+01  .548E+01  .167E+02  .139E+02
  .100E+02  .653E+01  .503E+01  .249E+01  .248E+01  .269E+01  .248E+01  .362E+01
  .411E+01  .244E+01  .147E+01  .413E+01  .229E+01  .450E+01  .431E+01  .598E+01
  .509E+01  .338E+01  .542E+01  .330E+01  .192E+01  .240E+01  .286E+01  .249E+01
  .188E+01  .191E+01  .149E+01  .130E+01  .129E+01  .141E+01  .142E+01  .102E+01
  .469E+00  .554E+00  .535E+00  .667E+00  .000E+00  .000E+00  .000E+00  .000E+00
  .000E+00  .000E+00  .000E+00  .000E+00  .000E+00  .000E+00  .000E+00  .000E+00
  .000E+00  .000E+00  .000E+00  .000E+00  .000E+00  .000E+00  .000E+00  .000E+00
  .000E+00  .000E+00  .000E+00  .000E+00  .000E+00  .000E+00  .000E+00  .000E+00
  .000E+00  .000E+00  .000E+00  .000E+00
  .301E+02  .300E+02  .307E+02  .300E+02  .302E+02  .302E+02  .300E+02  .301E+02
  .302E+02  .301E+02  .302E+02  .306E+02  .307E+02  .300E+02  .307E+02  .300E+02
  .307E+02  .300E+02  .333E+02  .300E+02  .300E+02  .302E+02  .300E+02  .300E+02
  .300E+02  .308E+02  .299E+02  .302E+02  .383E+02  .308E+02  .399E+02  .508E+02
  .484E+02  .312E+02  .529E+02  .313E+02  .340E+02  .305E+02  .304E+02  .602E+02
  .400E+02  .673E+02  .318E+02  .616E+02  .335E+02  .487E+02  .375E+02  .671E+02
  .528E+02  .721E+02  .508E+02  .499E+02  .701E+02  .491E+02  .485E+02  .729E+02
  .370E+02  .751E+02  .711E+02  .416E+02  .612E+02  .581E+02  .469E+02  .749E+02
  .520E+02  .508E+02  .672E+02  .598E+02  .000E+00  .000E+00  .000E+00  .000E+00
  .000E+00  .000E+00  .000E+00  .000E+00  .000E+00  .000E+00  .000E+00  .000E+00
  .000E+00  .000E+00  .000E+00  .000E+00  .000E+00  .000E+00  .000E+00  .000E+00
  .000E+00  .000E+00  .000E+00  .000E+00  .000E+00  .000E+00  .000E+00  .000E+00
  .000E+00  .000E+00  .000E+00  .000E+00
  .301E+02  .307E+02  .301E+02  .308E+02  .301E+02  .301E+02  .300E+02  .301E+02
  .301E+02  .300E+02  .301E+02  .308E+02  .334E+02  .301E+02  .395E+02  .299E+02
  .301E+02  .316E+02  .337E+02  .313E+02  .306E+02  .306E+02  .300E+02  .300E+02
  .301E+02  .319E+02  .298E+02  .301E+02  .384E+02  .308E+02  .398E+02  .483E+02
  .483E+02  .311E+02  .530E+02  .313E+02  .341E+02  .304E+02  .303E+02  .601E+02
  .401E+02  .300E+02  .317E+02  .614E+02  .336E+02  .488E+02  .373E+02  .669E+02
  .525E+02  .723E+02  .505E+02  .497E+02  .704E+02  .494E+02  .489E+02  .740E+02
  .367E+02  .755E+02  .716E+02  .489E+02  .607E+02  .576E+02  .489E+02  .301E+02
  .301E+02  .301E+02  .301E+02  .301E+02  .000E+00  .000E+00  .000E+00  .000E+00
  .000E+00  .000E+00  .000E+00  .000E+00  .000E+00  .000E+00  .000E+00  .000E+00
  .000E+00  .000E+00  .000E+00  .000E+00  .000E+00  .000E+00  .000E+00  .000E+00
  .000E+00  .000E+00  .000E+00  .000E+00  .000E+00  .000E+00  .000E+00  .000E+00
  .000E+00  .000E+00  .000E+00  .000E+00
  .301E+02  .300E+02  .307E+02  .300E+02  .302E+02  .302E+02  .300E+02  .301E+02
  .302E+02  .301E+02  .302E+02  .306E+02  .307E+02  .300E+02  .307E+02  .300E+02
  .307E+02  .300E+02  .333E+02  .300E+02  .300E+02  .302E+02  .300E+02  .300E+02
  .300E+02  .308E+02  .299E+02  .302E+02  .383E+02  .308E+02  .399E+02  .508E+02
  .484E+02  .312E+02  .529E+02  .313E+02  .340E+02  .305E+02  .304E+02  .602E+02
  .400E+02  .673E+02  .318E+02  .616E+02  .335E+02  .487E+02  .375E+02  .671E+02
  .528E+02  .721E+02  .508E+02  .499E+02  .701E+02  .491E+02  .485E+02  .729E+02
  .370E+02  .751E+02  .711E+02  .416E+02  .612E+02  .581E+02  .469E+02  .749E+02
  .520E+02  .508E+02  .672E+02  .598E+02  .000E+00  .000E+00  .000E+00  .000E+00
  .000E+00  .000E+00  .000E+00  .000E+00  .000E+00  .000E+00  .000E+00  .000E+00
  .000E+00  .000E+00  .000E+00  .000E+00  .000E+00  .000E+00  .000E+00  .000E+00
  .000E+00  .000E+00  .000E+00  .000E+00  .000E+00  .000E+00  .000E+00  .000E+00
  .000E+00  .000E+00  .000E+00  .000E+00
Damping =  .02. Data of Sd,Sv,Sa,Pssv,ttSd,ttSv,ttSa :
  .617E-03  .676E-03  .745E-03  .817E-03  .897E-03  .973E-03  .121E-02  .140E-02
  .167E-02  .195E-02  .232E-02  .262E-02  .313E-02  .364E-02  .402E-02  .472E-02
  .530E-02  .774E-02  .876E-02  .968E-02  .119E-01  .137E-01  .174E-01  .210E-01
  .295E-01  .352E-01  .454E-01  .810E-01  .138E+00  .206E+00  .330E+00  .349E+00
  .290E+00  .236E+00  .186E+00  .113E+00  .100E+00  .130E+00  .147E+00  .173E+00
  .188E+00  .155E+00  .128E+00  .171E+00  .200E+00  .276E+00  .326E+00  .286E+00
  .281E+00  .263E+00  .451E+00  .342E+00  .230E+00  .299E+00  .313E+00  .343E+00
  .327E+00  .272E+00  .249E+00  .274E+00  .269E+00  .272E+00  .348E+00  .253E+00
  .189E+00  .199E+00  .210E+00  .226E+00  .000E+00  .000E+00  .000E+00  .000E+00
  .000E+00  .000E+00  .000E+00  .000E+00  .000E+00  .000E+00  .000E+00  .000E+00
  .000E+00  .000E+00  .000E+00  .000E+00  .000E+00  .000E+00  .000E+00  .000E+00
  .000E+00  .000E+00  .000E+00  .000E+00  .000E+00  .000E+00  .000E+00  .000E+00
  .000E+00  .000E+00  .000E+00  .000E+00
  .153E-01  .178E-01  .180E-01  .189E-01  .203E-01  .224E-01  .291E-01  .348E-01
  .370E-01  .476E-01  .594E-01  .668E-01  .797E-01  .870E-01  .999E-01  .116E+00
  .175E+00  .197E+00  .248E+00  .225E+00  .238E+00  .311E+00  .377E+00  .445E+00
  .682E+00  .866E+00  .108E+01  .179E+01  .308E+01  .426E+01  .665E+01  .675E+01
  .541E+01  .437E+01  .341E+01  .213E+01  .171E+01  .209E+01  .237E+01  .247E+01
  .254E+01  .219E+01  .150E+01  .170E+01  .186E+01  .218E+01  .264E+01  .223E+01
  .195E+01  .176E+01  .287E+01  .204E+01  .150E+01  .162E+01  .158E+01  .148E+01
  .147E+01  .102E+01  .101E+01  .113E+01  .105E+01  .916E+00  .101E+01  .106E+01
  .931E+00  .933E+00  .101E+01  .104E+01  .000E+00  .000E+00  .000E+00  .000E+00
  .000E+00  .000E+00  .000E+00  .000E+00  .000E+00  .000E+00  .000E+00  .000E+00
  .000E+00  .000E+00  .000E+00  .000E+00  .000E+00  .000E+00  .000E+00  .000E+00
  .000E+00  .000E+00  .000E+00  .000E+00  .000E+00  .000E+00  .000E+00  .000E+00
  .000E+00  .000E+00  .000E+00  .000E+00
  .394E-01  .392E-01  .394E-01  .395E-01  .398E-01  .398E-01  .410E-01  .399E-01
  .404E-01  .408E-01  .422E-01  .419E-01  .443E-01  .460E-01  .456E-01  .483E-01
  .449E-01  .549E-01  .530E-01  .505E-01  .540E-01  .547E-01  .617E-01  .662E-01
  .836E-01  .901E-01  .961E-01  .144E+00  .208E+00  .268E+00  .375E+00  .348E+00
  .257E+00  .186E+00  .132E+00  .722E-01  .582E-01  .688E-01  .711E-01  .770E-01
  .769E-01  .524E-01  .365E-01  .415E-01  .417E-01  .503E-01  .521E-01  .405E-01
  .355E-01  .298E-01  .462E-01  .289E-01  .163E-01  .181E-01  .164E-01  .156E-01
  .131E-01  .963E-02  .786E-02  .778E-02  .689E-02  .575E-02  .618E-02  .383E-02
  .247E-02  .226E-02  .211E-02  .200E-02  .000E+00  .000E+00  .000E+00  .000E+00
  .000E+00  .000E+00  .000E+00  .000E+00  .000E+00  .000E+00  .000E+00  .000E+00
  .000E+00  .000E+00  .000E+00  .000E+00  .000E+00  .000E+00  .000E+00  .000E+00
  .000E+00  .000E+00  .000E+00  .000E+00  .000E+00  .000E+00  .000E+00  .000E+00
  .000E+00  .000E+00  .000E+00  .000E+00
  .968E-01  .101E+00  .106E+00  .112E+00  .117E+00  .122E+00  .139E+00  .147E+00
  .161E+00  .175E+00  .194E+00  .206E+00  .231E+00  .254E+00  .266E+00  .297E+00
  .303E+00  .405E+00  .423E+00  .434E+00  .497E+00  .538E+00  .644E+00  .732E+00
  .976E+00  .111E+01  .130E+01  .212E+01  .333E+01  .461E+01  .690E+01  .684E+01
  .536E+01  .411E+01  .308E+01  .177E+01  .150E+01  .186E+01  .201E+01  .227E+01
  .236E+01  .177E+01  .134E+01  .165E+01  .179E+01  .231E+01  .256E+01  .211E+01
  .196E+01  .174E+01  .283E+01  .195E+01  .120E+01  .145E+01  .141E+01  .144E+01
  .128E+01  .100E+01  .869E+00  .907E+00  .844E+00  .777E+00  .910E+00  .611E+00
  .424E+00  .416E+00  .413E+00  .417E+00  .000E+00  .000E+00  .000E+00  .000E+00
  .000E+00  .000E+00  .000E+00  .000E+00  .000E+00  .000E+00  .000E+00  .000E+00
  .000E+00  .000E+00  .000E+00  .000E+00  .000E+00  .000E+00  .000E+00  .000E+00
  .000E+00  .000E+00  .000E+00  .000E+00  .000E+00  .000E+00  .000E+00  .000E+00
  .000E+00  .000E+00  .000E+00  .000E+00
  .300E+02  .301E+02  .300E+02  .300E+02  .300E+02  .300E+02  .300E+02  .301E+02
  .300E+02  .302E+02  .302E+02  .307E+02  .307E+02  .307E+02  .300E+02  .300E+02
  .302E+02  .302E+02  .300E+02  .300E+02  .300E+02  .302E+02  .300E+02  .300E+02
  .300E+02  .302E+02  .298E+02  .300E+02  .302E+02  .307E+02  .309E+02  .317E+02
  .313E+02  .305E+02  .304E+02  .313E+02  .312E+02  .303E+02  .304E+02  .312E+02
  .318E+02  .299E+02  .318E+02  .337E+02  .335E+02  .400E+02  .371E+02  .361E+02
  .523E+02  .534E+02  .498E+02  .494E+02  .342E+02  .490E+02  .485E+02  .404E+02
  .370E+02  .693E+02  .695E+02  .415E+02  .333E+02  .570E+02  .456E+02  .604E+02
  .520E+02  .508E+02  .672E+02  .481E+02  .000E+00  .000E+00  .000E+00  .000E+00
  .000E+00  .000E+00  .000E+00  .000E+00  .000E+00  .000E+00  .000E+00  .000E+00
  .000E+00  .000E+00  .000E+00  .000E+00  .000E+00  .000E+00  .000E+00  .000E+00
  .000E+00  .000E+00  .000E+00  .000E+00  .000E+00  .000E+00  .000E+00  .000E+00
  .000E+00  .000E+00  .000E+00  .000E+00
  .301E+02  .301E+02  .301E+02  .301E+02  .301E+02  .301E+02  .300E+02  .301E+02
  .300E+02  .300E+02  .301E+02  .301E+02  .301E+02  .301E+02  .307E+02  .299E+02
  .300E+02  .316E+02  .316E+02  .312E+02  .306E+02  .306E+02  .300E+02  .300E+02
  .301E+02  .308E+02  .298E+02  .301E+02  .303E+02  .308E+02  .309E+02  .318E+02
  .312E+02  .306E+02  .303E+02  .300E+02  .311E+02  .304E+02  .303E+02  .311E+02
  .311E+02  .300E+02  .298E+02  .309E+02  .336E+02  .394E+02  .373E+02  .367E+02
  .525E+02  .409E+02  .495E+02  .497E+02  .344E+02  .493E+02  .488E+02  .355E+02
  .367E+02  .697E+02  .337E+02  .337E+02  .337E+02  .301E+02  .301E+02  .301E+02
  .301E+02  .301E+02  .301E+02  .301E+02  .000E+00  .000E+00  .000E+00  .000E+00
  .000E+00  .000E+00  .000E+00  .000E+00  .000E+00  .000E+00  .000E+00  .000E+00
  .000E+00  .000E+00  .000E+00  .000E+00  .000E+00  .000E+00  .000E+00  .000E+00
  .000E+00  .000E+00  .000E+00  .000E+00  .000E+00  .000E+00  .000E+00  .000E+00
  .000E+00  .000E+00  .000E+00  .000E+00
  .300E+02  .300E+02  .300E+02  .300E+02  .300E+02  .300E+02  .300E+02  .301E+02
  .300E+02  .302E+02  .302E+02  .307E+02  .307E+02  .307E+02  .300E+02  .300E+02
  .302E+02  .302E+02  .300E+02  .300E+02  .300E+02  .302E+02  .300E+02  .300E+02
  .300E+02  .302E+02  .298E+02  .300E+02  .302E+02  .307E+02  .309E+02  .317E+02
  .313E+02  .305E+02  .303E+02  .313E+02  .312E+02  .303E+02  .304E+02  .312E+02
  .318E+02  .299E+02  .318E+02  .337E+02  .335E+02  .400E+02  .371E+02  .361E+02
  .523E+02  .534E+02  .498E+02  .494E+02  .341E+02  .490E+02  .485E+02  .404E+02
  .370E+02  .693E+02  .695E+02  .415E+02  .333E+02  .570E+02  .456E+02  .604E+02
  .520E+02  .508E+02  .672E+02  .481E+02  .000E+00  .000E+00  .000E+00  .000E+00
  .000E+00  .000E+00  .000E+00  .000E+00  .000E+00  .000E+00  .000E+00  .000E+00
  .000E+00  .000E+00  .000E+00  .000E+00  .000E+00  .000E+00  .000E+00  .000E+00
  .000E+00  .000E+00  .000E+00  .000E+00  .000E+00  .000E+00  .000E+00  .000E+00
  .000E+00  .000E+00  .000E+00  .000E+00
Damping =  .05. Data of Sd,Sv,Sa,Pssv,ttSd,ttSv,ttSa :
  .615E-03  .677E-03  .744E-03  .817E-03  .894E-03  .973E-03  .120E-02  .140E-02
