Response and Fourier amplitude spectra (68 periods,  .04 -  3.4 sec)   for      
Corrected accelerogram   47796-M0115-07303.01       Chan  8: 360 Deg     from   
Uncorrected Accelerogram Data             Processed: 11/09/07, CDMG  ce47796d   
Record of Tue Oct 30, 2007 20:04:52.0 PDT             (Avol1 v7.5 7/07 CSMIP)   
CSMIP Preliminary Processing            (Origin:  To be determined)             
47796-M0115-07303.01                 Start time: 10/31/07, 03:04:52.0 UTC (GPS) 
Station No. 47796   36.697N, 121.632W    MtWtny  s/n  115 (15 Channels)         
Salinas - 3-story County Hospital         CGS                                   
Chan  8: 360 DegR                   Location: 3rd Floor: Near East End          
Record of Tue Oct 30, 2007 20:04:52.0 PDT    Tue Oct 30, 2007 20:04:52.0 PDT    
Hypocenter:  To be determined.               ML:  To be determined.
Instr Period =  .0200 sec,  Damping =  .700,  Sensitivity =  .63  v/g  (Nominal)
                        Record length = 76.000 sec.
                                     Uncor Max  =   .026 g , at  30.675 sec.
RMS accel of (uncor) record  =        .   Chn. metadata effective date: 01/01/04
Accelerogram bandpass filtered with 3 dB pts at   .30 and 40.00 cyc/sec
                 instrument- and baseline-corrected





Record of Tue Oct 30, 2007 20:04:52.0 PDT    Tue Oct 30, 2007 20:04:52.0 PDT

47796-M0115-07303.01      Salinas - 3-story County Hospital   Chan  8: 360 Deg

47796-M0115-07303.01      Salinas - 3-story County Hospital   Chan  8: 360 Deg

Units for spectra are inches and sec, except Sa is in fraction of g.

    8  100    8   18   15  200    1    3    1   24   13  115    047796    2    0
    3    4   52    0  304   10   31 2007   10    3  36015200   41   33   76   26
15200    0   50    3  115    1    1  760    2    0    0    0    0    0    0    0
    0    4    0    015200    1  220    1   18    4   76   33    0    0    015200
    315200   34   68    5   15    5    0    0    0   15    0    0    3    0    2
    2    2    4    0   72   99    0   32   32    0    1    1    0    0    0    0
    1    1   40    0
      .020      .700    76.000      .003      .000   625.000      .026    30.675
    50.000      .298      .477      .000     5.000      .000      .000      .000
     2.500    13.417     2.500  -999.000    25.000    30.000      .000      .005
     -.006     -.011     2.000    15.000    36.697  -121.632      .048      .915
    18.902     -.055      .032    26.000    25.800    45.700    12.800   106.340
     1.000    -1.641     7.000      .000      .000      .000      .000      .000
     3.000     7.500     4.600   980.665      .005    76.000     7.958      .000
      .000    40.000      .000    76.000      .005      .303      .000      .000
    30.675    25.392    30.755     1.582    33.325     -.169      .000      .303
    40.000      .005      .005      .000      .005      .120      .000      .000
      .158      .300      .044      .146      .024      .002      .000      .000
      .000      .000      .000      .000      .000      .000      .000      .000
      .000      .000      .000      .000
      .000      .020      .050      .100      .200
      .040      .042      .044      .046      .048      .050      .055      .060
      .065      .070      .075      .080      .085      .090      .095      .100
      .110      .120      .130      .140      .150      .160      .170      .180
      .190      .200      .220      .240      .260      .280      .300      .320
      .340      .360      .380      .400      .420      .440      .460      .480
      .500      .550      .600      .650      .700      .750      .800      .850
      .900      .950     1.000     1.100     1.200     1.300     1.400     1.500
     1.600     1.700     1.800     1.900     2.000     2.200     2.400     2.600
     2.800     3.000     3.200     3.400      .000      .000      .000      .000
      .000      .000      .000      .000      .000      .000      .000      .000
      .000      .000      .000      .000      .000      .000      .000      .000
      .000      .000      .000      .000      .000      .000      .000      .000
      .000      .000      .000      .000
Fourier amplitude spectra in in/sec.
  .760E-02  .118E-01  .843E-02  .860E-02  .159E-01  .707E-02  .817E-02  .101E-02
  .438E-01  .316E-01  .852E-01  .977E-01  .308E-01  .112E+00  .115E-01  .959E-01
  .944E-01  .402E+00  .954E+00  .273E+00  .891E-01  .139E+00  .682E-01  .613E-01
  .698E-01  .101E+00  .294E+00  .836E+00  .152E+01  .193E+01  .970E+01  .947E+01
  .706E+01  .368E+01  .368E+01  .707E+00  .172E+01  .101E+01  .115E+01  .265E+01
  .254E+01  .193E+01  .123E+00  .351E+01  .535E+00  .382E+01  .337E+01  .525E+01
  .442E+01  .315E+01  .461E+01  .197E+01  .177E+01  .189E+01  .230E+01  .232E+01
  .727E+00  .189E+01  .144E+01  .103E+01  .781E+00  .460E+00  .136E+01  .100E+01
  .149E+00  .343E+00  .519E+00  .570E+00  .000E+00  .000E+00  .000E+00  .000E+00
  .000E+00  .000E+00  .000E+00  .000E+00  .000E+00  .000E+00  .000E+00  .000E+00
  .000E+00  .000E+00  .000E+00  .000E+00  .000E+00  .000E+00  .000E+00  .000E+00
  .000E+00  .000E+00  .000E+00  .000E+00  .000E+00  .000E+00  .000E+00  .000E+00
  .000E+00  .000E+00  .000E+00  .000E+00
Damping =  .00. Data of Sd,Sv,Sa,Pssv,ttSd,ttSv,ttSa :
  .425E-03  .487E-03  .496E-03  .593E-03  .685E-03  .765E-03  .826E-03  .940E-03
  .148E-02  .167E-02  .221E-02  .289E-02  .286E-02  .309E-02  .337E-02  .431E-02
  .405E-02  .112E-01  .227E-01  .105E-01  .752E-02  .103E-01  .119E-01  .119E-01
  .163E-01  .192E-01  .265E-01  .564E-01  .900E-01  .152E+00  .524E+00  .494E+00
  .400E+00  .274E+00  .238E+00  .127E+00  .135E+00  .146E+00  .143E+00  .233E+00
  .281E+00  .187E+00  .131E+00  .395E+00  .234E+00  .516E+00  .521E+00  .764E+00
  .695E+00  .507E+00  .844E+00  .561E+00  .364E+00  .490E+00  .646E+00  .579E+00
  .471E+00  .512E+00  .422E+00  .391E+00  .400E+00  .491E+00  .535E+00  .416E+00
  .207E+00  .263E+00  .267E+00  .362E+00  .000E+00  .000E+00  .000E+00  .000E+00
  .000E+00  .000E+00  .000E+00  .000E+00  .000E+00  .000E+00  .000E+00  .000E+00
  .000E+00  .000E+00  .000E+00  .000E+00  .000E+00  .000E+00  .000E+00  .000E+00
  .000E+00  .000E+00  .000E+00  .000E+00  .000E+00  .000E+00  .000E+00  .000E+00
  .000E+00  .000E+00  .000E+00  .000E+00
  .127E-01  .137E-01  .135E-01  .204E-01  .317E-01  .278E-01  .190E-01  .238E-01
  .630E-01  .619E-01  .101E+00  .127E+00  .119E+00  .136E+00  .116E+00  .160E+00
  .160E+00  .540E+00  .104E+01  .365E+00  .249E+00  .268E+00  .274E+00  .257E+00
  .345E+00  .428E+00  .588E+00  .130E+01  .210E+01  .322E+01  .108E+02  .965E+01
  .738E+01  .495E+01  .389E+01  .205E+01  .202E+01  .230E+01  .211E+01  .302E+01
  .349E+01  .210E+01  .139E+01  .380E+01  .215E+01  .423E+01  .411E+01  .562E+01
  .483E+01  .333E+01  .536E+01  .325E+01  .191E+01  .243E+01  .309E+01  .241E+01
  .203E+01  .189E+01  .154E+01  .149E+01  .130E+01  .149E+01  .154E+01  .102E+01
  .775E+00  .734E+00  .863E+00  .850E+00  .000E+00  .000E+00  .000E+00  .000E+00
  .000E+00  .000E+00  .000E+00  .000E+00  .000E+00  .000E+00  .000E+00  .000E+00
  .000E+00  .000E+00  .000E+00  .000E+00  .000E+00  .000E+00  .000E+00  .000E+00
  .000E+00  .000E+00  .000E+00  .000E+00  .000E+00  .000E+00  .000E+00  .000E+00
  .000E+00  .000E+00  .000E+00  .000E+00
  .272E-01  .283E-01  .262E-01  .287E-01  .304E-01  .313E-01  .279E-01  .267E-01
  .359E-01  .348E-01  .401E-01  .462E-01  .404E-01  .390E-01  .381E-01  .441E-01
  .342E-01  .796E-01  .138E+00  .546E-01  .342E-01  .412E-01  .421E-01  .376E-01
  .463E-01  .491E-01  .560E-01  .100E+00  .136E+00  .198E+00  .595E+00  .493E+00
  .354E+00  .216E+00  .168E+00  .813E-01  .782E-01  .772E-01  .690E-01  .103E+00
  .115E+00  .633E-01  .371E-01  .956E-01  .488E-01  .938E-01  .832E-01  .108E+00
  .878E-01  .575E-01  .863E-01  .474E-01  .258E-01  .296E-01  .337E-01  .263E-01
  .188E-01  .181E-01  .133E-01  .111E-01  .102E-01  .104E-01  .949E-02  .629E-02
  .270E-02  .299E-02  .267E-02  .320E-02  .000E+00  .000E+00  .000E+00  .000E+00
  .000E+00  .000E+00  .000E+00  .000E+00  .000E+00  .000E+00  .000E+00  .000E+00
  .000E+00  .000E+00  .000E+00  .000E+00  .000E+00  .000E+00  .000E+00  .000E+00
  .000E+00  .000E+00  .000E+00  .000E+00  .000E+00  .000E+00  .000E+00  .000E+00
  .000E+00  .000E+00  .000E+00  .000E+00
  .668E-01  .729E-01  .708E-01  .811E-01  .897E-01  .961E-01  .944E-01  .985E-01
  .143E+00  .149E+00  .185E+00  .227E+00  .211E+00  .216E+00  .223E+00  .271E+00
  .231E+00  .587E+00  .110E+01  .470E+00  .315E+00  .405E+00  .440E+00  .415E+00
  .541E+00  .603E+00  .757E+00  .148E+01  .218E+01  .340E+01  .110E+02  .970E+01
  .739E+01  .478E+01  .393E+01  .200E+01  .202E+01  .209E+01  .195E+01  .305E+01
  .353E+01  .214E+01  .137E+01  .382E+01  .210E+01  .432E+01  .409E+01  .565E+01
  .485E+01  .336E+01  .530E+01  .320E+01  .190E+01  .237E+01  .290E+01  .243E+01
  .185E+01  .189E+01  .147E+01  .129E+01  .126E+01  .140E+01  .140E+01  .100E+01
  .465E+00  .550E+00  .525E+00  .669E+00  .000E+00  .000E+00  .000E+00  .000E+00
  .000E+00  .000E+00  .000E+00  .000E+00  .000E+00  .000E+00  .000E+00  .000E+00
  .000E+00  .000E+00  .000E+00  .000E+00  .000E+00  .000E+00  .000E+00  .000E+00
  .000E+00  .000E+00  .000E+00  .000E+00  .000E+00  .000E+00  .000E+00  .000E+00
  .000E+00  .000E+00  .000E+00  .000E+00
  .300E+02  .307E+02  .300E+02  .307E+02  .300E+02  .307E+02  .307E+02  .307E+02
  .307E+02  .307E+02  .302E+02  .306E+02  .302E+02  .306E+02  .300E+02  .307E+02
  .307E+02  .316E+02  .345E+02  .316E+02  .297E+02  .307E+02  .300E+02  .302E+02
  .300E+02  .302E+02  .299E+02  .302E+02  .383E+02  .307E+02  .399E+02  .508E+02
  .484E+02  .314E+02  .529E+02  .313E+02  .340E+02  .305E+02  .304E+02  .602E+02
  .400E+02  .673E+02  .319E+02  .616E+02  .335E+02  .487E+02  .375E+02  .671E+02
  .528E+02  .721E+02  .508E+02  .499E+02  .701E+02  .491E+02  .485E+02  .729E+02
  .370E+02  .760E+02  .711E+02  .416E+02  .612E+02  .581E+02  .469E+02  .748E+02
  .520E+02  .508E+02  .672E+02  .598E+02  .000E+00  .000E+00  .000E+00  .000E+00
  .000E+00  .000E+00  .000E+00  .000E+00  .000E+00  .000E+00  .000E+00  .000E+00
  .000E+00  .000E+00  .000E+00  .000E+00  .000E+00  .000E+00  .000E+00  .000E+00
  .000E+00  .000E+00  .000E+00  .000E+00  .000E+00  .000E+00  .000E+00  .000E+00
  .000E+00  .000E+00  .000E+00  .000E+00
  .301E+02  .301E+02  .300E+02  .309E+02  .300E+02  .300E+02  .298E+02  .309E+02
  .313E+02  .300E+02  .316E+02  .307E+02  .301E+02  .311E+02  .298E+02  .311E+02
  .314E+02  .317E+02  .337E+02  .317E+02  .312E+02  .310E+02  .308E+02  .301E+02
  .301E+02  .301E+02  .298E+02  .301E+02  .384E+02  .308E+02  .400E+02  .509E+02
  .483E+02  .311E+02  .530E+02  .313E+02  .341E+02  .304E+02  .303E+02  .601E+02
  .401E+02  .674E+02  .317E+02  .614E+02  .336E+02  .488E+02  .373E+02  .669E+02
  .525E+02  .723E+02  .505E+02  .497E+02  .704E+02  .488E+02  .489E+02  .740E+02
  .367E+02  .755E+02  .716E+02  .488E+02  .607E+02  .576E+02  .488E+02  .650E+02
  .398E+02  .316E+02  .316E+02  .316E+02  .000E+00  .000E+00  .000E+00  .000E+00
  .000E+00  .000E+00  .000E+00  .000E+00  .000E+00  .000E+00  .000E+00  .000E+00
  .000E+00  .000E+00  .000E+00  .000E+00  .000E+00  .000E+00  .000E+00  .000E+00
  .000E+00  .000E+00  .000E+00  .000E+00  .000E+00  .000E+00  .000E+00  .000E+00
  .000E+00  .000E+00  .000E+00  .000E+00
  .300E+02  .307E+02  .300E+02  .307E+02  .300E+02  .307E+02  .307E+02  .307E+02
  .307E+02  .307E+02  .302E+02  .306E+02  .302E+02  .306E+02  .300E+02  .307E+02
  .307E+02  .316E+02  .345E+02  .316E+02  .297E+02  .307E+02  .300E+02  .302E+02
  .300E+02  .302E+02  .299E+02  .302E+02  .383E+02  .307E+02  .399E+02  .508E+02
  .484E+02  .314E+02  .529E+02  .313E+02  .340E+02  .305E+02  .304E+02  .602E+02
  .400E+02  .673E+02  .319E+02  .616E+02  .335E+02  .487E+02  .375E+02  .671E+02
  .528E+02  .721E+02  .508E+02  .499E+02  .701E+02  .491E+02  .485E+02  .729E+02
  .370E+02  .760E+02  .711E+02  .416E+02  .612E+02  .581E+02  .469E+02  .748E+02
  .520E+02  .508E+02  .672E+02  .598E+02  .000E+00  .000E+00  .000E+00  .000E+00
  .000E+00  .000E+00  .000E+00  .000E+00  .000E+00  .000E+00  .000E+00  .000E+00
  .000E+00  .000E+00  .000E+00  .000E+00  .000E+00  .000E+00  .000E+00  .000E+00
  .000E+00  .000E+00  .000E+00  .000E+00  .000E+00  .000E+00  .000E+00  .000E+00
  .000E+00  .000E+00  .000E+00  .000E+00
Damping =  .02. Data of Sd,Sv,Sa,Pssv,ttSd,ttSv,ttSa :
  .419E-03  .463E-03  .504E-03  .551E-03  .609E-03  .655E-03  .787E-03  .959E-03
  .116E-02  .135E-02  .157E-02  .180E-02  .204E-02  .239E-02  .291E-02  .329E-02
  .373E-02  .688E-02  .110E-01  .884E-02  .746E-02  .890E-02  .100E-01  .118E-01
  .148E-01  .181E-01  .249E-01  .467E-01  .807E-01  .132E+00  .218E+00  .239E+00
  .204E+00  .167E+00  .135E+00  .880E-01  .763E-01  .983E-01  .114E+00  .139E+00
  .161E+00  .127E+00  .117E+00  .152E+00  .182E+00  .260E+00  .308E+00  .268E+00
  .269E+00  .259E+00  .440E+00  .332E+00  .227E+00  .294E+00  .315E+00  .347E+00
  .323E+00  .269E+00  .247E+00  .272E+00  .263E+00  .269E+00  .341E+00  .251E+00
  .187E+00  .197E+00  .207E+00  .225E+00  .000E+00  .000E+00  .000E+00  .000E+00
  .000E+00  .000E+00  .000E+00  .000E+00  .000E+00  .000E+00  .000E+00  .000E+00
  .000E+00  .000E+00  .000E+00  .000E+00  .000E+00  .000E+00  .000E+00  .000E+00
  .000E+00  .000E+00  .000E+00  .000E+00  .000E+00  .000E+00  .000E+00  .000E+00
  .000E+00  .000E+00  .000E+00  .000E+00
  .101E-01  .116E-01  .121E-01  .130E-01  .135E-01  .159E-01  .176E-01  .201E-01
  .279E-01  .391E-01  .430E-01  .442E-01  .506E-01  .627E-01  .794E-01  .860E-01
  .138E+00  .325E+00  .449E+00  .308E+00  .254E+00  .206E+00  .230E+00  .262E+00
  .324E+00  .390E+00  .566E+00  .102E+01  .174E+01  .271E+01  .441E+01  .461E+01
  .379E+01  .308E+01  .243E+01  .145E+01  .132E+01  .155E+01  .177E+01  .198E+01
  .207E+01  .169E+01  .125E+01  .151E+01  .165E+01  .201E+01  .248E+01  .206E+01
  .187E+01  .171E+01  .279E+01  .199E+01  .143E+01  .159E+01  .157E+01  .146E+01
  .144E+01  .101E+01  .945E+00  .106E+01  .981E+00  .878E+00  .962E+00  .825E+00
  .724E+00  .739E+00  .822E+00  .818E+00  .000E+00  .000E+00  .000E+00  .000E+00
  .000E+00  .000E+00  .000E+00  .000E+00  .000E+00  .000E+00  .000E+00  .000E+00
  .000E+00  .000E+00  .000E+00  .000E+00  .000E+00  .000E+00  .000E+00  .000E+00
  .000E+00  .000E+00  .000E+00  .000E+00  .000E+00  .000E+00  .000E+00  .000E+00
  .000E+00  .000E+00  .000E+00  .000E+00
  .268E-01  .269E-01  .266E-01  .266E-01  .270E-01  .268E-01  .266E-01  .272E-01
  .281E-01  .281E-01  .285E-01  .288E-01  .288E-01  .302E-01  .330E-01  .337E-01
  .315E-01  .488E-01  .665E-01  .462E-01  .339E-01  .356E-01  .355E-01  .374E-01
  .420E-01  .462E-01  .527E-01  .830E-01  .122E+00  .172E+00  .248E+00  .239E+00
  .180E+00  .131E+00  .960E-01  .563E-01  .443E-01  .520E-01  .553E-01  .617E-01
  .657E-01  .430E-01  .333E-01  .368E-01  .380E-01  .473E-01  .493E-01  .380E-01
  .340E-01  .294E-01  .451E-01  .281E-01  .161E-01  .178E-01  .165E-01  .158E-01
  .129E-01  .953E-02  .780E-02  .771E-02  .675E-02  .568E-02  .607E-02  .381E-02
  .245E-02  .224E-02  .207E-02  .200E-02  .000E+00  .000E+00  .000E+00  .000E+00
  .000E+00  .000E+00  .000E+00  .000E+00  .000E+00  .000E+00  .000E+00  .000E+00
  .000E+00  .000E+00  .000E+00  .000E+00  .000E+00  .000E+00  .000E+00  .000E+00
  .000E+00  .000E+00  .000E+00  .000E+00  .000E+00  .000E+00  .000E+00  .000E+00
  .000E+00  .000E+00  .000E+00  .000E+00
  .658E-01  .693E-01  .719E-01  .752E-01  .797E-01  .823E-01  .899E-01  .100E+00
  .112E+00  .121E+00  .131E+00  .142E+00  .151E+00  .167E+00  .193E+00  .207E+00
  .213E+00  .360E+00  .530E+00  .397E+00  .312E+00  .349E+00  .371E+00  .414E+00
  .491E+00  .568E+00  .712E+00  .122E+01  .195E+01  .295E+01  .457E+01  .470E+01
  .376E+01  .291E+01  .224E+01  .138E+01  .114E+01  .140E+01  .156E+01  .182E+01
  .202E+01  .145E+01  .123E+01  .147E+01  .163E+01  .218E+01  .242E+01  .198E+01
  .188E+01  .171E+01  .277E+01  .190E+01  .119E+01  .142E+01  .141E+01  .145E+01
  .127E+01  .995E+00  .861E+00  .900E+00  .827E+00  .767E+00  .894E+00  .607E+00
  .420E+00  .413E+00  .407E+00  .416E+00  .000E+00  .000E+00  .000E+00  .000E+00
  .000E+00  .000E+00  .000E+00  .000E+00  .000E+00  .000E+00  .000E+00  .000E+00
  .000E+00  .000E+00  .000E+00  .000E+00  .000E+00  .000E+00  .000E+00  .000E+00
  .000E+00  .000E+00  .000E+00  .000E+00  .000E+00  .000E+00  .000E+00  .000E+00
  .000E+00  .000E+00  .000E+00  .000E+00
  .307E+02  .307E+02  .307E+02  .307E+02  .307E+02  .307E+02  .307E+02  .307E+02
  .307E+02  .300E+02  .302E+02  .306E+02  .307E+02  .307E+02  .307E+02  .307E+02
  .307E+02  .316E+02  .316E+02  .316E+02  .312E+02  .300E+02  .302E+02  .302E+02
  .300E+02  .302E+02  .299E+02  .300E+02  .302E+02  .307E+02  .309E+02  .317E+02
  .313E+02  .310E+02  .304E+02  .313E+02  .312E+02  .303E+02  .304E+02  .312E+02
  .318E+02  .299E+02  .318E+02  .337E+02  .335E+02  .400E+02  .371E+02  .357E+02
  .523E+02  .534E+02  .498E+02  .494E+02  .341E+02  .356E+02  .485E+02  .404E+02
  .370E+02  .693E+02  .695E+02  .415E+02  .333E+02  .570E+02  .456E+02  .604E+02
  .520E+02  .508E+02  .672E+02  .481E+02  .000E+00  .000E+00  .000E+00  .000E+00
  .000E+00  .000E+00  .000E+00  .000E+00  .000E+00  .000E+00  .000E+00  .000E+00
  .000E+00  .000E+00  .000E+00  .000E+00  .000E+00  .000E+00  .000E+00  .000E+00
  .000E+00  .000E+00  .000E+00  .000E+00  .000E+00  .000E+00  .000E+00  .000E+00
  .000E+00  .000E+00  .000E+00  .000E+00
  .301E+02  .301E+02  .301E+02  .301E+02  .301E+02  .300E+02  .300E+02  .300E+02
  .298E+02  .300E+02  .301E+02  .307E+02  .311E+02  .309E+02  .309E+02  .311E+02
  .314E+02  .316E+02  .316E+02  .314E+02  .312E+02  .301E+02  .301E+02  .301E+02
  .301E+02  .301E+02  .298E+02  .301E+02  .303E+02  .308E+02  .309E+02  .318E+02
  .314E+02  .309E+02  .303E+02  .300E+02  .311E+02  .304E+02  .303E+02  .311E+02
  .311E+02  .300E+02  .317E+02  .335E+02  .336E+02  .402E+02  .373E+02  .367E+02
  .525E+02  .532E+02  .495E+02  .497E+02  .344E+02  .493E+02  .488E+02  .415E+02
  .351E+02  .697E+02  .691E+02  .337E+02  .337E+02  .477E+02  .403E+02  .315E+02
  .316E+02  .316E+02  .316E+02  .316E+02  .000E+00  .000E+00  .000E+00  .000E+00
  .000E+00  .000E+00  .000E+00  .000E+00  .000E+00  .000E+00  .000E+00  .000E+00
  .000E+00  .000E+00  .000E+00  .000E+00  .000E+00  .000E+00  .000E+00  .000E+00
  .000E+00  .000E+00  .000E+00  .000E+00  .000E+00  .000E+00  .000E+00  .000E+00
  .000E+00  .000E+00  .000E+00  .000E+00
  .307E+02  .307E+02  .307E+02  .307E+02  .307E+02  .307E+02  .307E+02  .307E+02
  .307E+02  .300E+02  .302E+02  .306E+02  .307E+02  .307E+02  .307E+02  .307E+02
  .307E+02  .316E+02  .316E+02  .316E+02  .312E+02  .300E+02  .302E+02  .302E+02
  .300E+02  .302E+02  .299E+02  .300E+02  .302E+02  .307E+02  .309E+02  .317E+02
  .313E+02  .310E+02  .303E+02  .313E+02  .312E+02  .303E+02  .304E+02  .312E+02
  .318E+02  .299E+02  .318E+02  .337E+02  .335E+02  .400E+02  .371E+02  .356E+02
  .523E+02  .534E+02  .498E+02  .494E+02  .341E+02  .356E+02  .485E+02  .404E+02
  .370E+02  .693E+02  .695E+02  .415E+02  .333E+02  .570E+02  .456E+02  .604E+02
  .520E+02  .508E+02  .672E+02  .480E+02  .000E+00  .000E+00  .000E+00  .000E+00
  .000E+00  .000E+00  .000E+00  .000E+00  .000E+00  .000E+00  .000E+00  .000E+00
  .000E+00  .000E+00  .000E+00  .000E+00  .000E+00  .000E+00  .000E+00  .000E+00
  .000E+00  .000E+00  .000E+00  .000E+00  .000E+00  .000E+00  .000E+00  .000E+00
  .000E+00  .000E+00  .000E+00  .000E+00
Damping =  .05. Data of Sd,Sv,Sa,Pssv,ttSd,ttSv,ttSa :
  .417E-03  .460E-03  .503E-03  .552E-03  .603E-03  .654E-03  .794E-03  .956E-03
