Response and Fourier amplitude spectra (68 periods,  .04 -  3.4 sec)   for      
Corrected accelerogram   47796-M0115-07303.01       Chan  1:  Up         from   
Uncorrected Accelerogram Data             Processed: 11/09/07, CDMG  ce47796d   
Record of Tue Oct 30, 2007 20:04:52.0 PDT             (Avol1 v7.5 7/07 CSMIP)   
CSMIP Preliminary Processing            (Origin:  To be determined)             
47796-M0115-07303.01                 Start time: 10/31/07, 03:04:52.0 UTC (GPS) 
Station No. 47796   36.697N, 121.632W    MtWtny  s/n  115 (15 Channels)         
Salinas - 3-story County Hospital         CGS                                   
Chan  1:  Up                        Location: 1st Floor: Near Center            
Record of Tue Oct 30, 2007 20:04:52.0 PDT    Tue Oct 30, 2007 20:04:52.0 PDT    
Hypocenter:  To be determined.               ML:  To be determined.
Instr Period =  .0200 sec,  Damping =  .700,  Sensitivity =  .63  v/g  (Nominal)
                        Record length = 76.000 sec.
                                     Uncor Max  =  -.007 g , at  34.115 sec.
RMS accel of (uncor) record  =        .   Chn. metadata effective date: 01/01/04
Accelerogram bandpass filtered with 3 dB pts at   .30 and 40.00 cyc/sec
                 instrument- and baseline-corrected





Record of Tue Oct 30, 2007 20:04:52.0 PDT    Tue Oct 30, 2007 20:04:52.0 PDT

47796-M0115-07303.01      Salinas - 3-story County Hospital   Chan  1:  Up

47796-M0115-07303.01      Salinas - 3-story County Hospital   Chan  1:  Up

Units for spectra are inches and sec, except Sa is in fraction of g.

    1  100    1   18   15  200    1    3    1   24   13  115    047796    2    0
    3    4   52    0  304   10   31 2007   10    3  50015200   41   33   76   26
15200    1   50    3  115    1    1  760    2    0    0    0    0    0    0    0
    0    4    0    015200    1  220    1   18    4   76   33    0    0    015200
    315200   34   68    5   15    5    0    0    0   15    0    0    3    0    2
    2    2    4    0   72   99    0   32   32    0    1    1    0    0    0    0
    1    1    5    0
      .020      .700    76.000      .001      .000   625.000     -.007    34.115
    50.000      .298      .477      .000     5.000      .000      .000      .000
     2.500    33.184     2.500  -999.000    25.000    30.000      .000      .003
     -.011     -.014     2.000    15.000    36.697  -121.632      .598      .760
     1.271     -.099      .070    26.000    25.800    45.700    12.800   106.340
     1.000    -1.022     7.000      .000      .000      .000      .000      .000
     3.000     7.500     4.600   980.665      .005    76.000     7.958      .000
      .000    40.000      .000    76.000      .005      .303      .000      .000
    34.105    -6.172    34.210     -.563    35.565      .076      .000      .303
    40.000      .005      .005      .000      .005      .051      .000      .000
      .027      .170      .015      .013      .008      .001      .000      .000
      .000      .000      .000      .000      .000      .000      .000      .000
      .000      .000      .000      .000
      .000      .020      .050      .100      .200
      .040      .042      .044      .046      .048      .050      .055      .060
      .065      .070      .075      .080      .085      .090      .095      .100
      .110      .120      .130      .140      .150      .160      .170      .180
      .190      .200      .220      .240      .260      .280      .300      .320
      .340      .360      .380      .400      .420      .440      .460      .480
      .500      .550      .600      .650      .700      .750      .800      .850
      .900      .950     1.000     1.100     1.200     1.300     1.400     1.500
     1.600     1.700     1.800     1.900     2.000     2.200     2.400     2.600
     2.800     3.000     3.200     3.400      .000      .000      .000      .000
      .000      .000      .000      .000      .000      .000      .000      .000
      .000      .000      .000      .000      .000      .000      .000      .000
      .000      .000      .000      .000      .000      .000      .000      .000
      .000      .000      .000      .000
Fourier amplitude spectra in in/sec.
  .580E-01  .926E-02  .532E-01  .451E-01  .465E-01  .336E-01  .425E-01  .253E-01
  .127E+00  .136E+00  .185E+00  .249E+00  .165E+00  .186E+00  .282E+00  .357E+00
  .158E+00  .381E+00  .823E-01  .448E+00  .744E-01  .658E+00  .106E+01  .109E+00
  .621E+00  .537E+00  .903E+00  .465E+00  .921E+00  .243E+00  .594E+00  .736E+00
  .231E+00  .791E+00  .872E+00  .465E+00  .407E+00  .617E+00  .105E+01  .143E+01
  .122E+01  .247E+01  .161E+01  .140E+00  .118E+01  .936E+00  .147E+01  .209E+01
  .782E+00  .123E+01  .120E+01  .754E+00  .105E+01  .130E+01  .112E+01  .125E+01
  .101E+01  .514E+00  .799E+00  .545E+00  .437E+00  .691E+00  .515E+00  .251E+00
  .183E-01  .656E-01  .922E-01  .502E-01  .000E+00  .000E+00  .000E+00  .000E+00
  .000E+00  .000E+00  .000E+00  .000E+00  .000E+00  .000E+00  .000E+00  .000E+00
  .000E+00  .000E+00  .000E+00  .000E+00  .000E+00  .000E+00  .000E+00  .000E+00
  .000E+00  .000E+00  .000E+00  .000E+00  .000E+00  .000E+00  .000E+00  .000E+00
  .000E+00  .000E+00  .000E+00  .000E+00
Damping =  .00. Data of Sd,Sv,Sa,Pssv,ttSd,ttSv,ttSa :
  .469E-03  .189E-03  .500E-03  .457E-03  .526E-03  .415E-03  .562E-03  .728E-03
  .147E-02  .179E-02  .234E-02  .361E-02  .303E-02  .312E-02  .534E-02  .713E-02
  .458E-02  .821E-02  .713E-02  .107E-01  .995E-02  .196E-01  .365E-01  .193E-01
  .198E-01  .212E-01  .372E-01  .233E-01  .395E-01  .193E-01  .299E-01  .486E-01
  .298E-01  .590E-01  .604E-01  .339E-01  .408E-01  .517E-01  .820E-01  .127E+00
  .143E+00  .224E+00  .158E+00  .847E-01  .142E+00  .180E+00  .331E+00  .288E+00
  .189E+00  .241E+00  .194E+00  .161E+00  .210E+00  .321E+00  .250E+00  .298E+00
  .257E+00  .216E+00  .240E+00  .182E+00  .172E+00  .283E+00  .200E+00  .107E+00
  .712E-01  .558E-01  .759E-01  .523E-01  .000E+00  .000E+00  .000E+00  .000E+00
  .000E+00  .000E+00  .000E+00  .000E+00  .000E+00  .000E+00  .000E+00  .000E+00
  .000E+00  .000E+00  .000E+00  .000E+00  .000E+00  .000E+00  .000E+00  .000E+00
  .000E+00  .000E+00  .000E+00  .000E+00  .000E+00  .000E+00  .000E+00  .000E+00
  .000E+00  .000E+00  .000E+00  .000E+00
  .637E-01  .230E-01  .575E-01  .511E-01  .592E-01  .384E-01  .488E-01  .679E-01
  .131E+00  .146E+00  .189E+00  .278E+00  .216E+00  .207E+00  .339E+00  .438E+00
  .253E+00  .421E+00  .333E+00  .465E+00  .395E+00  .742E+00  .133E+01  .677E+00
  .624E+00  .649E+00  .104E+01  .590E+00  .935E+00  .407E+00  .600E+00  .916E+00
  .521E+00  .969E+00  .986E+00  .507E+00  .582E+00  .727E+00  .111E+01  .166E+01
  .179E+01  .256E+01  .166E+01  .833E+00  .128E+01  .159E+01  .264E+01  .212E+01
  .134E+01  .168E+01  .122E+01  .945E+00  .110E+01  .159E+01  .122E+01  .125E+01
  .101E+01  .833E+00  .854E+00  .623E+00  .573E+00  .814E+00  .558E+00  .370E+00
  .265E+00  .304E+00  .246E+00  .251E+00  .000E+00  .000E+00  .000E+00  .000E+00
  .000E+00  .000E+00  .000E+00  .000E+00  .000E+00  .000E+00  .000E+00  .000E+00
  .000E+00  .000E+00  .000E+00  .000E+00  .000E+00  .000E+00  .000E+00  .000E+00
  .000E+00  .000E+00  .000E+00  .000E+00  .000E+00  .000E+00  .000E+00  .000E+00
  .000E+00  .000E+00  .000E+00  .000E+00
  .300E-01  .110E-01  .264E-01  .221E-01  .233E-01  .170E-01  .190E-01  .207E-01
  .356E-01  .374E-01  .425E-01  .578E-01  .429E-01  .394E-01  .605E-01  .729E-01
  .387E-01  .583E-01  .431E-01  .556E-01  .452E-01  .782E-01  .129E+00  .609E-01
  .560E-01  .542E-01  .785E-01  .414E-01  .598E-01  .252E-01  .340E-01  .486E-01
  .264E-01  .466E-01  .428E-01  .217E-01  .236E-01  .273E-01  .396E-01  .566E-01
  .587E-01  .759E-01  .449E-01  .205E-01  .296E-01  .328E-01  .529E-01  .407E-01
  .239E-01  .273E-01  .198E-01  .136E-01  .149E-01  .194E-01  .131E-01  .136E-01
  .103E-01  .763E-02  .756E-02  .515E-02  .439E-02  .597E-02  .355E-02  .162E-02
  .929E-03  .634E-03  .758E-03  .463E-03  .000E+00  .000E+00  .000E+00  .000E+00
  .000E+00  .000E+00  .000E+00  .000E+00  .000E+00  .000E+00  .000E+00  .000E+00
  .000E+00  .000E+00  .000E+00  .000E+00  .000E+00  .000E+00  .000E+00  .000E+00
  .000E+00  .000E+00  .000E+00  .000E+00  .000E+00  .000E+00  .000E+00  .000E+00
  .000E+00  .000E+00  .000E+00  .000E+00
  .736E-01  .283E-01  .713E-01  .625E-01  .688E-01  .521E-01  .642E-01  .762E-01
  .142E+00  .161E+00  .196E+00  .284E+00  .224E+00  .218E+00  .353E+00  .448E+00
  .262E+00  .430E+00  .345E+00  .478E+00  .417E+00  .769E+00  .135E+01  .673E+00
  .654E+00  .666E+00  .106E+01  .610E+00  .955E+00  .433E+00  .627E+00  .954E+00
  .551E+00  .103E+01  .998E+00  .533E+00  .610E+00  .738E+00  .112E+01  .167E+01
  .180E+01  .256E+01  .166E+01  .818E+00  .127E+01  .151E+01  .260E+01  .213E+01
  .132E+01  .159E+01  .122E+01  .918E+00  .110E+01  .155E+01  .112E+01  .125E+01
  .101E+01  .797E+00  .836E+00  .601E+00  .540E+00  .807E+00  .524E+00  .259E+00
  .160E+00  .117E+00  .149E+00  .967E-01  .000E+00  .000E+00  .000E+00  .000E+00
  .000E+00  .000E+00  .000E+00  .000E+00  .000E+00  .000E+00  .000E+00  .000E+00
  .000E+00  .000E+00  .000E+00  .000E+00  .000E+00  .000E+00  .000E+00  .000E+00
  .000E+00  .000E+00  .000E+00  .000E+00  .000E+00  .000E+00  .000E+00  .000E+00
  .000E+00  .000E+00  .000E+00  .000E+00
  .341E+02  .216E+02  .341E+02  .341E+02  .278E+02  .341E+02  .341E+02  .197E+02
  .387E+02  .376E+02  .352E+02  .309E+02  .289E+02  .387E+02  .323E+02  .229E+02
  .296E+02  .282E+02  .294E+02  .324E+02  .270E+02  .323E+02  .237E+02  .195E+02
  .389E+02  .402E+02  .325E+02  .341E+02  .435E+02  .341E+02  .392E+02  .344E+02
  .312E+02  .343E+02  .509E+02  .427E+02  .384E+02  .553E+02  .552E+02  .436E+02
  .375E+02  .525E+02  .718E+02  .364E+02  .456E+02  .383E+02  .429E+02  .741E+02
  .552E+02  .348E+02  .724E+02  .415E+02  .740E+02  .663E+02  .758E+02  .761E+02
  .761E+02  .613E+02  .423E+02  .734E+02  .654E+02  .648E+02  .711E+02  .740E+02
  .642E+02  .319E+02  .693E+02  .300E+02  .000E+00  .000E+00  .000E+00  .000E+00
  .000E+00  .000E+00  .000E+00  .000E+00  .000E+00  .000E+00  .000E+00  .000E+00
  .000E+00  .000E+00  .000E+00  .000E+00  .000E+00  .000E+00  .000E+00  .000E+00
  .000E+00  .000E+00  .000E+00  .000E+00  .000E+00  .000E+00  .000E+00  .000E+00
  .000E+00  .000E+00  .000E+00  .000E+00
  .284E+02  .216E+02  .278E+02  .278E+02  .256E+02  .306E+02  .340E+02  .197E+02
  .316E+02  .436E+02  .540E+02  .308E+02  .287E+02  .367E+02  .323E+02  .229E+02
  .297E+02  .294E+02  .294E+02  .339E+02  .270E+02  .322E+02  .237E+02  .195E+02
  .389E+02  .401E+02  .324E+02  .300E+02  .414E+02  .296E+02  .431E+02  .345E+02
  .313E+02  .344E+02  .481E+02  .426E+02  .380E+02  .554E+02  .551E+02  .439E+02
  .374E+02  .526E+02  .458E+02  .479E+02  .458E+02  .385E+02  .431E+02  .739E+02
  .550E+02  .346E+02  .727E+02  .413E+02  .725E+02  .666E+02  .388E+02  .765E+02
  .765E+02  .617E+02  .426E+02  .730E+02  .659E+02  .643E+02  .716E+02  .342E+02
  .342E+02  .342E+02  .342E+02  .377E+02  .000E+00  .000E+00  .000E+00  .000E+00
  .000E+00  .000E+00  .000E+00  .000E+00  .000E+00  .000E+00  .000E+00  .000E+00
  .000E+00  .000E+00  .000E+00  .000E+00  .000E+00  .000E+00  .000E+00  .000E+00
  .000E+00  .000E+00  .000E+00  .000E+00  .000E+00  .000E+00  .000E+00  .000E+00
  .000E+00  .000E+00  .000E+00  .000E+00
  .341E+02  .216E+02  .341E+02  .341E+02  .278E+02  .341E+02  .341E+02  .197E+02
  .387E+02  .376E+02  .352E+02  .309E+02  .289E+02  .387E+02  .323E+02  .229E+02
  .296E+02  .282E+02  .294E+02  .324E+02  .270E+02  .323E+02  .237E+02  .195E+02
  .389E+02  .402E+02  .325E+02  .341E+02  .435E+02  .341E+02  .392E+02  .344E+02
  .312E+02  .343E+02  .509E+02  .427E+02  .384E+02  .553E+02  .552E+02  .436E+02
  .375E+02  .525E+02  .718E+02  .364E+02  .456E+02  .383E+02  .429E+02  .741E+02
  .552E+02  .348E+02  .724E+02  .415E+02  .740E+02  .663E+02  .758E+02  .761E+02
  .761E+02  .613E+02  .423E+02  .734E+02  .654E+02  .648E+02  .711E+02  .740E+02
  .642E+02  .319E+02  .693E+02  .300E+02  .000E+00  .000E+00  .000E+00  .000E+00
  .000E+00  .000E+00  .000E+00  .000E+00  .000E+00  .000E+00  .000E+00  .000E+00
  .000E+00  .000E+00  .000E+00  .000E+00  .000E+00  .000E+00  .000E+00  .000E+00
  .000E+00  .000E+00  .000E+00  .000E+00  .000E+00  .000E+00  .000E+00  .000E+00
  .000E+00  .000E+00  .000E+00  .000E+00
Damping =  .02. Data of Sd,Sv,Sa,Pssv,ttSd,ttSv,ttSa :
  .116E-03  .131E-03  .142E-03  .164E-03  .155E-03  .168E-03  .266E-03  .387E-03
  .513E-03  .666E-03  .102E-02  .101E-02  .116E-02  .121E-02  .206E-02  .279E-02
  .231E-02  .273E-02  .329E-02  .355E-02  .473E-02  .752E-02  .121E-01  .124E-01
  .821E-02  .739E-02  .795E-02  .143E-01  .112E-01  .981E-02  .171E-01  .227E-01
  .176E-01  .305E-01  .257E-01  .204E-01  .212E-01  .368E-01  .440E-01  .667E-01
  .787E-01  .782E-01  .763E-01  .710E-01  .774E-01  .116E+00  .153E+00  .168E+00
  .132E+00  .136E+00  .112E+00  .946E-01  .857E-01  .139E+00  .149E+00  .118E+00
  .129E+00  .114E+00  .140E+00  .115E+00  .103E+00  .137E+00  .122E+00  .786E-01
  .621E-01  .499E-01  .509E-01  .479E-01  .000E+00  .000E+00  .000E+00  .000E+00
  .000E+00  .000E+00  .000E+00  .000E+00  .000E+00  .000E+00  .000E+00  .000E+00
  .000E+00  .000E+00  .000E+00  .000E+00  .000E+00  .000E+00  .000E+00  .000E+00
  .000E+00  .000E+00  .000E+00  .000E+00  .000E+00  .000E+00  .000E+00  .000E+00
  .000E+00  .000E+00  .000E+00  .000E+00
  .113E-01  .119E-01  .120E-01  .162E-01  .136E-01  .137E-01  .251E-01  .348E-01
  .397E-01  .486E-01  .748E-01  .699E-01  .749E-01  .662E-01  .132E+00  .173E+00
  .122E+00  .133E+00  .142E+00  .152E+00  .181E+00  .280E+00  .452E+00  .446E+00
  .277E+00  .249E+00  .221E+00  .357E+00  .254E+00  .224E+00  .331E+00  .435E+00
  .308E+00  .471E+00  .378E+00  .291E+00  .291E+00  .472E+00  .562E+00  .808E+00
  .940E+00  .893E+00  .828E+00  .658E+00  .703E+00  .977E+00  .121E+01  .126E+01
  .994E+00  .986E+00  .796E+00  .553E+00  .474E+00  .655E+00  .808E+00  .548E+00
  .638E+00  .576E+00  .566E+00  .522E+00  .413E+00  .426E+00  .405E+00  .326E+00
  .275E+00  .286E+00  .250E+00  .235E+00  .000E+00  .000E+00  .000E+00  .000E+00
  .000E+00  .000E+00  .000E+00  .000E+00  .000E+00  .000E+00  .000E+00  .000E+00
  .000E+00  .000E+00  .000E+00  .000E+00  .000E+00  .000E+00  .000E+00  .000E+00
  .000E+00  .000E+00  .000E+00  .000E+00  .000E+00  .000E+00  .000E+00  .000E+00
  .000E+00  .000E+00  .000E+00  .000E+00
  .745E-02  .759E-02  .752E-02  .793E-02  .689E-02  .691E-02  .897E-02  .109E-01
  .124E-01  .139E-01  .185E-01  .162E-01  .164E-01  .153E-01  .235E-01  .287E-01
  .196E-01  .193E-01  .200E-01  .186E-01  .215E-01  .301E-01  .427E-01  .392E-01
  .232E-01  .189E-01  .168E-01  .255E-01  .169E-01  .128E-01  .194E-01  .227E-01
  .155E-01  .241E-01  .182E-01  .130E-01  .123E-01  .194E-01  .213E-01  .296E-01
  .322E-01  .265E-01  .217E-01  .172E-01  .162E-01  .210E-01  .244E-01  .238E-01
  .166E-01  .155E-01  .115E-01  .800E-02  .609E-02  .843E-02  .780E-02  .537E-02
  .517E-02  .405E-02  .444E-02  .325E-02  .263E-02  .289E-02  .217E-02  .119E-02
  .811E-03  .569E-03  .512E-03  .426E-03  .000E+00  .000E+00  .000E+00  .000E+00
  .000E+00  .000E+00  .000E+00  .000E+00  .000E+00  .000E+00  .000E+00  .000E+00
  .000E+00  .000E+00  .000E+00  .000E+00  .000E+00  .000E+00  .000E+00  .000E+00
  .000E+00  .000E+00  .000E+00  .000E+00  .000E+00  .000E+00  .000E+00  .000E+00
  .000E+00  .000E+00  .000E+00  .000E+00
  .183E-01  .195E-01  .203E-01  .224E-01  .203E-01  .211E-01  .303E-01  .405E-01
  .496E-01  .598E-01  .854E-01  .795E-01  .859E-01  .845E-01  .136E+00  .176E+00
  .132E+00  .143E+00  .159E+00  .159E+00  .198E+00  .295E+00  .445E+00  .432E+00
  .271E+00  .232E+00  .227E+00  .375E+00  .270E+00  .220E+00  .358E+00  .446E+00
  .325E+00  .532E+00  .425E+00  .321E+00  .318E+00  .525E+00  .601E+00  .873E+00
  .989E+00  .893E+00  .799E+00  .686E+00  .694E+00  .968E+00  .120E+01  .124E+01
  .919E+00  .901E+00  .705E+00  .540E+00  .449E+00  .673E+00  .670E+00  .494E+00
  .508E+00  .422E+00  .490E+00  .379E+00  .323E+00  .391E+00  .319E+00  .190E+00
  .139E+00  .105E+00  .100E+00  .886E-01  .000E+00  .000E+00  .000E+00  .000E+00
  .000E+00  .000E+00  .000E+00  .000E+00  .000E+00  .000E+00  .000E+00  .000E+00
  .000E+00  .000E+00  .000E+00  .000E+00  .000E+00  .000E+00  .000E+00  .000E+00
  .000E+00  .000E+00  .000E+00  .000E+00  .000E+00  .000E+00  .000E+00  .000E+00
  .000E+00  .000E+00  .000E+00  .000E+00
  .189E+02  .219E+02  .219E+02  .190E+02  .341E+02  .184E+02  .195E+02  .197E+02
  .197E+02  .208E+02  .209E+02  .189E+02  .258E+02  .209E+02  .198E+02  .198E+02
  .296E+02  .210E+02  .191E+02  .287E+02  .191E+02  .191E+02  .210E+02  .195E+02
  .188E+02  .187E+02  .290E+02  .299E+02  .333E+02  .334E+02  .352E+02  .328E+02
  .300E+02  .344E+02  .344E+02  .334E+02  .319E+02  .319E+02  .344E+02  .344E+02
  .345E+02  .393E+02  .391E+02  .360E+02  .364E+02  .380E+02  .381E+02  .362E+02
  .351E+02  .348E+02  .331E+02  .410E+02  .411E+02  .390E+02  .390E+02  .386E+02
  .360E+02  .323E+02  .323E+02  .335E+02  .318E+02  .451E+02  .387E+02  .713E+02
  .642E+02  .319E+02  .379E+02  .300E+02  .000E+00  .000E+00  .000E+00  .000E+00
  .000E+00  .000E+00  .000E+00  .000E+00  .000E+00  .000E+00  .000E+00  .000E+00
  .000E+00  .000E+00  .000E+00  .000E+00  .000E+00  .000E+00  .000E+00  .000E+00
  .000E+00  .000E+00  .000E+00  .000E+00  .000E+00  .000E+00  .000E+00  .000E+00
  .000E+00  .000E+00  .000E+00  .000E+00
  .221E+02  .221E+02  .219E+02  .218E+02  .178E+02  .178E+02  .195E+02  .197E+02
  .237E+02  .233E+02  .208E+02  .190E+02  .257E+02  .208E+02  .198E+02  .198E+02
  .196E+02  .210E+02  .190E+02  .287E+02  .191E+02  .191E+02  .195E+02  .195E+02
  .190E+02  .188E+02  .194E+02  .298E+02  .333E+02  .292E+02  .353E+02  .329E+02
  .299E+02  .343E+02  .291E+02  .333E+02  .380E+02  .318E+02  .333E+02  .343E+02
  .344E+02  .392E+02  .393E+02  .365E+02  .391E+02  .382E+02  .379E+02  .360E+02
  .357E+02  .346E+02  .324E+02  .413E+02  .350E+02  .387E+02  .388E+02  .377E+02
  .357E+02  .342E+02  .320E+02  .321E+02  .321E+02  .488E+02  .358E+02  .342E+02
  .342E+02  .342E+02  .342E+02  .377E+02  .000E+00  .000E+00  .000E+00  .000E+00
  .000E+00  .000E+00  .000E+00  .000E+00  .000E+00  .000E+00  .000E+00  .000E+00
  .000E+00  .000E+00  .000E+00  .000E+00  .000E+00  .000E+00  .000E+00  .000E+00
  .000E+00  .000E+00  .000E+00  .000E+00  .000E+00  .000E+00  .000E+00  .000E+00
  .000E+00  .000E+00  .000E+00  .000E+00
  .189E+02  .219E+02  .219E+02  .190E+02  .341E+02  .184E+02  .195E+02  .197E+02
  .197E+02  .208E+02  .209E+02  .189E+02  .258E+02  .209E+02  .198E+02  .198E+02
  .296E+02  .210E+02  .191E+02  .287E+02  .191E+02  .191E+02  .210E+02  .195E+02
  .188E+02  .187E+02  .290E+02  .299E+02  .333E+02  .334E+02  .352E+02  .328E+02
  .300E+02  .344E+02  .344E+02  .334E+02  .319E+02  .319E+02  .344E+02  .344E+02
  .345E+02  .393E+02  .391E+02  .360E+02  .364E+02  .380E+02  .381E+02  .362E+02
  .351E+02  .348E+02  .331E+02  .410E+02  .411E+02  .389E+02  .390E+02  .386E+02
  .360E+02  .322E+02  .323E+02  .335E+02  .318E+02  .451E+02  .387E+02  .713E+02
  .641E+02  .319E+02  .379E+02  .300E+02  .000E+00  .000E+00  .000E+00  .000E+00
  .000E+00  .000E+00  .000E+00  .000E+00  .000E+00  .000E+00  .000E+00  .000E+00
  .000E+00  .000E+00  .000E+00  .000E+00  .000E+00  .000E+00  .000E+00  .000E+00
  .000E+00  .000E+00  .000E+00  .000E+00  .000E+00  .000E+00  .000E+00  .000E+00
  .000E+00  .000E+00  .000E+00  .000E+00
Damping =  .05. Data of Sd,Sv,Sa,Pssv,ttSd,ttSv,ttSa :
  .111E-03  .120E-03  .128E-03  .136E-03  .150E-03  .162E-03  .204E-03  .300E-03
