Response and Fourier amplitude spectra (91 periods,  .04 - 15.0 sec)   for      
Corrected accelerogram   12299-K1643-10189.03       Chan  8: 270 Deg     from   
Uncorrected Accelerogram Data             Processed: 07/13/10, CGS  bv003       
Record of Wed Jul  7, 2010 16:53:20.0 PDT             (Avol1 v8.9,05/09 CSMIP)  
CSMIP Preliminary Processing            (Origin:  To be determined)             
12299-K1643-10189.03                 Start time:  7/07/10, 23:53:20.0 UTC (GPS) 
Station No. 12299   33.834N, 116.541W        K2  s/n 1643 (12 Channels)         
Palm Springs - 4-story Hospital           CGS                                   
Chan  8: 270 DegR (Sta Chn:  9)     Location: Basement: South Wall              
Record of Wed Jul  7, 2010 16:53:20.0 PDT    Wed Jul  7, 2010 16:53:20.0 PDT    
Hypocenter:  To be determined.               ML:  To be determined.
Instr Period =  .0105 sec,  Damping =  .650,  Sensitivity =  .63  v/g
                        Record length = 80.000 sec.
                                     Uncor Max  =  -.028 g , at  28.405 sec.
RMS accel of (uncor) record  =        .   Chn. metadata effective date: 06/30/10
Accelerogram bandpass filtered with 3 dB pts at   .13 and 40.00 cyc/sec
                 instrument- and baseline-corrected





Record of Wed Jul  7, 2010 16:53:20.0 PDT    Wed Jul  7, 2010 16:53:20.0 PDT

12299-K1643-10189.03      Palm Springs - 4-story Hospital   Chan  8: 270 Deg

12299-K1643-10189.03      Palm Springs - 4-story Hospital   Chan  8: 270 Deg

Units for spectra are inches and sec, except Sa is in fraction of g.

    8  100    9   12   12  200    1    3    1   24   11 1643    012299    2    0
   23   53   20    0  188    7    7 2010   10    3  27016000   41   31   76  360
16000    1  100    3 1643    1    3  800    2    0    0    0    0    0    0    0
    0    4    0    0 8000    2  222    1   18    4   76   31    3    1    0 8000
    3 8000   32   91    5   12    5    0    0    0   12    0    0    3    1    2
    2    2    4    0   72   99    0   32   32    0    0    1  100    0    0  333
    1    0    1    0
      .011      .650    80.000      .003      .000   625.000     -.028    28.405
    95.000      .298      .477      .000     5.000      .000     4.000      .000
     2.500     3.403     2.500  -999.000    23.000    30.000      .000      .001
     -.002     -.003     2.000    15.000    33.834  -116.541      .057      .580
    10.169     -.031      .026   143.000    23.100    48.900    13.300    97.160
     1.000     1.002      .000      .000      .000      .000      .000      .000
     6.700     8.900     5.500   980.665      .010    80.000    15.120      .000
      .000    40.000      .000    80.000      .010      .125      .000      .000
    28.400   -27.672    31.190    -1.985    28.390      .265      .000      .125
    40.000      .010      .010      .000      .010      .121      .000      .000
      .111      .260      .086      .070      .028      .002      .000      .000
      .000      .000      .000      .000      .000      .000      .000      .000
      .000      .000      .000      .000
      .000      .020      .050      .100      .200
      .040      .042      .044      .046      .048      .050      .055      .060
      .065      .070      .075      .080      .085      .090      .095      .100
      .110      .120      .130      .140      .150      .160      .170      .180
      .190      .200      .220      .240      .260      .280      .300      .320
      .340      .360      .380      .400      .420      .440      .460      .480
      .500      .550      .600      .650      .700      .750      .800      .850
      .900      .950     1.000     1.100     1.200     1.300     1.400     1.500
     1.600     1.700     1.800     1.900     2.000     2.200     2.400     2.600
     2.800     3.000     3.200     3.400     3.600     3.800     4.000     4.200
     4.400     4.600     4.800     5.000     5.500     6.000     6.500     7.000
     7.500     8.000     8.500     9.000     9.500    10.000    11.000    12.000
    13.000    14.000    15.000      .000      .000      .000      .000      .000
      .000      .000      .000      .000
Fourier amplitude spectra in in/sec.
  .167E-01  .467E-01  .284E-01  .103E+00  .409E-01  .194E+00  .226E+00  .351E+00
  .329E+00  .283E+00  .335E+00  .326E+00  .178E+00  .408E+00  .800E+00  .525E+00
  .527E+00  .397E+00  .957E+00  .210E+00  .107E+01  .123E+01  .216E+01  .182E+01
  .201E+01  .857E+00  .413E+01  .311E+01  .534E+01  .301E+01  .302E+01  .170E+01
  .475E+00  .177E+01  .454E+01  .277E+01  .583E+01  .488E+01  .241E+01  .185E+01
  .289E+01  .452E+01  .365E+01  .735E+01  .432E+01  .754E+01  .224E+01  .101E+02
  .395E+01  .676E+01  .120E+01  .292E+01  .139E+01  .230E+01  .156E+01  .456E+00
  .870E+00  .560E+00  .120E+01  .265E+00  .392E+00  .663E+00  .625E+00  .819E+00
  .274E+00  .163E+00  .219E+00  .199E+00  .107E+00  .149E+00  .791E-01  .548E-01
  .465E-01  .541E-01  .697E-01  .800E-01  .681E-01  .434E-01  .330E-01  .396E-01
  .387E-01  .320E-01  .206E-01  .947E-02  .101E-01  .102E-01  .479E-02  .227E-02
  .173E-02  .489E-03  .561E-03  .000E+00  .000E+00  .000E+00  .000E+00  .000E+00
  .000E+00  .000E+00  .000E+00  .000E+00
Damping =  .00. Data of Sd,Sv,Sa,Pssv,ttSd,ttSv,ttSa :
  .741E-03  .943E-03  .108E-02  .127E-02  .158E-02  .190E-02  .267E-02  .414E-02
  .511E-02  .363E-02  .458E-02  .494E-02  .103E-01  .952E-02  .149E-01  .177E-01
  .131E-01  .105E-01  .214E-01  .137E-01  .275E-01  .460E-01  .609E-01  .543E-01
  .727E-01  .398E-01  .175E+00  .139E+00  .254E+00  .157E+00  .151E+00  .101E+00
  .121E+00  .155E+00  .283E+00  .220E+00  .417E+00  .371E+00  .267E+00  .244E+00
  .259E+00  .455E+00  .474E+00  .933E+00  .655E+00  .969E+00  .573E+00  .138E+01
  .584E+00  .104E+01  .526E+00  .532E+00  .495E+00  .651E+00  .620E+00  .406E+00
  .448E+00  .298E+00  .389E+00  .298E+00  .263E+00  .281E+00  .278E+00  .369E+00
  .257E+00  .195E+00  .162E+00  .169E+00  .146E+00  .138E+00  .131E+00  .131E+00
  .132E+00  .136E+00  .139E+00  .140E+00  .132E+00  .132E+00  .132E+00  .129E+00
  .127E+00  .127E+00  .125E+00  .122E+00  .119E+00  .117E+00  .113E+00  .112E+00
  .111E+00  .109E+00  .108E+00  .000E+00  .000E+00  .000E+00  .000E+00  .000E+00
  .000E+00  .000E+00  .000E+00  .000E+00
  .733E-01  .900E-01  .109E+00  .141E+00  .151E+00  .202E+00  .259E+00  .419E+00
  .446E+00  .286E+00  .349E+00  .374E+00  .726E+00  .585E+00  .905E+00  .101E+01
  .701E+00  .478E+00  .981E+00  .459E+00  .111E+01  .173E+01  .221E+01  .185E+01
  .223E+01  .111E+01  .491E+01  .359E+01  .606E+01  .348E+01  .315E+01  .197E+01
  .215E+01  .265E+01  .464E+01  .337E+01  .619E+01  .533E+01  .356E+01  .298E+01
  .319E+01  .501E+01  .496E+01  .884E+01  .600E+01  .806E+01  .444E+01  .102E+02
  .424E+01  .691E+01  .352E+01  .310E+01  .261E+01  .316E+01  .287E+01  .201E+01
  .186E+01  .154E+01  .153E+01  .128E+01  .128E+01  .122E+01  .124E+01  .111E+01
  .112E+01  .109E+01  .102E+01  .937E+00  .865E+00  .825E+00  .807E+00  .795E+00
  .788E+00  .780E+00  .769E+00  .757E+00  .768E+00  .778E+00  .790E+00  .795E+00
  .798E+00  .800E+00  .801E+00  .799E+00  .797E+00  .794E+00  .790E+00  .788E+00
  .787E+00  .785E+00  .784E+00  .000E+00  .000E+00  .000E+00  .000E+00  .000E+00
  .000E+00  .000E+00  .000E+00  .000E+00
  .473E-01  .547E-01  .569E-01  .615E-01  .700E-01  .779E-01  .903E-01  .118E+00
  .124E+00  .758E-01  .832E-01  .789E-01  .145E+00  .120E+00  .169E+00  .181E+00
  .111E+00  .743E-01  .130E+00  .716E-01  .125E+00  .184E+00  .215E+00  .171E+00
  .206E+00  .102E+00  .370E+00  .248E+00  .384E+00  .205E+00  .172E+00  .101E+00
  .107E+00  .122E+00  .200E+00  .140E+00  .242E+00  .196E+00  .129E+00  .108E+00
  .106E+00  .154E+00  .135E+00  .226E+00  .137E+00  .176E+00  .915E-01  .196E+00
  .738E-01  .118E+00  .538E-01  .450E-01  .351E-01  .394E-01  .323E-01  .185E-01
  .179E-01  .106E-01  .123E-01  .846E-02  .672E-02  .594E-02  .493E-02  .558E-02
  .336E-02  .221E-02  .162E-02  .149E-02  .115E-02  .981E-03  .838E-03  .757E-03
  .699E-03  .658E-03  .616E-03  .572E-03  .446E-03  .376E-03  .319E-03  .268E-03
  .231E-03  .202E-03  .177E-03  .154E-03  .135E-03  .119E-03  .958E-04  .794E-04
  .669E-04  .571E-04  .492E-04  .000E+00  .000E+00  .000E+00  .000E+00  .000E+00
  .000E+00  .000E+00  .000E+00  .000E+00
  .116E+00  .141E+00  .154E+00  .174E+00  .206E+00  .239E+00  .305E+00  .433E+00
  .494E+00  .326E+00  .383E+00  .388E+00  .758E+00  .664E+00  .988E+00  .111E+01
  .751E+00  .548E+00  .104E+01  .616E+00  .115E+01  .181E+01  .225E+01  .189E+01
  .240E+01  .125E+01  .500E+01  .365E+01  .613E+01  .352E+01  .317E+01  .198E+01
  .223E+01  .270E+01  .468E+01  .345E+01  .624E+01  .529E+01  .365E+01  .319E+01
  .326E+01  .519E+01  .496E+01  .902E+01  .588E+01  .812E+01  .450E+01  .102E+02
  .408E+01  .690E+01  .331E+01  .304E+01  .259E+01  .315E+01  .278E+01  .170E+01
  .176E+01  .110E+01  .136E+01  .987E+00  .826E+00  .803E+00  .727E+00  .892E+00
  .577E+00  .408E+00  .318E+00  .312E+00  .255E+00  .229E+00  .206E+00  .195E+00
  .189E+00  .186E+00  .182E+00  .176E+00  .151E+00  .139E+00  .127E+00  .115E+00
  .106E+00  .994E-01  .924E-01  .854E-01  .789E-01  .733E-01  .647E-01  .585E-01
  .535E-01  .491E-01  .454E-01  .000E+00  .000E+00  .000E+00  .000E+00  .000E+00
  .000E+00  .000E+00  .000E+00  .000E+00
  .284E+02  .311E+02  .284E+02  .295E+02  .285E+02  .296E+02  .311E+02  .365E+02
  .295E+02  .312E+02  .309E+02  .396E+02  .302E+02  .320E+02  .311E+02  .309E+02
  .338E+02  .376E+02  .338E+02  .284E+02  .307E+02  .380E+02  .311E+02  .431E+02
  .330E+02  .285E+02  .384E+02  .373E+02  .350E+02  .314E+02  .498E+02  .445E+02
  .314E+02  .330E+02  .548E+02  .360E+02  .444E+02  .326E+02  .314E+02  .376E+02
  .346E+02  .327E+02  .365E+02  .380E+02  .350E+02  .592E+02  .430E+02  .770E+02
  .340E+02  .721E+02  .368E+02  .675E+02  .507E+02  .505E+02  .430E+02  .379E+02
  .425E+02  .317E+02  .543E+02  .376E+02  .390E+02  .334E+02  .376E+02  .771E+02
  .412E+02  .330E+02  .309E+02  .412E+02  .384E+02  .296E+02  .296E+02  .284E+02
  .284E+02  .284E+02  .284E+02  .330E+02  .284E+02  .284E+02  .284E+02  .284E+02
  .284E+02  .284E+02  .284E+02  .284E+02  .284E+02  .284E+02  .284E+02  .284E+02
  .284E+02  .284E+02  .284E+02  .000E+00  .000E+00  .000E+00  .000E+00  .000E+00
  .000E+00  .000E+00  .000E+00  .000E+00
  .290E+02  .312E+02  .296E+02  .295E+02  .283E+02  .484E+02  .351E+02  .365E+02
  .295E+02  .549E+02  .615E+02  .416E+02  .303E+02  .292E+02  .311E+02  .317E+02
  .349E+02  .402E+02  .470E+02  .286E+02  .559E+02  .382E+02  .622E+02  .430E+02
  .330E+02  .285E+02  .378E+02  .365E+02  .351E+02  .313E+02  .499E+02  .446E+02
  .313E+02  .331E+02  .549E+02  .361E+02  .428E+02  .327E+02  .313E+02  .375E+02
  .345E+02  .325E+02  .363E+02  .382E+02  .351E+02  .590E+02  .428E+02  .776E+02
  .338E+02  .728E+02  .370E+02  .391E+02  .515E+02  .501E+02  .433E+02  .382E+02
  .428E+02  .320E+02  .422E+02  .315E+02  .315E+02  .316E+02  .332E+02  .312E+02
  .312E+02  .312E+02  .312E+02  .312E+02  .300E+02  .285E+02  .285E+02  .285E+02
  .285E+02  .285E+02  .285E+02  .285E+02  .312E+02  .312E+02  .312E+02  .312E+02
  .312E+02  .312E+02  .312E+02  .312E+02  .312E+02  .312E+02  .312E+02  .312E+02
  .312E+02  .312E+02  .312E+02  .000E+00  .000E+00  .000E+00  .000E+00  .000E+00
  .000E+00  .000E+00  .000E+00  .000E+00
  .284E+02  .311E+02  .284E+02  .295E+02  .285E+02  .296E+02  .311E+02  .365E+02
  .295E+02  .312E+02  .309E+02  .396E+02  .302E+02  .320E+02  .311E+02  .309E+02
  .338E+02  .376E+02  .338E+02  .284E+02  .307E+02  .380E+02  .311E+02  .431E+02
  .330E+02  .285E+02  .384E+02  .373E+02  .350E+02  .314E+02  .498E+02  .445E+02
  .314E+02  .330E+02  .548E+02  .360E+02  .444E+02  .326E+02  .314E+02  .376E+02
  .346E+02  .327E+02  .365E+02  .380E+02  .350E+02  .592E+02  .430E+02  .770E+02
  .340E+02  .721E+02  .368E+02  .675E+02  .507E+02  .505E+02  .430E+02  .379E+02
  .425E+02  .317E+02  .543E+02  .376E+02  .390E+02  .334E+02  .376E+02  .771E+02
  .412E+02  .330E+02  .309E+02  .412E+02  .384E+02  .296E+02  .296E+02  .284E+02
  .284E+02  .284E+02  .284E+02  .330E+02  .284E+02  .284E+02  .284E+02  .284E+02
  .284E+02  .284E+02  .284E+02  .284E+02  .284E+02  .284E+02  .284E+02  .284E+02
  .284E+02  .284E+02  .284E+02  .000E+00  .000E+00  .000E+00  .000E+00  .000E+00
  .000E+00  .000E+00  .000E+00  .000E+00
Damping =  .02. Data of Sd,Sv,Sa,Pssv,ttSd,ttSv,ttSa :
  .531E-03  .571E-03  .585E-03  .655E-03  .733E-03  .950E-03  .129E-02  .189E-02
  .183E-02  .256E-02  .268E-02  .336E-02  .448E-02  .489E-02  .591E-02  .701E-02
  .631E-02  .624E-02  .973E-02  .113E-01  .145E-01  .199E-01  .264E-01  .244E-01
  .310E-01  .366E-01  .805E-01  .768E-01  .121E+00  .104E+00  .701E-01  .701E-01
  .818E-01  .101E+00  .118E+00  .108E+00  .190E+00  .196E+00  .162E+00  .163E+00
  .184E+00  .295E+00  .319E+00  .465E+00  .455E+00  .451E+00  .423E+00  .555E+00
  .434E+00  .430E+00  .387E+00  .324E+00  .325E+00  .355E+00  .423E+00  .266E+00
  .295E+00  .251E+00  .262E+00  .230E+00  .203E+00  .239E+00  .231E+00  .246E+00
  .225E+00  .181E+00  .147E+00  .147E+00  .138E+00  .131E+00  .128E+00  .129E+00
  .131E+00  .133E+00  .135E+00  .135E+00  .131E+00  .131E+00  .130E+00  .128E+00
  .126E+00  .126E+00  .124E+00  .122E+00  .119E+00  .117E+00  .114E+00  .112E+00
  .111E+00  .110E+00  .109E+00  .000E+00  .000E+00  .000E+00  .000E+00  .000E+00
  .000E+00  .000E+00  .000E+00  .000E+00
  .293E-01  .339E-01  .371E-01  .555E-01  .550E-01  .702E-01  .863E-01  .137E+00
  .139E+00  .170E+00  .156E+00  .217E+00  .289E+00  .301E+00  .362E+00  .353E+00
  .293E+00  .213E+00  .414E+00  .426E+00  .526E+00  .666E+00  .897E+00  .670E+00
  .899E+00  .986E+00  .212E+01  .195E+01  .273E+01  .226E+01  .136E+01  .130E+01
  .145E+01  .165E+01  .178E+01  .166E+01  .258E+01  .277E+01  .214E+01  .204E+01
  .233E+01  .333E+01  .324E+01  .449E+01  .426E+01  .362E+01  .326E+01  .427E+01
  .329E+01  .303E+01  .248E+01  .200E+01  .188E+01  .172E+01  .198E+01  .146E+01
  .141E+01  .138E+01  .121E+01  .122E+01  .123E+01  .116E+01  .115E+01  .107E+01
  .108E+01  .106E+01  .100E+01  .932E+00  .864E+00  .826E+00  .810E+00  .798E+00
  .790E+00  .781E+00  .772E+00  .762E+00  .768E+00  .778E+00  .788E+00  .793E+00
  .796E+00  .798E+00  .799E+00  .798E+00  .796E+00  .793E+00  .790E+00  .788E+00
  .786E+00  .785E+00  .784E+00  .000E+00  .000E+00  .000E+00  .000E+00  .000E+00
  .000E+00  .000E+00  .000E+00  .000E+00
  .339E-01  .332E-01  .309E-01  .317E-01  .325E-01  .389E-01  .437E-01  .537E-01
  .442E-01  .536E-01  .485E-01  .537E-01  .637E-01  .619E-01  .673E-01  .714E-01
  .535E-01  .442E-01  .587E-01  .588E-01  .662E-01  .798E-01  .931E-01  .770E-01
  .879E-01  .934E-01  .171E+00  .137E+00  .182E+00  .136E+00  .798E-01  .701E-01
  .726E-01  .801E-01  .833E-01  .689E-01  .110E+00  .104E+00  .784E-01  .725E-01
  .754E-01  .996E-01  .908E-01  .113E+00  .949E-01  .821E-01  .676E-01  .787E-01
  .548E-01  .488E-01  .396E-01  .274E-01  .231E-01  .215E-01  .221E-01  .121E-01
  .118E-01  .888E-02  .828E-02  .654E-02  .522E-02  .506E-02  .411E-02  .372E-02
  .294E-02  .207E-02  .149E-02  .131E-02  .111E-02  .943E-03  .832E-03  .762E-03
  .706E-03  .661E-03  .617E-03  .570E-03  .460E-03  .387E-03  .330E-03  .282E-03
  .245E-03  .215E-03  .190E-03  .168E-03  .149E-03  .133E-03  .109E-03  .916E-04
  .787E-04  .684E-04  .601E-04  .000E+00  .000E+00  .000E+00  .000E+00  .000E+00
  .000E+00  .000E+00  .000E+00  .000E+00
  .834E-01  .855E-01  .835E-01  .894E-01  .960E-01  .119E+00  .148E+00  .198E+00
  .177E+00  .230E+00  .224E+00  .264E+00  .331E+00  .342E+00  .391E+00  .440E+00
  .361E+00  .327E+00  .470E+00  .506E+00  .608E+00  .781E+00  .976E+00  .853E+00
  .103E+01  .115E+01  .230E+01  .201E+01  .292E+01  .233E+01  .147E+01  .138E+01
  .151E+01  .177E+01  .194E+01  .169E+01  .284E+01  .280E+01  .221E+01  .214E+01
  .231E+01  .337E+01  .334E+01  .449E+01  .408E+01  .378E+01  .332E+01  .410E+01
  .303E+01  .284E+01  .243E+01  .185E+01  .170E+01  .171E+01  .190E+01  .112E+01
  .116E+01  .926E+00  .914E+00  .761E+00  .639E+00  .682E+00  .605E+00  .594E+00
  .504E+00  .380E+00  .290E+00  .271E+00  .242E+00  .217E+00  .200E+00  .193E+00
  .186E+00  .182E+00  .177E+00  .170E+00  .150E+00  .137E+00  .126E+00  .115E+00
  .106E+00  .987E-01  .918E-01  .850E-01  .788E-01  .734E-01  .649E-01  .586E-01
  .535E-01  .492E-01  .455E-01  .000E+00  .000E+00  .000E+00  .000E+00  .000E+00
  .000E+00  .000E+00  .000E+00  .000E+00
  .284E+02  .284E+02  .284E+02  .288E+02  .298E+02  .296E+02  .285E+02  .298E+02
  .286E+02  .308E+02  .284E+02  .295E+02  .292E+02  .292E+02  .295E+02  .308E+02
  .284E+02  .284E+02  .297E+02  .298E+02  .300E+02  .309E+02  .298E+02  .284E+02
  .311E+02  .299E+02  .311E+02  .316E+02  .301E+02  .313E+02  .340E+02  .330E+02
  .314E+02  .331E+02  .343E+02  .283E+02  .301E+02  .302E+02  .287E+02  .287E+02
  .287E+02  .327E+02  .344E+02  .345E+02  .339E+02  .385E+02  .406E+02  .320E+02
  .321E+02  .393E+02  .337E+02  .389E+02  .439E+02  .440E+02  .430E+02  .342E+02
  .424E+02  .317E+02  .418E+02  .376E+02  .318E+02  .334E+02  .314E+02  .419E+02
  .330E+02  .330E+02  .309E+02  .309E+02  .294E+02  .296E+02  .284E+02  .284E+02
  .284E+02  .284E+02  .284E+02  .284E+02  .284E+02  .284E+02  .284E+02  .284E+02
  .284E+02  .284E+02  .284E+02  .284E+02  .284E+02  .284E+02  .284E+02  .284E+02
  .284E+02  .284E+02  .284E+02  .000E+00  .000E+00  .000E+00  .000E+00  .000E+00
  .000E+00  .000E+00  .000E+00  .000E+00
  .234E+02  .285E+02  .287E+02  .288E+02  .288E+02  .296E+02  .296E+02  .298E+02
  .295E+02  .308E+02  .283E+02  .297E+02  .292E+02  .292E+02  .291E+02  .296E+02
  .291E+02  .309E+02  .297E+02  .298E+02  .301E+02  .303E+02  .303E+02  .285E+02
  .310E+02  .298E+02  .312E+02  .316E+02  .301E+02  .313E+02  .339E+02  .331E+02
  .313E+02  .331E+02  .344E+02  .282E+02  .300E+02  .301E+02  .313E+02  .286E+02
  .286E+02  .326E+02  .345E+02  .343E+02  .341E+02  .383E+02  .404E+02  .322E+02
  .319E+02  .338E+02  .335E+02  .391E+02  .378E+02  .437E+02  .426E+02  .332E+02
  .332E+02  .320E+02  .315E+02  .315E+02  .315E+02  .316E+02  .332E+02  .312E+02
  .312E+02  .312E+02  .312E+02  .312E+02  .312E+02  .285E+02  .285E+02  .285E+02
  .285E+02  .285E+02  .285E+02  .285E+02  .312E+02  .312E+02  .312E+02  .312E+02
  .312E+02  .312E+02  .312E+02  .312E+02  .312E+02  .312E+02  .312E+02  .312E+02
  .312E+02  .312E+02  .312E+02  .000E+00  .000E+00  .000E+00  .000E+00  .000E+00
  .000E+00  .000E+00  .000E+00  .000E+00
  .284E+02  .284E+02  .284E+02  .288E+02  .298E+02  .296E+02  .285E+02  .298E+02
  .286E+02  .308E+02  .284E+02  .295E+02  .292E+02  .292E+02  .295E+02  .308E+02
  .284E+02  .284E+02  .297E+02  .298E+02  .300E+02  .309E+02  .298E+02  .284E+02
  .311E+02  .299E+02  .311E+02  .316E+02  .301E+02  .313E+02  .340E+02  .330E+02
  .314E+02  .331E+02  .343E+02  .283E+02  .301E+02  .302E+02  .287E+02  .287E+02
  .287E+02  .327E+02  .344E+02  .344E+02  .339E+02  .385E+02  .406E+02  .320E+02
  .321E+02  .393E+02  .337E+02  .389E+02  .439E+02  .440E+02  .430E+02  .342E+02
  .424E+02  .317E+02  .418E+02  .376E+02  .318E+02  .334E+02  .314E+02  .419E+02
  .330E+02  .330E+02  .308E+02  .308E+02  .294E+02  .296E+02  .283E+02  .283E+02
  .283E+02  .283E+02  .283E+02  .283E+02  .283E+02  .283E+02  .283E+02  .283E+02
  .283E+02  .283E+02  .283E+02  .283E+02  .283E+02  .283E+02  .283E+02  .283E+02
  .283E+02  .283E+02  .283E+02  .000E+00  .000E+00  .000E+00  .000E+00  .000E+00
  .000E+00  .000E+00  .000E+00  .000E+00
Damping =  .05. Data of Sd,Sv,Sa,Pssv,ttSd,ttSv,ttSa :
  .502E-03  .542E-03  .569E-03  .599E-03  .678E-03  .800E-03  .112E-02  .140E-02
  .161E-02  .179E-02  .213E-02  .292E-02  .335E-02  .350E-02  .424E-02  .515E-02
