Response and Fourier amplitude spectra (91 periods,  .04 - 15.0 sec)   for      
Corrected accelerogram   12299-K1643-10189.03       Chan  3: 270 Deg     from   
Uncorrected Accelerogram Data             Processed: 07/13/10, CGS  bv003       
Record of Wed Jul  7, 2010 16:53:20.0 PDT             (Avol1 v8.9,05/09 CSMIP)  
CSMIP Preliminary Processing            (Origin:  To be determined)             
12299-K1643-10189.03                 Start time:  7/07/10, 23:53:20.0 UTC (GPS) 
Station No. 12299   33.834N, 116.541W        K2  s/n 1643 (12 Channels)         
Palm Springs - 4-story Hospital           CGS                                   
Chan  3: 270 DegR (Sta Chn:  4)     Location: Roof: North Wall                  
Record of Wed Jul  7, 2010 16:53:20.0 PDT    Wed Jul  7, 2010 16:53:20.0 PDT    
Hypocenter:  To be determined.               ML:  To be determined.
Instr Period =  .0105 sec,  Damping =  .650,  Sensitivity =  .63  v/g
                        Record length = 80.000 sec.
                                     Uncor Max  =  -.113 g , at  34.420 sec.
RMS accel of (uncor) record  =        .   Chn. metadata effective date: 06/30/10
Accelerogram bandpass filtered with 3 dB pts at   .13 and 40.00 cyc/sec
                 instrument- and baseline-corrected





Record of Wed Jul  7, 2010 16:53:20.0 PDT    Wed Jul  7, 2010 16:53:20.0 PDT

12299-K1643-10189.03      Palm Springs - 4-story Hospital   Chan  3: 270 Deg

12299-K1643-10189.03      Palm Springs - 4-story Hospital   Chan  3: 270 Deg

Units for spectra are inches and sec, except Sa is in fraction of g.

    3  100    4   12   12  200    1    3    1   24   11 1643    012299    2    0
   23   53   20    0  188    7    7 2010   10    3  27016000   41   31   76  360
16000    0  100    3 1643    1    3  800    2    0    0    0    0    0    0    0
    0    4    0    0 8000    2  222    1   18    4   76   31    3    1    0 8000
    3 8000   32   91    5   12    5    0    0    0   12    0    0    3    1    2
    2    2    4    0   72   99    0   32   32    0    0    1  100    0    0  333
    1    0    1    0
      .011      .650    80.000      .018      .000   625.000     -.113    34.420
    95.000      .298      .477      .000     5.000      .000     4.000      .000
     2.500   -24.827     2.500  -999.000    23.000    30.000      .000      .000
      .001      .001     2.000    15.000    33.834  -116.541      .121     1.516
    12.569     -.072      .074   143.000    23.100    48.900    13.300    97.160
     1.000    -1.024      .000      .000      .000      .000      .000      .000
     6.700     8.900     5.500   980.665      .010    80.000    15.120      .000
      .000    40.000      .000    80.000      .010      .125      .000      .000
    34.420  -110.705    34.280    10.644    34.430     1.150      .000      .125
    40.000      .010      .010      .000     9.880      .622      .000      .000
      .745      .650      .158      .155      .109      .007      .000      .000
      .000      .000      .000      .000      .000      .000      .000      .000
      .000      .000      .000      .000
      .000      .020      .050      .100      .200
      .040      .042      .044      .046      .048      .050      .055      .060
      .065      .070      .075      .080      .085      .090      .095      .100
      .110      .120      .130      .140      .150      .160      .170      .180
      .190      .200      .220      .240      .260      .280      .300      .320
      .340      .360      .380      .400      .420      .440      .460      .480
      .500      .550      .600      .650      .700      .750      .800      .850
      .900      .950     1.000     1.100     1.200     1.300     1.400     1.500
     1.600     1.700     1.800     1.900     2.000     2.200     2.400     2.600
     2.800     3.000     3.200     3.400     3.600     3.800     4.000     4.200
     4.400     4.600     4.800     5.000     5.500     6.000     6.500     7.000
     7.500     8.000     8.500     9.000     9.500    10.000    11.000    12.000
    13.000    14.000    15.000      .000      .000      .000      .000      .000
      .000      .000      .000      .000
Fourier amplitude spectra in in/sec.
  .147E+00  .110E+00  .328E-01  .106E+00  .133E+00  .190E+00  .485E+00  .411E+00
  .343E+00  .965E-01  .923E-01  .902E-01  .293E+00  .881E-01  .698E+00  .760E+00
  .975E+00  .376E+00  .994E+00  .146E+01  .214E+01  .301E+01  .403E+01  .420E+01
  .241E+01  .124E+01  .392E+01  .240E+01  .424E+01  .209E+01  .188E+01  .211E+01
  .429E+00  .887E+00  .401E+01  .256E+01  .916E+01  .559E+01  .766E+00  .249E+01
  .101E+02  .342E+02  .584E+02  .983E+02  .301E+02  .340E+02  .872E+01  .259E+02
  .852E+01  .144E+02  .218E+01  .462E+01  .197E+01  .343E+01  .224E+01  .592E+00
  .969E+00  .713E+00  .139E+01  .274E+00  .456E+00  .738E+00  .680E+00  .879E+00
  .304E+00  .160E+00  .206E+00  .224E+00  .106E+00  .138E+00  .705E-01  .502E-01
  .447E-01  .763E-01  .624E-01  .818E-01  .709E-01  .405E-01  .386E-01  .471E-01
  .639E-01  .279E-01  .155E-01  .182E-01  .157E-01  .165E-01  .104E-01  .619E-03
  .394E-02  .177E-02  .182E-02  .000E+00  .000E+00  .000E+00  .000E+00  .000E+00
  .000E+00  .000E+00  .000E+00  .000E+00
Damping =  .00. Data of Sd,Sv,Sa,Pssv,ttSd,ttSv,ttSa :
  .239E-02  .256E-02  .255E-02  .298E-02  .328E-02  .391E-02  .733E-02  .816E-02
  .885E-02  .699E-02  .991E-02  .857E-02  .134E-01  .171E-01  .193E-01  .246E-01
  .349E-01  .234E-01  .290E-01  .628E-01  .556E-01  .123E+00  .133E+00  .135E+00
  .120E+00  .646E-01  .204E+00  .147E+00  .269E+00  .180E+00  .185E+00  .217E+00
  .232E+00  .271E+00  .432E+00  .436E+00  .779E+00  .673E+00  .699E+00  .835E+00
  .130E+01  .335E+01  .678E+01  .109E+02  .599E+01  .418E+01  .191E+01  .351E+01
  .210E+01  .222E+01  .158E+01  .107E+01  .923E+00  .919E+00  .848E+00  .833E+00
  .781E+00  .651E+00  .682E+00  .669E+00  .626E+00  .758E+00  .636E+00  .607E+00
  .607E+00  .583E+00  .504E+00  .539E+00  .531E+00  .490E+00  .483E+00  .471E+00
  .483E+00  .486E+00  .481E+00  .480E+00  .483E+00  .498E+00  .502E+00  .499E+00
  .489E+00  .477E+00  .465E+00  .456E+00  .450E+00  .446E+00  .443E+00  .444E+00
  .447E+00  .449E+00  .450E+00  .000E+00  .000E+00  .000E+00  .000E+00  .000E+00
  .000E+00  .000E+00  .000E+00  .000E+00
  .151E+00  .121E+00  .875E-01  .120E+00  .151E+00  .194E+00  .530E+00  .503E+00
  .442E+00  .204E+00  .433E+00  .262E+00  .515E+00  .828E+00  .782E+00  .102E+01
  .137E+01  .632E+00  .102E+01  .207E+01  .229E+01  .412E+01  .437E+01  .465E+01
  .331E+01  .143E+01  .540E+01  .333E+01  .555E+01  .346E+01  .305E+01  .274E+01
  .287E+01  .363E+01  .543E+01  .550E+01  .101E+02  .835E+01  .798E+01  .945E+01
  .152E+02  .383E+02  .698E+02  .106E+03  .555E+02  .351E+02  .169E+02  .261E+02
  .165E+02  .147E+02  .115E+02  .832E+01  .714E+01  .663E+01  .598E+01  .664E+01
  .590E+01  .498E+01  .501E+01  .533E+01  .540E+01  .501E+01  .511E+01  .467E+01
  .431E+01  .452E+01  .457E+01  .446E+01  .438E+01  .440E+01  .436E+01  .430E+01
  .426E+01  .428E+01  .430E+01  .430E+01  .428E+01  .425E+01  .423E+01  .424E+01
  .424E+01  .424E+01  .423E+01  .423E+01  .422E+01  .422E+01  .421E+01  .420E+01
  .420E+01  .420E+01  .419E+01  .000E+00  .000E+00  .000E+00  .000E+00  .000E+00
  .000E+00  .000E+00  .000E+00  .000E+00
  .153E+00  .149E+00  .135E+00  .144E+00  .146E+00  .160E+00  .248E+00  .232E+00
  .214E+00  .146E+00  .180E+00  .137E+00  .190E+00  .216E+00  .219E+00  .252E+00
  .295E+00  .166E+00  .175E+00  .328E+00  .253E+00  .491E+00  .469E+00  .426E+00
  .340E+00  .165E+00  .431E+00  .261E+00  .406E+00  .235E+00  .211E+00  .217E+00
  .205E+00  .214E+00  .306E+00  .279E+00  .452E+00  .355E+00  .338E+00  .371E+00
  .531E+00  .113E+01  .192E+01  .264E+01  .125E+01  .759E+00  .306E+00  .498E+00
  .265E+00  .251E+00  .161E+00  .902E-01  .655E-01  .556E-01  .443E-01  .378E-01
  .312E-01  .230E-01  .215E-01  .190E-01  .160E-01  .160E-01  .113E-01  .918E-02
  .792E-02  .662E-02  .503E-02  .477E-02  .419E-02  .347E-02  .309E-02  .273E-02
  .255E-02  .235E-02  .213E-02  .196E-02  .163E-02  .141E-02  .122E-02  .104E-02
  .889E-03  .762E-03  .658E-03  .575E-03  .510E-03  .456E-03  .375E-03  .316E-03
  .270E-03  .234E-03  .205E-03  .000E+00  .000E+00  .000E+00  .000E+00  .000E+00
  .000E+00  .000E+00  .000E+00  .000E+00
  .376E+00  .383E+00  .364E+00  .408E+00  .430E+00  .491E+00  .837E+00  .854E+00
  .855E+00  .627E+00  .830E+00  .673E+00  .991E+00  .120E+01  .128E+01  .155E+01
  .200E+01  .122E+01  .140E+01  .282E+01  .233E+01  .483E+01  .490E+01  .471E+01
  .397E+01  .203E+01  .583E+01  .384E+01  .649E+01  .404E+01  .388E+01  .426E+01
  .428E+01  .472E+01  .714E+01  .685E+01  .117E+02  .961E+01  .955E+01  .109E+02
  .163E+02  .382E+02  .710E+02  .105E+03  .538E+02  .350E+02  .150E+02  .260E+02
  .146E+02  .147E+02  .990E+01  .609E+01  .483E+01  .444E+01  .381E+01  .349E+01
  .307E+01  .241E+01  .238E+01  .221E+01  .197E+01  .217E+01  .167E+01  .147E+01
  .136E+01  .122E+01  .990E+00  .996E+00  .927E+00  .810E+00  .758E+00  .704E+00
  .690E+00  .664E+00  .629E+00  .603E+00  .552E+00  .521E+00  .485E+00  .448E+00
  .410E+00  .374E+00  .344E+00  .318E+00  .297E+00  .280E+00  .253E+00  .233E+00
  .216E+00  .201E+00  .189E+00  .000E+00  .000E+00  .000E+00  .000E+00  .000E+00
  .000E+00  .000E+00  .000E+00  .000E+00
  .344E+02  .344E+02  .341E+02  .344E+02  .344E+02  .344E+02  .344E+02  .341E+02
  .344E+02  .344E+02  .344E+02  .310E+02  .344E+02  .303E+02  .344E+02  .306E+02
  .331E+02  .331E+02  .344E+02  .335E+02  .483E+02  .344E+02  .322E+02  .432E+02
  .331E+02  .334E+02  .342E+02  .348E+02  .344E+02  .307E+02  .342E+02  .344E+02
  .344E+02  .341E+02  .344E+02  .347E+02  .347E+02  .341E+02  .351E+02  .344E+02
  .354E+02  .494E+02  .376E+02  .407E+02  .354E+02  .588E+02  .335E+02  .604E+02
  .344E+02  .721E+02  .338E+02  .338E+02  .376E+02  .531E+02  .451E+02  .335E+02
  .331E+02  .331E+02  .347E+02  .348E+02  .344E+02  .344E+02  .335E+02  .341E+02
  .331E+02  .348E+02  .348E+02  .344E+02  .344E+02  .335E+02  .335E+02  .347E+02
  .348E+02  .348E+02  .348E+02  .331E+02  .344E+02  .344E+02  .344E+02  .344E+02
  .344E+02  .344E+02  .344E+02  .344E+02  .344E+02  .344E+02  .344E+02  .344E+02
  .344E+02  .344E+02  .344E+02  .000E+00  .000E+00  .000E+00  .000E+00  .000E+00
  .000E+00  .000E+00  .000E+00  .000E+00
  .432E+02  .339E+02  .311E+02  .378E+02  .368E+02  .365E+02  .378E+02  .376E+02
  .343E+02  .343E+02  .301E+02  .290E+02  .349E+02  .301E+02  .448E+02  .306E+02
  .343E+02  .299E+02  .761E+02  .329E+02  .561E+02  .384E+02  .324E+02  .431E+02
  .330E+02  .302E+02  .343E+02  .367E+02  .352E+02  .308E+02  .343E+02  .371E+02
  .345E+02  .333E+02  .345E+02  .358E+02  .361E+02  .343E+02  .349E+02  .346E+02
  .352E+02  .498E+02  .375E+02  .409E+02  .355E+02  .586E+02  .333E+02  .606E+02
  .342E+02  .728E+02  .340E+02  .336E+02  .349E+02  .349E+02  .346E+02  .346E+02
  .343E+02  .343E+02  .346E+02  .346E+02  .346E+02  .343E+02  .343E+02  .343E+02
  .346E+02  .346E+02  .346E+02  .346E+02  .343E+02  .343E+02  .343E+02  .343E+02
  .346E+02  .346E+02  .346E+02  .346E+02  .346E+02  .346E+02  .343E+02  .343E+02
  .343E+02  .343E+02  .343E+02  .343E+02  .343E+02  .343E+02  .343E+02  .343E+02
  .343E+02  .343E+02  .343E+02  .000E+00  .000E+00  .000E+00  .000E+00  .000E+00
  .000E+00  .000E+00  .000E+00  .000E+00
  .344E+02  .344E+02  .341E+02  .344E+02  .344E+02  .344E+02  .344E+02  .341E+02
  .344E+02  .344E+02  .344E+02  .310E+02  .344E+02  .303E+02  .344E+02  .306E+02
  .331E+02  .331E+02  .344E+02  .335E+02  .483E+02  .344E+02  .322E+02  .432E+02
  .331E+02  .334E+02  .342E+02  .348E+02  .344E+02  .307E+02  .342E+02  .344E+02
  .344E+02  .341E+02  .344E+02  .347E+02  .347E+02  .341E+02  .351E+02  .344E+02
  .354E+02  .494E+02  .376E+02  .407E+02  .354E+02  .588E+02  .335E+02  .604E+02
  .344E+02  .721E+02  .338E+02  .338E+02  .376E+02  .531E+02  .451E+02  .335E+02
  .331E+02  .331E+02  .347E+02  .348E+02  .344E+02  .344E+02  .335E+02  .341E+02
  .331E+02  .348E+02  .348E+02  .344E+02  .344E+02  .335E+02  .335E+02  .347E+02
  .348E+02  .348E+02  .348E+02  .331E+02  .344E+02  .344E+02  .344E+02  .344E+02
  .344E+02  .344E+02  .344E+02  .344E+02  .344E+02  .344E+02  .344E+02  .344E+02
  .344E+02  .344E+02  .344E+02  .000E+00  .000E+00  .000E+00  .000E+00  .000E+00
  .000E+00  .000E+00  .000E+00  .000E+00
Damping =  .02. Data of Sd,Sv,Sa,Pssv,ttSd,ttSv,ttSa :
  .179E-02  .196E-02  .216E-02  .240E-02  .260E-02  .285E-02  .386E-02  .443E-02
  .503E-02  .579E-02  .668E-02  .784E-02  .844E-02  .107E-01  .126E-01  .157E-01
  .171E-01  .181E-01  .215E-01  .334E-01  .428E-01  .627E-01  .821E-01  .686E-01
  .624E-01  .638E-01  .104E+00  .928E-01  .151E+00  .129E+00  .146E+00  .179E+00
  .189E+00  .234E+00  .331E+00  .320E+00  .429E+00  .491E+00  .564E+00  .705E+00
  .889E+00  .214E+01  .377E+01  .507E+01  .423E+01  .254E+01  .173E+01  .181E+01
  .159E+01  .150E+01  .132E+01  .973E+00  .811E+00  .806E+00  .777E+00  .753E+00
  .689E+00  .608E+00  .628E+00  .630E+00  .608E+00  .698E+00  .614E+00  .568E+00
  .581E+00  .554E+00  .498E+00  .517E+00  .515E+00  .484E+00  .472E+00  .463E+00
  .475E+00  .478E+00  .473E+00  .472E+00  .479E+00  .493E+00  .497E+00  .495E+00
  .487E+00  .476E+00  .466E+00  .457E+00  .452E+00  .448E+00  .445E+00  .445E+00
  .447E+00  .449E+00  .450E+00  .000E+00  .000E+00  .000E+00  .000E+00  .000E+00
  .000E+00  .000E+00  .000E+00  .000E+00
  .350E-01  .398E-01  .392E-01  .496E-01  .527E-01  .885E-01  .145E+00  .179E+00
  .150E+00  .155E+00  .255E+00  .194E+00  .228E+00  .366E+00  .399E+00  .503E+00
  .602E+00  .377E+00  .503E+00  .716E+00  .118E+01  .180E+01  .230E+01  .157E+01
  .142E+01  .125E+01  .253E+01  .183E+01  .283E+01  .232E+01  .213E+01  .234E+01
  .216E+01  .280E+01  .394E+01  .374E+01  .546E+01  .614E+01  .607E+01  .741E+01
  .960E+01  .229E+02  .386E+02  .488E+02  .396E+02  .233E+02  .153E+02  .150E+02
  .130E+02  .118E+02  .103E+02  .791E+01  .699E+01  .634E+01  .597E+01  .619E+01
  .542E+01  .493E+01  .497E+01  .521E+01  .525E+01  .488E+01  .498E+01  .465E+01
  .434E+01  .448E+01  .451E+01  .444E+01  .435E+01  .437E+01  .434E+01  .429E+01
  .426E+01  .428E+01  .429E+01  .429E+01  .428E+01  .425E+01  .422E+01  .423E+01
  .423E+01  .423E+01  .423E+01  .422E+01  .422E+01  .421E+01  .421E+01  .420E+01
  .420E+01  .420E+01  .419E+01  .000E+00  .000E+00  .000E+00  .000E+00  .000E+00
  .000E+00  .000E+00  .000E+00  .000E+00
  .115E+00  .114E+00  .114E+00  .116E+00  .116E+00  .116E+00  .131E+00  .126E+00
  .122E+00  .121E+00  .121E+00  .125E+00  .120E+00  .134E+00  .142E+00  .160E+00
  .145E+00  .129E+00  .130E+00  .174E+00  .195E+00  .250E+00  .290E+00  .216E+00
  .177E+00  .163E+00  .219E+00  .165E+00  .228E+00  .168E+00  .166E+00  .178E+00
  .167E+00  .185E+00  .234E+00  .204E+00  .249E+00  .260E+00  .273E+00  .313E+00
  .363E+00  .725E+00  .107E+01  .123E+01  .884E+00  .462E+00  .277E+00  .256E+00
  .200E+00  .170E+00  .135E+00  .824E-01  .577E-01  .489E-01  .407E-01  .344E-01
  .276E-01  .216E-01  .199E-01  .180E-01  .156E-01  .148E-01  .110E-01  .869E-02
  .766E-02  .638E-02  .505E-02  .467E-02  .415E-02  .352E-02  .311E-02  .277E-02
  .259E-02  .239E-02  .218E-02  .201E-02  .171E-02  .149E-02  .129E-02  .112E-02
  .973E-03  .848E-03  .746E-03  .663E-03  .597E-03  .543E-03  .459E-03  .398E-03
  .351E-03  .313E-03  .282E-03  .000E+00  .000E+00  .000E+00  .000E+00  .000E+00
  .000E+00  .000E+00  .000E+00  .000E+00
  .282E+00  .293E+00  .308E+00  .328E+00  .341E+00  .358E+00  .441E+00  .464E+00
  .486E+00  .519E+00  .559E+00  .616E+00  .624E+00  .744E+00  .832E+00  .988E+00
  .977E+00  .949E+00  .104E+01  .150E+01  .179E+01  .246E+01  .303E+01  .239E+01
  .206E+01  .200E+01  .296E+01  .243E+01  .365E+01  .289E+01  .306E+01  .351E+01
  .349E+01  .409E+01  .547E+01  .502E+01  .642E+01  .702E+01  .770E+01  .923E+01
  .112E+02  .245E+02  .395E+02  .490E+02  .380E+02  .213E+02  .136E+02  .134E+02
  .111E+02  .993E+01  .827E+01  .556E+01  .425E+01  .390E+01  .349E+01  .316E+01
  .271E+01  .225E+01  .219E+01  .208E+01  .191E+01  .199E+01  .161E+01  .137E+01
  .130E+01  .116E+01  .977E+00  .956E+00  .898E+00  .801E+00  .742E+00  .693E+00
  .678E+00  .652E+00  .619E+00  .594E+00  .547E+00  .516E+00  .481E+00  .444E+00
  .408E+00  .374E+00  .344E+00  .319E+00  .299E+00  .281E+00  .254E+00  .233E+00
  .216E+00  .201E+00  .189E+00  .000E+00  .000E+00  .000E+00  .000E+00  .000E+00
  .000E+00  .000E+00  .000E+00  .000E+00
  .344E+02  .344E+02  .344E+02  .341E+02  .341E+02  .341E+02  .341E+02  .341E+02
  .341E+02  .303E+02  .331E+02  .310E+02  .344E+02  .303E+02  .303E+02  .306E+02
  .306E+02  .334E+02  .331E+02  .331E+02  .341E+02  .306E+02  .306E+02  .344E+02
  .328E+02  .335E+02  .310E+02  .291E+02  .335E+02  .307E+02  .342E+02  .344E+02
  .344E+02  .344E+02  .344E+02  .347E+02  .303E+02  .306E+02  .348E+02  .348E+02
  .351E+02  .335E+02  .370E+02  .381E+02  .350E+02  .341E+02  .331E+02  .324E+02
  .344E+02  .341E+02  .338E+02  .338E+02  .347E+02  .347E+02  .347E+02  .335E+02
  .344E+02  .331E+02  .347E+02  .348E+02  .344E+02  .344E+02  .335E+02  .341E+02
  .331E+02  .348E+02  .348E+02  .344E+02  .344E+02  .344E+02  .335E+02  .347E+02
  .348E+02  .348E+02  .348E+02  .331E+02  .344E+02  .344E+02  .344E+02  .344E+02
  .344E+02  .344E+02  .344E+02  .344E+02  .344E+02  .344E+02  .344E+02  .344E+02
  .344E+02  .344E+02  .344E+02  .000E+00  .000E+00  .000E+00  .000E+00  .000E+00
  .000E+00  .000E+00  .000E+00  .000E+00
  .301E+02  .303E+02  .303E+02  .339E+02  .301E+02  .301E+02  .302E+02  .301E+02
  .290E+02  .303E+02  .301E+02  .310E+02  .310E+02  .301E+02  .306E+02  .304E+02
  .304E+02  .299E+02  .299E+02  .301E+02  .304E+02  .311E+02  .307E+02  .307E+02
  .307E+02  .299E+02  .311E+02  .290E+02  .336E+02  .302E+02  .343E+02  .333E+02
  .333E+02  .343E+02  .346E+02  .346E+02  .302E+02  .305E+02  .349E+02  .349E+02
  .352E+02  .336E+02  .368E+02  .363E+02  .352E+02  .343E+02  .333E+02  .326E+02
  .346E+02  .343E+02  .340E+02  .336E+02  .349E+02  .349E+02  .346E+02  .346E+02
  .343E+02  .343E+02  .346E+02  .346E+02  .346E+02  .343E+02  .343E+02  .343E+02
  .343E+02  .346E+02  .346E+02  .346E+02  .343E+02  .343E+02  .343E+02  .343E+02
  .346E+02  .346E+02  .346E+02  .346E+02  .346E+02  .346E+02  .343E+02  .343E+02
  .343E+02  .343E+02  .343E+02  .343E+02  .343E+02  .343E+02  .343E+02  .343E+02
  .343E+02  .343E+02  .343E+02  .000E+00  .000E+00  .000E+00  .000E+00  .000E+00
  .000E+00  .000E+00  .000E+00  .000E+00
  .344E+02  .344E+02  .344E+02  .341E+02  .341E+02  .341E+02  .341E+02  .341E+02
  .341E+02  .303E+02  .331E+02  .310E+02  .310E+02  .303E+02  .303E+02  .306E+02
  .306E+02  .334E+02  .331E+02  .331E+02  .341E+02  .306E+02  .306E+02  .344E+02
  .328E+02  .335E+02  .310E+02  .291E+02  .335E+02  .307E+02  .341E+02  .344E+02
  .344E+02  .344E+02  .344E+02  .347E+02  .347E+02  .306E+02  .348E+02  .348E+02
  .351E+02  .335E+02  .370E+02  .381E+02  .350E+02  .341E+02  .331E+02  .324E+02
  .344E+02  .341E+02  .338E+02  .338E+02  .347E+02  .347E+02  .347E+02  .334E+02
  .344E+02  .331E+02  .347E+02  .347E+02  .344E+02  .344E+02  .334E+02  .341E+02
  .331E+02  .347E+02  .347E+02  .344E+02  .344E+02  .344E+02  .334E+02  .347E+02
  .347E+02  .347E+02  .347E+02  .331E+02  .344E+02  .344E+02  .344E+02  .344E+02
  .344E+02  .344E+02  .344E+02  .344E+02  .344E+02  .344E+02  .344E+02  .343E+02
  .343E+02  .343E+02  .343E+02  .000E+00  .000E+00  .000E+00  .000E+00  .000E+00
  .000E+00  .000E+00  .000E+00  .000E+00
Damping =  .05. Data of Sd,Sv,Sa,Pssv,ttSd,ttSv,ttSa :
  .178E-02  .196E-02  .216E-02  .237E-02  .257E-02  .278E-02  .360E-02  .429E-02
  .489E-02  .557E-02  .649E-02  .741E-02  .835E-02  .967E-02  .117E-01  .130E-01
