Response and Fourier amplitude spectra (91 periods,  .04 - 15.0 sec)   for      
Corrected accelerogram   12299-K1643-10189.03       Chan  6: 270 Deg     from   
Uncorrected Accelerogram Data             Processed: 07/13/10, CGS  bv003       
Record of Wed Jul  7, 2010 16:53:20.0 PDT             (Avol1 v8.9,05/09 CSMIP)  
CSMIP Preliminary Processing            (Origin:  To be determined)             
12299-K1643-10189.03                 Start time:  7/07/10, 23:53:20.0 UTC (GPS) 
Station No. 12299   33.834N, 116.541W        K2  s/n 1643 (12 Channels)         
Palm Springs - 4-story Hospital           CGS                                   
Chan  6: 270 DegR (Sta Chn:  7)     Location: 2nd Floor: Near Center            
Record of Wed Jul  7, 2010 16:53:20.0 PDT    Wed Jul  7, 2010 16:53:20.0 PDT    
Hypocenter:  To be determined.               ML:  To be determined.
Instr Period =  .0105 sec,  Damping =  .650,  Sensitivity =  .63  v/g
                        Record length = 80.000 sec.
                                     Uncor Max  =  -.043 g , at  33.770 sec.
RMS accel of (uncor) record  =        .   Chn. metadata effective date: 06/30/10
Accelerogram bandpass filtered with 3 dB pts at   .13 and 40.00 cyc/sec
                 instrument- and baseline-corrected





Record of Wed Jul  7, 2010 16:53:20.0 PDT    Wed Jul  7, 2010 16:53:20.0 PDT

12299-K1643-10189.03      Palm Springs - 4-story Hospital   Chan  6: 270 Deg

12299-K1643-10189.03      Palm Springs - 4-story Hospital   Chan  6: 270 Deg

Units for spectra are inches and sec, except Sa is in fraction of g.

    6  100    7   12   12  200    1    3    1   24   11 1643    012299    2    0
   23   53   20    0  188    7    7 2010   10    3  27016000   41   31   76  360
16000    0  100    3 1643    1    3  800    2    0    0    0    0    0    0    0
    0    4    0    0 8000    2  222    1   18    4   76   31    3    1    0 8000
    3 8000   32   91    5   12    5    0    0    0   12    0    0    3    1    2
    2    2    4    0   72   99    0   32   32    0    0    1  100    0    0  333
    1    0    1    0
      .011      .650    80.000      .006      .000   625.000     -.043    33.770
    95.000      .298      .477      .000     5.000      .000     4.000      .000
     2.500     8.092     2.500  -999.000    23.000    30.000      .000     -.003
      .006      .010     2.000    15.000    33.834  -116.541      .102      .806
     7.886     -.030      .050   143.000    23.100    48.900    13.300    97.160
     1.000     1.137      .000      .000      .000      .000      .000      .000
     6.700     8.900     5.500   980.665      .010    80.000    15.120      .000
      .000    40.000      .000    80.000      .010      .125      .000      .000
    33.770   -41.658    33.270    -3.288    33.060      .354      .000      .125
    40.000      .010      .010     -.001      .010      .199      .000      .000
      .188      .650      .106      .073      .043      .003      .000      .000
      .000      .000      .000      .000      .000      .000      .000      .000
      .000      .000      .000      .000
      .000      .020      .050      .100      .200
      .040      .042      .044      .046      .048      .050      .055      .060
      .065      .070      .075      .080      .085      .090      .095      .100
      .110      .120      .130      .140      .150      .160      .170      .180
      .190      .200      .220      .240      .260      .280      .300      .320
      .340      .360      .380      .400      .420      .440      .460      .480
      .500      .550      .600      .650      .700      .750      .800      .850
      .900      .950     1.000     1.100     1.200     1.300     1.400     1.500
     1.600     1.700     1.800     1.900     2.000     2.200     2.400     2.600
     2.800     3.000     3.200     3.400     3.600     3.800     4.000     4.200
     4.400     4.600     4.800     5.000     5.500     6.000     6.500     7.000
     7.500     8.000     8.500     9.000     9.500    10.000    11.000    12.000
    13.000    14.000    15.000      .000      .000      .000      .000      .000
      .000      .000      .000      .000
Fourier amplitude spectra in in/sec.
  .687E-01  .649E-01  .133E-01  .342E-01  .682E-01  .177E+00  .340E+00  .503E+00
  .531E+00  .564E+00  .234E+00  .104E+01  .464E+00  .663E+00  .736E+00  .151E+01
  .169E+01  .900E-01  .124E+01  .579E+00  .821E+00  .267E+01  .445E+01  .440E+01
  .389E+01  .172E+01  .564E+01  .372E+01  .540E+01  .233E+01  .214E+01  .111E+01
  .475E+00  .885E+00  .191E+01  .130E+01  .201E+01  .161E+01  .105E+00  .727E+00
  .337E+01  .646E+01  .808E+01  .247E+02  .948E+01  .140E+02  .320E+01  .149E+02
  .511E+01  .884E+01  .166E+01  .344E+01  .147E+01  .257E+01  .184E+01  .490E+00
  .916E+00  .589E+00  .129E+01  .279E+00  .426E+00  .679E+00  .639E+00  .834E+00
  .272E+00  .160E+00  .223E+00  .201E+00  .116E+00  .152E+00  .786E-01  .511E-01
  .398E-01  .418E-01  .618E-01  .714E-01  .674E-01  .429E-01  .415E-01  .362E-01
  .329E-01  .259E-01  .224E-01  .180E-01  .141E-01  .966E-02  .432E-02  .621E-02
  .602E-02  .331E-02  .130E-02  .000E+00  .000E+00  .000E+00  .000E+00  .000E+00
  .000E+00  .000E+00  .000E+00  .000E+00
Damping =  .00. Data of Sd,Sv,Sa,Pssv,ttSd,ttSv,ttSa :
  .111E-02  .120E-02  .929E-03  .112E-02  .170E-02  .236E-02  .425E-02  .651E-02
  .602E-02  .720E-02  .506E-02  .146E-01  .140E-01  .190E-01  .202E-01  .324E-01
  .352E-01  .144E-01  .275E-01  .395E-01  .528E-01  .105E+00  .122E+00  .131E+00
  .144E+00  .577E-01  .237E+00  .176E+00  .262E+00  .141E+00  .121E+00  .710E-01
  .850E-01  .120E+00  .142E+00  .155E+00  .188E+00  .183E+00  .137E+00  .172E+00
  .306E+00  .699E+00  .105E+01  .275E+01  .168E+01  .177E+01  .805E+00  .203E+01
  .876E+00  .136E+01  .766E+00  .630E+00  .542E+00  .732E+00  .699E+00  .496E+00
  .494E+00  .367E+00  .424E+00  .376E+00  .279E+00  .367E+00  .340E+00  .378E+00
  .313E+00  .262E+00  .206E+00  .208E+00  .193E+00  .188E+00  .182E+00  .163E+00
  .165E+00  .177E+00  .185E+00  .190E+00  .186E+00  .179E+00  .171E+00  .158E+00
  .147E+00  .146E+00  .148E+00  .147E+00  .144E+00  .140E+00  .135E+00  .134E+00
  .134E+00  .135E+00  .138E+00  .000E+00  .000E+00  .000E+00  .000E+00  .000E+00
  .000E+00  .000E+00  .000E+00  .000E+00
  .113E+00  .101E+00  .555E-01  .814E-01  .124E+00  .219E+00  .414E+00  .602E+00
  .538E+00  .566E+00  .351E+00  .109E+01  .939E+00  .121E+01  .120E+01  .191E+01
  .191E+01  .646E+00  .131E+01  .171E+01  .205E+01  .400E+01  .448E+01  .450E+01
  .457E+01  .173E+01  .664E+01  .441E+01  .619E+01  .311E+01  .230E+01  .124E+01
  .136E+01  .173E+01  .203E+01  .201E+01  .242E+01  .244E+01  .157E+01  .200E+01
  .385E+01  .741E+01  .107E+02  .266E+02  .154E+02  .148E+02  .625E+01  .150E+02
  .684E+01  .903E+01  .517E+01  .367E+01  .324E+01  .357E+01  .333E+01  .272E+01
  .260E+01  .221E+01  .208E+01  .178E+01  .187E+01  .172E+01  .198E+01  .182E+01
  .156E+01  .147E+01  .144E+01  .134E+01  .127E+01  .134E+01  .138E+01  .140E+01
  .140E+01  .138E+01  .137E+01  .135E+01  .132E+01  .129E+01  .127E+01  .128E+01
  .128E+01  .128E+01  .129E+01  .129E+01  .130E+01  .130E+01  .130E+01  .130E+01
  .130E+01  .130E+01  .130E+01  .000E+00  .000E+00  .000E+00  .000E+00  .000E+00
  .000E+00  .000E+00  .000E+00  .000E+00
  .707E-01  .694E-01  .491E-01  .540E-01  .753E-01  .965E-01  .144E+00  .185E+00
  .146E+00  .150E+00  .920E-01  .234E+00  .198E+00  .241E+00  .229E+00  .332E+00
  .297E+00  .102E+00  .167E+00  .206E+00  .240E+00  .419E+00  .432E+00  .413E+00
  .409E+00  .147E+00  .501E+00  .312E+00  .397E+00  .184E+00  .137E+00  .709E-01
  .752E-01  .951E-01  .101E+00  .990E-01  .109E+00  .965E-01  .661E-01  .765E-01
  .125E+00  .236E+00  .299E+00  .665E+00  .351E+00  .322E+00  .129E+00  .287E+00
  .111E+00  .154E+00  .783E-01  .532E-01  .385E-01  .443E-01  .365E-01  .225E-01
  .197E-01  .130E-01  .134E-01  .107E-01  .713E-02  .775E-02  .603E-02  .572E-02
  .408E-02  .298E-02  .205E-02  .184E-02  .152E-02  .133E-02  .116E-02  .944E-03
  .871E-03  .857E-03  .822E-03  .777E-03  .630E-03  .508E-03  .414E-03  .330E-03
  .268E-03  .233E-03  .209E-03  .186E-03  .164E-03  .144E-03  .114E-03  .953E-04
  .813E-04  .704E-04  .626E-04  .000E+00  .000E+00  .000E+00  .000E+00  .000E+00
  .000E+00  .000E+00  .000E+00  .000E+00
  .174E+00  .179E+00  .133E+00  .153E+00  .222E+00  .296E+00  .486E+00  .682E+00
  .582E+00  .646E+00  .424E+00  .115E+01  .104E+01  .133E+01  .134E+01  .204E+01
  .201E+01  .755E+00  .133E+01  .177E+01  .221E+01  .411E+01  .451E+01  .456E+01
  .478E+01  .181E+01  .677E+01  .460E+01  .634E+01  .317E+01  .253E+01  .139E+01
  .157E+01  .210E+01  .235E+01  .243E+01  .281E+01  .261E+01  .187E+01  .226E+01
  .384E+01  .798E+01  .110E+02  .265E+02  .151E+02  .148E+02  .632E+01  .150E+02
  .611E+01  .901E+01  .481E+01  .360E+01  .284E+01  .354E+01  .314E+01  .208E+01
  .194E+01  .136E+01  .148E+01  .124E+01  .876E+00  .105E+01  .889E+00  .913E+00
  .702E+00  .549E+00  .404E+00  .385E+00  .336E+00  .311E+00  .285E+00  .244E+00
  .235E+00  .242E+00  .242E+00  .239E+00  .213E+00  .187E+00  .165E+00  .142E+00
  .124E+00  .115E+00  .109E+00  .103E+00  .955E-01  .883E-01  .772E-01  .702E-01
  .649E-01  .605E-01  .577E-01  .000E+00  .000E+00  .000E+00  .000E+00  .000E+00
  .000E+00  .000E+00  .000E+00  .000E+00
  .284E+02  .284E+02  .338E+02  .338E+02  .338E+02  .338E+02  .310E+02  .347E+02
  .297E+02  .294E+02  .328E+02  .376E+02  .303E+02  .338E+02  .294E+02  .311E+02
  .347E+02  .337E+02  .470E+02  .301E+02  .302E+02  .380E+02  .380E+02  .431E+02
  .330E+02  .376E+02  .384E+02  .369E+02  .346E+02  .310E+02  .340E+02  .380E+02
  .314E+02  .331E+02  .341E+02  .344E+02  .344E+02  .327E+02  .347E+02  .344E+02
  .613E+02  .331E+02  .373E+02  .420E+02  .353E+02  .592E+02  .430E+02  .770E+02
  .344E+02  .721E+02  .373E+02  .675E+02  .376E+02  .498E+02  .430E+02  .380E+02
  .425E+02  .318E+02  .543E+02  .376E+02  .318E+02  .344E+02  .376E+02  .771E+02
  .330E+02  .331E+02  .321E+02  .376E+02  .344E+02  .373E+02  .373E+02  .380E+02
  .330E+02  .330E+02  .330E+02  .330E+02  .331E+02  .331E+02  .373E+02  .380E+02
  .344E+02  .284E+02  .284E+02  .284E+02  .284E+02  .284E+02  .284E+02  .284E+02
  .284E+02  .330E+02  .330E+02  .000E+00  .000E+00  .000E+00  .000E+00  .000E+00
  .000E+00  .000E+00  .000E+00  .000E+00
  .294E+02  .284E+02  .298E+02  .298E+02  .344E+02  .361E+02  .300E+02  .347E+02
  .476E+02  .617E+02  .280E+02  .387E+02  .303E+02  .293E+02  .294E+02  .312E+02
  .347E+02  .337E+02  .470E+02  .301E+02  .304E+02  .358E+02  .737E+02  .431E+02
  .331E+02  .746E+02  .384E+02  .368E+02  .346E+02  .310E+02  .340E+02  .446E+02
  .313E+02  .331E+02  .378E+02  .345E+02  .378E+02  .326E+02  .346E+02  .286E+02
  .612E+02  .332E+02  .371E+02  .412E+02  .352E+02  .594E+02  .428E+02  .772E+02
  .342E+02  .733E+02  .370E+02  .385E+02  .378E+02  .534E+02  .433E+02  .345E+02
  .333E+02  .329E+02  .378E+02  .345E+02  .345E+02  .333E+02  .333E+02  .333E+02
  .333E+02  .329E+02  .329E+02  .329E+02  .333E+02  .333E+02  .333E+02  .333E+02
  .333E+02  .333E+02  .333E+02  .333E+02  .333E+02  .333E+02  .333E+02  .333E+02
  .333E+02  .333E+02  .333E+02  .333E+02  .333E+02  .333E+02  .333E+02  .333E+02
  .333E+02  .333E+02  .333E+02  .000E+00  .000E+00  .000E+00  .000E+00  .000E+00
  .000E+00  .000E+00  .000E+00  .000E+00
  .284E+02  .284E+02  .338E+02  .338E+02  .338E+02  .338E+02  .310E+02  .347E+02
  .297E+02  .294E+02  .328E+02  .376E+02  .303E+02  .338E+02  .294E+02  .311E+02
  .347E+02  .337E+02  .470E+02  .301E+02  .302E+02  .380E+02  .380E+02  .431E+02
  .330E+02  .376E+02  .384E+02  .369E+02  .346E+02  .310E+02  .340E+02  .380E+02
  .314E+02  .331E+02  .341E+02  .344E+02  .344E+02  .327E+02  .347E+02  .344E+02
  .613E+02  .331E+02  .373E+02  .420E+02  .353E+02  .592E+02  .430E+02  .770E+02
  .344E+02  .721E+02  .373E+02  .675E+02  .376E+02  .498E+02  .430E+02  .380E+02
  .425E+02  .318E+02  .543E+02  .376E+02  .318E+02  .344E+02  .376E+02  .771E+02
  .330E+02  .331E+02  .321E+02  .376E+02  .344E+02  .373E+02  .373E+02  .380E+02
  .330E+02  .330E+02  .330E+02  .330E+02  .331E+02  .331E+02  .373E+02  .380E+02
  .344E+02  .284E+02  .284E+02  .284E+02  .284E+02  .284E+02  .284E+02  .284E+02
  .284E+02  .330E+02  .330E+02  .000E+00  .000E+00  .000E+00  .000E+00  .000E+00
  .000E+00  .000E+00  .000E+00  .000E+00
Damping =  .02. Data of Sd,Sv,Sa,Pssv,ttSd,ttSv,ttSa :
  .689E-03  .780E-03  .804E-03  .943E-03  .111E-02  .112E-02  .164E-02  .176E-02
  .327E-02  .387E-02  .404E-02  .663E-02  .824E-02  .795E-02  .117E-01  .135E-01
  .118E-01  .932E-02  .130E-01  .192E-01  .307E-01  .405E-01  .548E-01  .426E-01
  .547E-01  .462E-01  .959E-01  .916E-01  .117E+00  .927E-01  .750E-01  .711E-01
  .650E-01  .898E-01  .933E-01  .985E-01  .110E+00  .116E+00  .137E+00  .161E+00
  .197E+00  .456E+00  .663E+00  .135E+01  .117E+01  .855E+00  .662E+00  .877E+00
  .687E+00  .622E+00  .593E+00  .431E+00  .440E+00  .398E+00  .478E+00  .355E+00
  .356E+00  .316E+00  .314E+00  .305E+00  .261E+00  .321E+00  .280E+00  .283E+00
  .288E+00  .248E+00  .189E+00  .186E+00  .178E+00  .170E+00  .167E+00  .152E+00
  .161E+00  .172E+00  .180E+00  .184E+00  .183E+00  .175E+00  .164E+00  .155E+00
  .147E+00  .146E+00  .146E+00  .146E+00  .144E+00  .140E+00  .136E+00  .134E+00
  .134E+00  .135E+00  .137E+00  .000E+00  .000E+00  .000E+00  .000E+00  .000E+00
  .000E+00  .000E+00  .000E+00  .000E+00
  .302E-01  .314E-01  .380E-01  .446E-01  .597E-01  .692E-01  .127E+00  .143E+00
  .212E+00  .250E+00  .257E+00  .473E+00  .565E+00  .526E+00  .696E+00  .753E+00
  .643E+00  .346E+00  .503E+00  .717E+00  .112E+01  .137E+01  .191E+01  .135E+01
  .160E+01  .139E+01  .266E+01  .232E+01  .275E+01  .201E+01  .135E+01  .102E+01
  .100E+01  .117E+01  .117E+01  .116E+01  .161E+01  .166E+01  .159E+01  .182E+01
  .239E+01  .466E+01  .675E+01  .127E+02  .108E+02  .714E+01  .558E+01  .671E+01
  .516E+01  .470E+01  .397E+01  .304E+01  .286E+01  .242E+01  .229E+01  .232E+01
  .230E+01  .196E+01  .178E+01  .168E+01  .173E+01  .166E+01  .188E+01  .177E+01
  .156E+01  .142E+01  .140E+01  .132E+01  .128E+01  .133E+01  .137E+01  .139E+01
  .139E+01  .138E+01  .136E+01  .135E+01  .132E+01  .129E+01  .128E+01  .128E+01
  .128E+01  .128E+01  .129E+01  .129E+01  .130E+01  .130E+01  .130E+01  .130E+01
  .130E+01  .130E+01  .130E+01  .000E+00  .000E+00  .000E+00  .000E+00  .000E+00
  .000E+00  .000E+00  .000E+00  .000E+00
  .440E-01  .452E-01  .425E-01  .455E-01  .491E-01  .456E-01  .557E-01  .502E-01
  .791E-01  .808E-01  .735E-01  .106E+00  .116E+00  .100E+00  .133E+00  .138E+00
  .100E+00  .661E-01  .786E-01  .101E+00  .140E+00  .162E+00  .195E+00  .135E+00
  .154E+00  .118E+00  .203E+00  .163E+00  .177E+00  .121E+00  .852E-01  .710E-01
  .575E-01  .709E-01  .660E-01  .629E-01  .637E-01  .611E-01  .661E-01  .716E-01
  .809E-01  .155E+00  .189E+00  .326E+00  .244E+00  .156E+00  .106E+00  .124E+00
  .868E-01  .706E-01  .607E-01  .365E-01  .313E-01  .241E-01  .250E-01  .162E-01
  .142E-01  .112E-01  .992E-02  .866E-02  .669E-02  .680E-02  .498E-02  .429E-02
  .377E-02  .284E-02  .191E-02  .167E-02  .142E-02  .122E-02  .109E-02  .914E-03
  .865E-03  .848E-03  .814E-03  .768E-03  .633E-03  .512E-03  .413E-03  .340E-03
  .292E-03  .259E-03  .233E-03  .209E-03  .187E-03  .167E-03  .137E-03  .117E-03
  .103E-03  .908E-04  .810E-04  .000E+00  .000E+00  .000E+00  .000E+00  .000E+00
  .000E+00  .000E+00  .000E+00  .000E+00
  .108E+00  .117E+00  .115E+00  .129E+00  .145E+00  .140E+00  .187E+00  .184E+00
  .316E+00  .348E+00  .339E+00  .521E+00  .609E+00  .555E+00  .772E+00  .849E+00
  .674E+00  .488E+00  .627E+00  .864E+00  .129E+01  .159E+01  .202E+01  .149E+01
  .181E+01  .145E+01  .274E+01  .240E+01  .282E+01  .208E+01  .157E+01  .140E+01
  .120E+01  .157E+01  .154E+01  .155E+01  .164E+01  .165E+01  .187E+01  .211E+01
  .248E+01  .521E+01  .694E+01  .130E+02  .105E+02  .716E+01  .520E+01  .648E+01
  .479E+01  .411E+01  .372E+01  .246E+01  .231E+01  .193E+01  .215E+01  .149E+01
  .140E+01  .117E+01  .109E+01  .101E+01  .819E+00  .916E+00  .733E+00  .683E+00
  .646E+00  .520E+00  .372E+00  .344E+00  .310E+00  .281E+00  .263E+00  .228E+00
  .230E+00  .236E+00  .236E+00  .231E+00  .209E+00  .183E+00  .158E+00  .139E+00
  .123E+00  .114E+00  .108E+00  .102E+00  .949E-01  .882E-01  .775E-01  .704E-01
  .649E-01  .606E-01  .575E-01  .000E+00  .000E+00  .000E+00  .000E+00  .000E+00
  .000E+00  .000E+00  .000E+00  .000E+00
  .338E+02  .338E+02  .338E+02  .338E+02  .338E+02  .338E+02  .297E+02  .288E+02
  .298E+02  .294E+02  .294E+02  .296E+02  .298E+02  .294E+02  .298E+02  .298E+02
  .296E+02  .315E+02  .298E+02  .298E+02  .303E+02  .311E+02  .305E+02  .341E+02
  .324E+02  .299E+02  .311E+02  .290E+02  .299E+02  .313E+02  .334E+02  .330E+02
  .314E+02  .331E+02  .331E+02  .344E+02  .344E+02  .325E+02  .344E+02  .344E+02
  .291E+02  .331E+02  .354E+02  .381E+02  .350E+02  .385E+02  .406E+02  .324E+02
  .321E+02  .384E+02  .337E+02  .338E+02  .376E+02  .434E+02  .430E+02  .334E+02
  .330E+02  .318E+02  .318E+02  .376E+02  .318E+02  .334E+02  .314E+02  .330E+02
  .330E+02  .331E+02  .321E+02  .309E+02  .344E+02  .373E+02  .373E+02  .284E+02
  .330E+02  .330E+02  .330E+02  .330E+02  .330E+02  .331E+02  .344E+02  .344E+02
  .344E+02  .284E+02  .284E+02  .284E+02  .284E+02  .284E+02  .284E+02  .284E+02
  .284E+02  .330E+02  .330E+02  .000E+00  .000E+00  .000E+00  .000E+00  .000E+00
  .000E+00  .000E+00  .000E+00  .000E+00
  .289E+02  .294E+02  .298E+02  .298E+02  .298E+02  .294E+02  .294E+02  .295E+02
  .295E+02  .293E+02  .294E+02  .296E+02  .293E+02  .293E+02  .298E+02  .303E+02
  .295E+02  .298E+02  .298E+02  .298E+02  .303E+02  .311E+02  .306E+02  .339E+02
  .323E+02  .299E+02  .312E+02  .290E+02  .299E+02  .310E+02  .339E+02  .330E+02
  .313E+02  .332E+02  .340E+02  .286E+02  .286E+02  .286E+02  .286E+02  .286E+02
  .289E+02  .329E+02  .356E+02  .383E+02  .348E+02  .387E+02  .329E+02  .322E+02
  .323E+02  .339E+02  .335E+02  .336E+02  .378E+02  .374E+02  .433E+02  .345E+02
  .333E+02  .329E+02  .378E+02  .315E+02  .345E+02  .333E+02  .333E+02  .333E+02
  .333E+02  .329E+02  .329E+02  .329E+02  .333E+02  .333E+02  .333E+02  .333E+02
  .333E+02  .333E+02  .333E+02  .333E+02  .333E+02  .333E+02  .333E+02  .333E+02
  .333E+02  .333E+02  .333E+02  .333E+02  .333E+02  .333E+02  .333E+02  .333E+02
  .333E+02  .333E+02  .333E+02  .000E+00  .000E+00  .000E+00  .000E+00  .000E+00
  .000E+00  .000E+00  .000E+00  .000E+00
  .338E+02  .338E+02  .338E+02  .338E+02  .338E+02  .338E+02  .297E+02  .288E+02
  .298E+02  .294E+02  .294E+02  .296E+02  .298E+02  .294E+02  .298E+02  .298E+02
  .296E+02  .315E+02  .298E+02  .298E+02  .303E+02  .311E+02  .305E+02  .341E+02
  .324E+02  .299E+02  .312E+02  .290E+02  .299E+02  .313E+02  .334E+02  .330E+02
  .314E+02  .331E+02  .331E+02  .344E+02  .344E+02  .324E+02  .344E+02  .344E+02
  .291E+02  .331E+02  .354E+02  .381E+02  .350E+02  .385E+02  .406E+02  .324E+02
  .321E+02  .383E+02  .337E+02  .338E+02  .376E+02  .434E+02  .430E+02  .334E+02
  .330E+02  .317E+02  .318E+02  .376E+02  .318E+02  .334E+02  .314E+02  .330E+02
  .330E+02  .330E+02  .321E+02  .309E+02  .344E+02  .372E+02  .372E+02  .284E+02
  .330E+02  .330E+02  .330E+02  .330E+02  .330E+02  .330E+02  .343E+02  .284E+02
  .284E+02  .284E+02  .284E+02  .284E+02  .284E+02  .284E+02  .284E+02  .333E+02
  .333E+02  .333E+02  .333E+02  .000E+00  .000E+00  .000E+00  .000E+00  .000E+00
  .000E+00  .000E+00  .000E+00  .000E+00
Damping =  .05. Data of Sd,Sv,Sa,Pssv,ttSd,ttSv,ttSa :
  .693E-03  .764E-03  .830E-03  .931E-03  .104E-02  .113E-02  .141E-02  .172E-02
  .232E-02  .275E-02  .347E-02  .444E-02  .556E-02  .599E-02  .809E-02  .946E-02
