Response and Fourier amplitude spectra (91 periods,  .04 - 15.0 sec)   for      
Corrected accelerogram   12299-K1643-10189.03       Chan  1:  Up         from   
Uncorrected Accelerogram Data             Processed: 07/13/10, CGS  bv003       
Record of Wed Jul  7, 2010 16:53:20.0 PDT             (Avol1 v8.9,05/09 CSMIP)  
CSMIP Preliminary Processing            (Origin:  To be determined)             
12299-K1643-10189.03                 Start time:  7/07/10, 23:53:20.0 UTC (GPS) 
Station No. 12299   33.834N, 116.541W        K2  s/n 1643 (12 Channels)         
Palm Springs - 4-story Hospital           CGS                                   
Chan  1:  Up                        Location: Basement: South Wall              
Record of Wed Jul  7, 2010 16:53:20.0 PDT    Wed Jul  7, 2010 16:53:20.0 PDT    
Hypocenter:  To be determined.               ML:  To be determined.
Instr Period =  .0105 sec,  Damping =  .650,  Sensitivity =  .63  v/g
                        Record length = 80.000 sec.
                                     Uncor Max  =  -.025 g , at  29.025 sec.
RMS accel of (uncor) record  =        .   Chn. metadata effective date: 06/30/10
Accelerogram bandpass filtered with 3 dB pts at   .13 and 40.00 cyc/sec
                 instrument- and baseline-corrected





Record of Wed Jul  7, 2010 16:53:20.0 PDT    Wed Jul  7, 2010 16:53:20.0 PDT

12299-K1643-10189.03      Palm Springs - 4-story Hospital   Chan  1:  Up

12299-K1643-10189.03      Palm Springs - 4-story Hospital   Chan  1:  Up

Units for spectra are inches and sec, except Sa is in fraction of g.

    1  100    1   12   12  200    1    3    1   24   11 1643    012299    2    0
   23   53   20    0  188    7    7 2010   10    3  50016000   41   31   76  360
16000    1  100    3 1643    1    3  800    2    0    0    0    0    0    0    0
    0    4    0    0 8000    2  222    1   18    4   76   31    3    1    0 8000
    3 8000   32   91    5   12    5    0    0    0   12    0    0    3    1    2
    2    2    4    0   72   99    0   32   32    0    0    1  100    0    0  333
    1    0    1    0
      .011      .650    80.000      .003      .000   625.000     -.025    29.025
    95.000      .298      .477      .000     5.000      .000     4.000      .000
     2.500    31.100     2.500  -999.000    23.000    30.000      .000      .000
      .000      .000     2.000    15.000    33.834  -116.541      .187      .457
     2.452     -.032      .032   143.000    23.100    48.900    13.300    97.160
     1.000    -1.058      .000      .000      .000      .000      .000      .000
     6.700     8.900     5.500   980.665      .010    80.000    15.120      .000
      .000    40.000      .000    80.000      .010      .125      .000      .000
    29.030   -24.243    28.360    -1.537    29.440     -.189      .000      .125
    40.000      .010      .010      .001      .010      .080      .000      .000
      .066      .170      .053      .046      .027      .001      .000      .000
      .000      .000      .000      .000      .000      .000      .000      .000
      .000      .000      .000      .000
      .000      .020      .050      .100      .200
      .040      .042      .044      .046      .048      .050      .055      .060
      .065      .070      .075      .080      .085      .090      .095      .100
      .110      .120      .130      .140      .150      .160      .170      .180
      .190      .200      .220      .240      .260      .280      .300      .320
      .340      .360      .380      .400      .420      .440      .460      .480
      .500      .550      .600      .650      .700      .750      .800      .850
      .900      .950     1.000     1.100     1.200     1.300     1.400     1.500
     1.600     1.700     1.800     1.900     2.000     2.200     2.400     2.600
     2.800     3.000     3.200     3.400     3.600     3.800     4.000     4.200
     4.400     4.600     4.800     5.000     5.500     6.000     6.500     7.000
     7.500     8.000     8.500     9.000     9.500    10.000    11.000    12.000
    13.000    14.000    15.000      .000      .000      .000      .000      .000
      .000      .000      .000      .000
Fourier amplitude spectra in in/sec.
  .244E+00  .256E+00  .378E+00  .551E-01  .458E+00  .423E+00  .125E+01  .734E+00
  .297E+00  .521E-01  .311E+00  .898E+00  .518E+00  .615E+00  .760E+00  .101E+01
  .219E+01  .381E+00  .140E+01  .138E+01  .296E+00  .131E+01  .677E+00  .132E+01
  .256E+01  .853E+00  .187E+01  .164E+01  .395E+01  .241E+01  .440E+00  .146E+01
  .165E+01  .211E+01  .363E+01  .134E+01  .505E+01  .121E+01  .233E+01  .285E+01
  .916E+00  .483E+00  .529E+00  .403E+01  .160E+01  .618E+01  .183E+01  .604E+01
  .450E+01  .332E+01  .137E+01  .198E+01  .861E+00  .762E+00  .397E+00  .372E+00
  .255E+00  .194E+00  .308E+00  .385E+00  .302E+00  .163E+00  .151E+00  .963E-01
  .111E+00  .163E+00  .114E+00  .174E+00  .121E+00  .152E+00  .136E+00  .906E-01
  .528E-01  .564E-01  .434E-01  .529E-01  .547E-01  .451E-01  .422E-01  .227E-01
  .171E-01  .180E-01  .112E-01  .422E-02  .261E-02  .244E-02  .273E-02  .183E-02
  .521E-03  .145E-03  .268E-03  .000E+00  .000E+00  .000E+00  .000E+00  .000E+00
  .000E+00  .000E+00  .000E+00  .000E+00
Damping =  .00. Data of Sd,Sv,Sa,Pssv,ttSd,ttSv,ttSa :
  .200E-02  .228E-02  .308E-02  .283E-02  .381E-02  .388E-02  .110E-01  .712E-02
  .521E-02  .318E-02  .512E-02  .122E-01  .826E-02  .920E-02  .181E-01  .246E-01
  .394E-01  .164E-01  .292E-01  .403E-01  .212E-01  .464E-01  .367E-01  .476E-01
  .851E-01  .582E-01  .863E-01  .660E-01  .166E+00  .119E+00  .689E-01  .779E-01
  .111E+00  .136E+00  .227E+00  .964E-01  .359E+00  .104E+00  .280E+00  .244E+00
  .229E+00  .175E+00  .232E+00  .503E+00  .191E+00  .738E+00  .464E+00  .937E+00
  .716E+00  .683E+00  .462E+00  .368E+00  .262E+00  .247E+00  .210E+00  .142E+00
  .108E+00  .126E+00  .142E+00  .149E+00  .172E+00  .128E+00  .107E+00  .904E-01
  .107E+00  .119E+00  .130E+00  .132E+00  .127E+00  .120E+00  .108E+00  .947E-01
  .896E-01  .842E-01  .772E-01  .752E-01  .826E-01  .860E-01  .880E-01  .866E-01
  .855E-01  .864E-01  .871E-01  .864E-01  .845E-01  .821E-01  .789E-01  .780E-01
  .781E-01  .778E-01  .772E-01  .000E+00  .000E+00  .000E+00  .000E+00  .000E+00
  .000E+00  .000E+00  .000E+00  .000E+00
  .290E+00  .320E+00  .427E+00  .331E+00  .494E+00  .473E+00  .126E+01  .739E+00
  .473E+00  .255E+00  .368E+00  .944E+00  .605E+00  .627E+00  .120E+01  .158E+01
  .223E+01  .800E+00  .141E+01  .177E+01  .826E+00  .177E+01  .137E+01  .164E+01
  .281E+01  .176E+01  .245E+01  .172E+01  .402E+01  .265E+01  .139E+01  .152E+01
  .204E+01  .230E+01  .368E+01  .155E+01  .531E+01  .144E+01  .372E+01  .321E+01
  .276E+01  .198E+01  .238E+01  .476E+01  .171E+01  .618E+01  .363E+01  .703E+01
  .502E+01  .454E+01  .313E+01  .212E+01  .160E+01  .129E+01  .105E+01  .850E+00
  .778E+00  .729E+00  .898E+00  .821E+00  .787E+00  .715E+00  .640E+00  .615E+00
  .644E+00  .716E+00  .756E+00  .737E+00  .690E+00  .683E+00  .678E+00  .665E+00
  .654E+00  .643E+00  .632E+00  .622E+00  .612E+00  .613E+00  .616E+00  .617E+00
  .616E+00  .616E+00  .616E+00  .616E+00  .615E+00  .614E+00  .611E+00  .609E+00
  .608E+00  .607E+00  .607E+00  .000E+00  .000E+00  .000E+00  .000E+00  .000E+00
  .000E+00  .000E+00  .000E+00  .000E+00
  .128E+00  .132E+00  .163E+00  .137E+00  .169E+00  .159E+00  .371E+00  .202E+00
  .126E+00  .663E-01  .930E-01  .195E+00  .117E+00  .116E+00  .205E+00  .251E+00
  .333E+00  .116E+00  .177E+00  .211E+00  .965E-01  .185E+00  .130E+00  .150E+00
  .241E+00  .149E+00  .182E+00  .117E+00  .251E+00  .155E+00  .783E-01  .778E-01
  .983E-01  .107E+00  .161E+00  .616E-01  .208E+00  .550E-01  .135E+00  .108E+00
  .938E-01  .591E-01  .659E-01  .122E+00  .400E-01  .134E+00  .742E-01  .133E+00
  .904E-01  .774E-01  .473E-01  .311E-01  .186E-01  .149E-01  .109E-01  .645E-02
  .433E-02  .446E-02  .447E-02  .422E-02  .440E-02  .270E-02  .191E-02  .137E-02
  .140E-02  .135E-02  .130E-02  .117E-02  .100E-02  .852E-03  .691E-03  .549E-03
  .473E-03  .407E-03  .343E-03  .308E-03  .279E-03  .244E-03  .213E-03  .181E-03
  .155E-03  .138E-03  .123E-03  .109E-03  .958E-04  .840E-04  .666E-04  .554E-04
  .472E-04  .406E-04  .351E-04  .000E+00  .000E+00  .000E+00  .000E+00  .000E+00
  .000E+00  .000E+00  .000E+00  .000E+00
  .315E+00  .341E+00  .440E+00  .386E+00  .498E+00  .488E+00  .125E+01  .745E+00
  .503E+00  .285E+00  .429E+00  .959E+00  .610E+00  .642E+00  .119E+01  .154E+01
  .225E+01  .856E+00  .141E+01  .181E+01  .889E+00  .182E+01  .136E+01  .166E+01
  .281E+01  .183E+01  .246E+01  .173E+01  .400E+01  .266E+01  .144E+01  .153E+01
  .205E+01  .238E+01  .376E+01  .151E+01  .537E+01  .149E+01  .382E+01  .319E+01
  .288E+01  .200E+01  .243E+01  .486E+01  .172E+01  .619E+01  .365E+01  .693E+01
  .500E+01  .452E+01  .291E+01  .210E+01  .137E+01  .119E+01  .941E+00  .595E+00
  .426E+00  .466E+00  .495E+00  .493E+00  .540E+00  .365E+00  .281E+00  .218E+00
  .240E+00  .248E+00  .255E+00  .244E+00  .222E+00  .199E+00  .170E+00  .142E+00
  .128E+00  .115E+00  .101E+00  .945E-01  .943E-01  .901E-01  .851E-01  .777E-01
  .716E-01  .678E-01  .643E-01  .603E-01  .559E-01  .516E-01  .450E-01  .409E-01
  .377E-01  .349E-01  .323E-01  .000E+00  .000E+00  .000E+00  .000E+00  .000E+00
  .000E+00  .000E+00  .000E+00  .000E+00
  .293E+02  .315E+02  .299E+02  .294E+02  .429E+02  .391E+02  .668E+02  .577E+02
  .361E+02  .309E+02  .290E+02  .461E+02  .527E+02  .237E+02  .262E+02  .304E+02
  .476E+02  .230E+02  .752E+02  .297E+02  .287E+02  .294E+02  .283E+02  .292E+02
  .353E+02  .298E+02  .317E+02  .595E+02  .504E+02  .410E+02  .295E+02  .579E+02
  .445E+02  .310E+02  .337E+02  .251E+02  .464E+02  .376E+02  .337E+02  .389E+02
  .311E+02  .289E+02  .330E+02  .380E+02  .737E+02  .788E+02  .320E+02  .385E+02
  .598E+02  .495E+02  .308E+02  .673E+02  .294E+02  .431E+02  .376E+02  .290E+02
  .290E+02  .377E+02  .295E+02  .290E+02  .290E+02  .290E+02  .285E+02  .285E+02
  .311E+02  .311E+02  .285E+02  .285E+02  .285E+02  .307E+02  .307E+02  .307E+02
  .294E+02  .294E+02  .294E+02  .358E+02  .307E+02  .285E+02  .285E+02  .285E+02
  .294E+02  .294E+02  .294E+02  .294E+02  .294E+02  .294E+02  .294E+02  .294E+02
  .294E+02  .294E+02  .294E+02  .000E+00  .000E+00  .000E+00  .000E+00  .000E+00
  .000E+00  .000E+00  .000E+00  .000E+00
  .293E+02  .317E+02  .299E+02  .294E+02  .429E+02  .391E+02  .646E+02  .573E+02
  .362E+02  .309E+02  .291E+02  .466E+02  .527E+02  .424E+02  .262E+02  .304E+02
  .486E+02  .231E+02  .758E+02  .297E+02  .287E+02  .295E+02  .280E+02  .292E+02
  .353E+02  .297E+02  .316E+02  .594E+02  .505E+02  .410E+02  .296E+02  .580E+02
  .524E+02  .318E+02  .336E+02  .292E+02  .463E+02  .452E+02  .336E+02  .390E+02
  .312E+02  .288E+02  .328E+02  .379E+02  .735E+02  .790E+02  .318E+02  .387E+02
  .631E+02  .498E+02  .305E+02  .675E+02  .297E+02  .383E+02  .360E+02  .309E+02
  .283E+02  .283E+02  .309E+02  .309E+02  .286E+02  .286E+02  .283E+02  .309E+02
  .309E+02  .309E+02  .309E+02  .309E+02  .309E+02  .283E+02  .283E+02  .283E+02
  .283E+02  .283E+02  .283E+02  .283E+02  .283E+02  .283E+02  .283E+02  .283E+02
  .283E+02  .283E+02  .283E+02  .283E+02  .283E+02  .283E+02  .283E+02  .283E+02
  .283E+02  .283E+02  .283E+02  .000E+00  .000E+00  .000E+00  .000E+00  .000E+00
  .000E+00  .000E+00  .000E+00  .000E+00
  .293E+02  .315E+02  .299E+02  .294E+02  .429E+02  .391E+02  .668E+02  .577E+02
  .361E+02  .309E+02  .290E+02  .461E+02  .527E+02  .237E+02  .262E+02  .304E+02
  .476E+02  .230E+02  .752E+02  .297E+02  .287E+02  .294E+02  .283E+02  .292E+02
  .353E+02  .298E+02  .317E+02  .595E+02  .504E+02  .410E+02  .295E+02  .579E+02
  .445E+02  .310E+02  .337E+02  .251E+02  .464E+02  .376E+02  .337E+02  .389E+02
  .311E+02  .289E+02  .330E+02  .380E+02  .737E+02  .788E+02  .320E+02  .385E+02
  .598E+02  .495E+02  .308E+02  .673E+02  .294E+02  .431E+02  .376E+02  .290E+02
  .290E+02  .377E+02  .295E+02  .290E+02  .290E+02  .290E+02  .285E+02  .285E+02
  .311E+02  .311E+02  .285E+02  .285E+02  .285E+02  .307E+02  .307E+02  .307E+02
  .294E+02  .294E+02  .294E+02  .358E+02  .307E+02  .285E+02  .285E+02  .285E+02
  .294E+02  .294E+02  .294E+02  .294E+02  .294E+02  .294E+02  .294E+02  .294E+02
  .294E+02  .294E+02  .294E+02  .000E+00  .000E+00  .000E+00  .000E+00  .000E+00
  .000E+00  .000E+00  .000E+00  .000E+00
Damping =  .02. Data of Sd,Sv,Sa,Pssv,ttSd,ttSv,ttSa :
  .621E-03  .862E-03  .960E-03  .108E-02  .114E-02  .138E-02  .229E-02  .244E-02
  .199E-02  .195E-02  .264E-02  .384E-02  .421E-02  .585E-02  .687E-02  .947E-02
  .774E-02  .101E-01  .124E-01  .121E-01  .128E-01  .240E-01  .242E-01  .261E-01
  .261E-01  .293E-01  .284E-01  .271E-01  .530E-01  .529E-01  .513E-01  .395E-01
  .532E-01  .817E-01  .806E-01  .973E-01  .131E+00  .832E-01  .111E+00  .119E+00
  .142E+00  .131E+00  .154E+00  .235E+00  .145E+00  .251E+00  .383E+00  .525E+00
  .458E+00  .414E+00  .354E+00  .207E+00  .219E+00  .184E+00  .149E+00  .128E+00
  .106E+00  .103E+00  .124E+00  .137E+00  .154E+00  .125E+00  .104E+00  .926E-01
  .101E+00  .113E+00  .123E+00  .126E+00  .122E+00  .114E+00  .103E+00  .930E-01
  .865E-01  .822E-01  .770E-01  .751E-01  .808E-01  .851E-01  .869E-01  .860E-01
  .848E-01  .853E-01  .858E-01  .853E-01  .838E-01  .819E-01  .790E-01  .781E-01
  .779E-01  .776E-01  .771E-01  .000E+00  .000E+00  .000E+00  .000E+00  .000E+00
  .000E+00  .000E+00  .000E+00  .000E+00
  .843E-01  .123E+00  .122E+00  .110E+00  .118E+00  .126E+00  .234E+00  .227E+00
  .173E+00  .145E+00  .196E+00  .235E+00  .296E+00  .320E+00  .382E+00  .565E+00
  .393E+00  .492E+00  .571E+00  .504E+00  .445E+00  .862E+00  .889E+00  .878E+00
  .859E+00  .917E+00  .775E+00  .740E+00  .123E+01  .106E+01  .104E+01  .740E+00
  .881E+00  .130E+01  .129E+01  .154E+01  .194E+01  .123E+01  .147E+01  .145E+01
  .166E+01  .147E+01  .163E+01  .222E+01  .137E+01  .222E+01  .310E+01  .381E+01
  .342E+01  .319E+01  .236E+01  .133E+01  .138E+01  .101E+01  .842E+00  .765E+00
  .726E+00  .718E+00  .822E+00  .768E+00  .747E+00  .704E+00  .619E+00  .615E+00
  .645E+00  .700E+00  .731E+00  .719E+00  .682E+00  .670E+00  .667E+00  .659E+00
  .649E+00  .640E+00  .630E+00  .622E+00  .612E+00  .612E+00  .614E+00  .615E+00
  .615E+00  .615E+00  .615E+00  .614E+00  .614E+00  .612E+00  .610E+00  .608E+00
  .607E+00  .607E+00  .606E+00  .000E+00  .000E+00  .000E+00  .000E+00  .000E+00
  .000E+00  .000E+00  .000E+00  .000E+00
  .396E-01  .500E-01  .508E-01  .527E-01  .504E-01  .566E-01  .774E-01  .691E-01
  .483E-01  .407E-01  .481E-01  .611E-01  .596E-01  .742E-01  .781E-01  .973E-01
  .649E-01  .724E-01  .748E-01  .631E-01  .579E-01  .959E-01  .855E-01  .826E-01
  .739E-01  .754E-01  .602E-01  .482E-01  .801E-01  .690E-01  .584E-01  .394E-01
  .470E-01  .646E-01  .573E-01  .622E-01  .758E-01  .440E-01  .538E-01  .528E-01
  .580E-01  .443E-01  .438E-01  .568E-01  .303E-01  .457E-01  .613E-01  .744E-01
  .579E-01  .469E-01  .362E-01  .175E-01  .156E-01  .112E-01  .776E-02  .580E-02
  .427E-02  .366E-02  .393E-02  .389E-02  .396E-02  .266E-02  .185E-02  .141E-02
  .132E-02  .129E-02  .124E-02  .112E-02  .970E-03  .813E-03  .670E-03  .549E-03
  .470E-03  .410E-03  .355E-03  .316E-03  .283E-03  .247E-03  .216E-03  .188E-03
  .168E-03  .151E-03  .136E-03  .122E-03  .109E-03  .976E-04  .803E-04  .685E-04
  .599E-04  .529E-04  .470E-04  .000E+00  .000E+00  .000E+00  .000E+00  .000E+00
  .000E+00  .000E+00  .000E+00  .000E+00
  .976E-01  .129E+00  .137E+00  .148E+00  .149E+00  .173E+00  .262E+00  .255E+00
  .192E+00  .175E+00  .221E+00  .302E+00  .311E+00  .408E+00  .454E+00  .595E+00
  .442E+00  .530E+00  .602E+00  .545E+00  .534E+00  .944E+00  .896E+00  .910E+00
  .864E+00  .921E+00  .811E+00  .710E+00  .128E+01  .119E+01  .107E+01  .775E+00
  .983E+00  .143E+01  .133E+01  .153E+01  .196E+01  .119E+01  .152E+01  .156E+01
  .178E+01  .150E+01  .161E+01  .227E+01  .130E+01  .211E+01  .301E+01  .388E+01
  .320E+01  .274E+01  .222E+01  .118E+01  .114E+01  .891E+00  .667E+00  .534E+00
  .418E+00  .381E+00  .434E+00  .453E+00  .484E+00  .356E+00  .271E+00  .224E+00
  .226E+00  .236E+00  .242E+00  .233E+00  .213E+00  .188E+00  .162E+00  .139E+00
  .124E+00  .112E+00  .101E+00  .944E-01  .923E-01  .891E-01  .840E-01  .772E-01
  .711E-01  .670E-01  .634E-01  .595E-01  .554E-01  .514E-01  .451E-01  .409E-01
  .377E-01  .348E-01  .323E-01  .000E+00  .000E+00  .000E+00  .000E+00  .000E+00
  .000E+00  .000E+00  .000E+00  .000E+00
  .228E+02  .231E+02  .231E+02  .294E+02  .290E+02  .290E+02  .229E+02  .303E+02
  .228E+02  .290E+02  .285E+02  .286E+02  .295E+02  .286E+02  .290E+02  .295E+02
  .230E+02  .230E+02  .303E+02  .298E+02  .286E+02  .294E+02  .291E+02  .291E+02
  .232E+02  .232E+02  .316E+02  .322E+02  .318E+02  .307E+02  .295E+02  .295E+02
  .310E+02  .310E+02  .304E+02  .291E+02  .285E+02  .288E+02  .326E+02  .346E+02
  .311E+02  .358E+02  .330E+02  .377E+02  .299E+02  .319E+02  .320E+02  .317E+02
  .310E+02  .306E+02  .303E+02  .365E+02  .294E+02  .386E+02  .362E+02  .295E+02
  .290E+02  .294E+02  .295E+02  .290E+02  .290E+02  .290E+02  .285E+02  .285E+02
  .311E+02  .285E+02  .285E+02  .285E+02  .285E+02  .285E+02  .307E+02  .307E+02
  .294E+02  .294E+02  .294E+02  .285E+02  .307E+02  .285E+02  .285E+02  .285E+02
  .285E+02  .294E+02  .294E+02  .294E+02  .294E+02  .294E+02  .294E+02  .294E+02
  .294E+02  .294E+02  .294E+02  .000E+00  .000E+00  .000E+00  .000E+00  .000E+00
  .000E+00  .000E+00  .000E+00  .000E+00
  .234E+02  .233E+02  .233E+02  .289E+02  .289E+02  .289E+02  .229E+02  .228E+02
  .228E+02  .297E+02  .285E+02  .281E+02  .295E+02  .286E+02  .293E+02  .295E+02
  .230E+02  .231E+02  .303E+02  .297E+02  .286E+02  .295E+02  .291E+02  .291E+02
  .232E+02  .232E+02  .316E+02  .230E+02  .318E+02  .296E+02  .296E+02  .296E+02
  .314E+02  .309E+02  .319E+02  .292E+02  .291E+02  .287E+02  .325E+02  .347E+02
  .310E+02  .352E+02  .329E+02  .369E+02  .341E+02  .321E+02  .318E+02  .319E+02
  .316E+02  .309E+02  .305E+02  .301E+02  .296E+02  .383E+02  .296E+02  .309E+02
  .283E+02  .309E+02  .309E+02  .309E+02  .286E+02  .286E+02  .283E+02  .309E+02
  .309E+02  .309E+02  .309E+02  .309E+02  .309E+02  .283E+02  .283E+02  .283E+02
  .283E+02  .283E+02  .283E+02  .283E+02  .283E+02  .283E+02  .283E+02  .283E+02
  .283E+02  .283E+02  .283E+02  .283E+02  .283E+02  .283E+02  .283E+02  .283E+02
  .283E+02  .283E+02  .283E+02  .000E+00  .000E+00  .000E+00  .000E+00  .000E+00
  .000E+00  .000E+00  .000E+00  .000E+00
  .228E+02  .231E+02  .231E+02  .294E+02  .290E+02  .290E+02  .229E+02  .303E+02
  .228E+02  .290E+02  .285E+02  .286E+02  .295E+02  .286E+02  .290E+02  .295E+02
  .230E+02  .230E+02  .303E+02  .298E+02  .286E+02  .294E+02  .291E+02  .291E+02
  .232E+02  .232E+02  .316E+02  .322E+02  .318E+02  .307E+02  .295E+02  .295E+02
  .310E+02  .310E+02  .304E+02  .291E+02  .285E+02  .288E+02  .326E+02  .346E+02
  .311E+02  .358E+02  .330E+02  .377E+02  .299E+02  .319E+02  .320E+02  .317E+02
  .310E+02  .306E+02  .303E+02  .365E+02  .294E+02  .386E+02  .362E+02  .294E+02
  .290E+02  .294E+02  .294E+02  .290E+02  .290E+02  .290E+02  .285E+02  .285E+02
  .310E+02  .285E+02  .285E+02  .285E+02  .285E+02  .285E+02  .307E+02  .307E+02
  .294E+02  .294E+02  .294E+02  .307E+02  .307E+02  .285E+02  .285E+02  .294E+02
  .294E+02  .294E+02  .294E+02  .294E+02  .294E+02  .294E+02  .294E+02  .294E+02
  .294E+02  .294E+02  .294E+02  .000E+00  .000E+00  .000E+00  .000E+00  .000E+00
  .000E+00  .000E+00  .000E+00  .000E+00
Damping =  .05. Data of Sd,Sv,Sa,Pssv,ttSd,ttSv,ttSa :
  .556E-03  .697E-03  .788E-03  .801E-03  .845E-03  .107E-02  .161E-02  .189E-02
  .173E-02  .165E-02  .209E-02  .285E-02  .322E-02  .434E-02  .516E-02  .541E-02
