Response and Fourier amplitude spectra (91 periods,  .04 - 15.0 sec)   for      
Corrected accelerogram   12299-K1643-10189.03       Chan 12: 360 Deg     from   
Uncorrected Accelerogram Data             Processed: 07/13/10, CGS  bv003       
Record of Wed Jul  7, 2010 16:53:20.0 PDT             (Avol1 v8.9,05/09 CSMIP)  
CSMIP Preliminary Processing            (Origin:  To be determined)             
12299-K1643-10189.03                 Start time:  7/07/10, 23:53:20.0 UTC (GPS) 
Station No. 12299   33.834N, 116.541W        K2  s/n 1643 (12 Channels)         
Palm Springs - 4-story Hospital           CGS                                   
Chan 12: 360 DegR (Sta Chn: 13)     Location: Basement: South Wall              
Record of Wed Jul  7, 2010 16:53:20.0 PDT    Wed Jul  7, 2010 16:53:20.0 PDT    
Hypocenter:  To be determined.               ML:  To be determined.
Instr Period =  .0105 sec,  Damping =  .650,  Sensitivity =  .63  v/g
                        Record length = 80.000 sec.
                                     Uncor Max  =  -.033 g , at  28.755 sec.
RMS accel of (uncor) record  =        .   Chn. metadata effective date: 06/30/10
Accelerogram bandpass filtered with 3 dB pts at   .13 and 40.00 cyc/sec
                 instrument- and baseline-corrected





Record of Wed Jul  7, 2010 16:53:20.0 PDT    Wed Jul  7, 2010 16:53:20.0 PDT

12299-K1643-10189.03      Palm Springs - 4-story Hospital   Chan 12: 360 Deg

12299-K1643-10189.03      Palm Springs - 4-story Hospital   Chan 12: 360 Deg

Units for spectra are inches and sec, except Sa is in fraction of g.

   12  100   13   12   12  200    1    3    1   24   11 1643    012299    2    0
   23   53   20    0  188    7    7 2010   10    3  36016000   41   31   76  360
16000    1  100    3 1643    1    3  800    2    0    0    0    0    0    0    0
    0    4    0    0 8000    2  222    1   18    4   76   31    3    1    0 8000
    3 8000   32   91    5   12    5    0    0    0   12    0    0    3    1    2
    2    2    4    0   72   99    0   32   32    0    0    1  100    0    0  333
    1    0    1    0
      .011      .650    80.000      .003      .000   625.000     -.033    28.755
    95.000      .298      .477      .000     5.000      .000     4.000      .000
     2.500    12.840     2.500  -999.000    23.000    30.000      .000      .001
      .002      .001     2.000    15.000    33.834  -116.541      .092      .539
     5.868     -.027      .029   143.000    23.100    48.900    13.300    97.160
     1.000     1.007      .000      .000      .000      .000      .000      .000
     6.700     8.900     5.500   980.665      .010    80.000    15.120      .000
      .000    40.000      .000    80.000      .010      .125      .000      .000
    28.760   -31.273    28.680     2.556    28.460     -.358      .000      .125
    40.000      .010      .010      .000      .010      .123      .000      .000
      .094      .460      .075      .052      .026      .003      .000      .000
      .000      .000      .000      .000      .000      .000      .000      .000
      .000      .000      .000      .000
      .000      .020      .050      .100      .200
      .040      .042      .044      .046      .048      .050      .055      .060
      .065      .070      .075      .080      .085      .090      .095      .100
      .110      .120      .130      .140      .150      .160      .170      .180
      .190      .200      .220      .240      .260      .280      .300      .320
      .340      .360      .380      .400      .420      .440      .460      .480
      .500      .550      .600      .650      .700      .750      .800      .850
      .900      .950     1.000     1.100     1.200     1.300     1.400     1.500
     1.600     1.700     1.800     1.900     2.000     2.200     2.400     2.600
     2.800     3.000     3.200     3.400     3.600     3.800     4.000     4.200
     4.400     4.600     4.800     5.000     5.500     6.000     6.500     7.000
     7.500     8.000     8.500     9.000     9.500    10.000    11.000    12.000
    13.000    14.000    15.000      .000      .000      .000      .000      .000
      .000      .000      .000      .000
Fourier amplitude spectra in in/sec.
  .147E+00  .679E-01  .120E+00  .219E+00  .304E+00  .850E-01  .237E+00  .280E+00
  .192E+00  .105E+00  .601E+00  .647E+00  .379E+00  .351E+00  .134E+01  .918E+00
  .998E+00  .586E+00  .363E+00  .361E-01  .169E+01  .143E+01  .100E+01  .212E+01
  .119E+01  .208E+01  .505E+01  .372E+01  .282E+01  .441E+01  .187E+01  .857E+00
  .161E+01  .154E+01  .120E+01  .466E+01  .292E+01  .282E+01  .600E+01  .628E+01
  .629E+01  .257E+01  .106E+02  .249E+01  .473E+01  .622E+01  .451E+01  .267E+01
  .556E+01  .276E+01  .144E+01  .252E+01  .224E+01  .473E+01  .154E+01  .371E+01
  .278E+01  .147E+01  .488E+00  .751E+00  .676E+00  .675E+00  .688E+00  .762E+00
  .368E+00  .160E+00  .368E+00  .303E+00  .118E+00  .448E-01  .108E+00  .142E+00
  .801E-01  .123E+00  .888E-01  .917E-01  .749E-01  .353E-01  .375E-01  .910E-02
  .102E-01  .858E-02  .794E-02  .135E-01  .140E-01  .130E-01  .114E-01  .614E-02
  .431E-02  .349E-02  .235E-02  .000E+00  .000E+00  .000E+00  .000E+00  .000E+00
  .000E+00  .000E+00  .000E+00  .000E+00
Damping =  .00. Data of Sd,Sv,Sa,Pssv,ttSd,ttSv,ttSa :
  .117E-02  .758E-03  .153E-02  .225E-02  .246E-02  .218E-02  .313E-02  .506E-02
  .515E-02  .244E-02  .751E-02  .902E-02  .594E-02  .105E-01  .204E-01  .254E-01
  .225E-01  .179E-01  .148E-01  .187E-01  .471E-01  .521E-01  .408E-01  .652E-01
  .485E-01  .728E-01  .191E+00  .179E+00  .136E+00  .212E+00  .107E+00  .681E-01
  .945E-01  .946E-01  .254E+00  .327E+00  .222E+00  .316E+00  .541E+00  .568E+00
  .537E+00  .436E+00  .107E+01  .521E+00  .590E+00  .748E+00  .728E+00  .483E+00
  .841E+00  .459E+00  .394E+00  .449E+00  .496E+00  .985E+00  .810E+00  .994E+00
  .764E+00  .445E+00  .413E+00  .391E+00  .326E+00  .350E+00  .350E+00  .361E+00
  .279E+00  .293E+00  .265E+00  .229E+00  .190E+00  .154E+00  .142E+00  .136E+00
  .159E+00  .173E+00  .178E+00  .174E+00  .143E+00  .147E+00  .152E+00  .152E+00
  .149E+00  .145E+00  .140E+00  .137E+00  .135E+00  .134E+00  .135E+00  .138E+00
  .140E+00  .140E+00  .141E+00  .000E+00  .000E+00  .000E+00  .000E+00  .000E+00
  .000E+00  .000E+00  .000E+00  .000E+00
  .162E+00  .807E-01  .172E+00  .261E+00  .314E+00  .247E+00  .303E+00  .486E+00
  .402E+00  .191E+00  .624E+00  .685E+00  .423E+00  .649E+00  .134E+01  .159E+01
  .118E+01  .851E+00  .653E+00  .740E+00  .188E+01  .189E+01  .145E+01  .224E+01
  .152E+01  .219E+01  .537E+01  .453E+01  .323E+01  .477E+01  .222E+01  .124E+01
  .171E+01  .168E+01  .401E+01  .511E+01  .327E+01  .449E+01  .736E+01  .744E+01
  .671E+01  .504E+01  .112E+02  .552E+01  .531E+01  .627E+01  .573E+01  .371E+01
  .585E+01  .302E+01  .249E+01  .258E+01  .263E+01  .477E+01  .374E+01  .421E+01
  .302E+01  .199E+01  .177E+01  .205E+01  .199E+01  .149E+01  .131E+01  .135E+01
  .135E+01  .125E+01  .112E+01  .102E+01  .963E+00  .941E+00  .947E+00  .971E+00
  .995E+00  .101E+01  .103E+01  .104E+01  .105E+01  .104E+01  .103E+01  .102E+01
  .102E+01  .101E+01  .101E+01  .101E+01  .101E+01  .101E+01  .101E+01  .101E+01
  .101E+01  .101E+01  .101E+01  .000E+00  .000E+00  .000E+00  .000E+00  .000E+00
  .000E+00  .000E+00  .000E+00  .000E+00
  .751E-01  .440E-01  .809E-01  .109E+00  .109E+00  .894E-01  .106E+00  .144E+00
  .125E+00  .510E-01  .137E+00  .144E+00  .841E-01  .133E+00  .231E+00  .259E+00
  .190E+00  .127E+00  .897E-01  .973E-01  .214E+00  .208E+00  .144E+00  .206E+00
  .137E+00  .186E+00  .404E+00  .318E+00  .206E+00  .277E+00  .122E+00  .680E-01
  .836E-01  .747E-01  .180E+00  .209E+00  .129E+00  .167E+00  .262E+00  .252E+00
  .220E+00  .147E+00  .305E+00  .126E+00  .123E+00  .136E+00  .116E+00  .683E-01
  .106E+00  .521E-01  .403E-01  .380E-01  .353E-01  .596E-01  .422E-01  .452E-01
  .305E-01  .157E-01  .130E-01  .111E-01  .833E-02  .740E-02  .621E-02  .546E-02
  .363E-02  .333E-02  .264E-02  .203E-02  .150E-02  .109E-02  .908E-03  .791E-03
  .840E-03  .837E-03  .792E-03  .712E-03  .483E-03  .418E-03  .369E-03  .318E-03
  .271E-03  .231E-03  .199E-03  .173E-03  .153E-03  .137E-03  .115E-03  .979E-04
  .845E-04  .733E-04  .640E-04  .000E+00  .000E+00  .000E+00  .000E+00  .000E+00
  .000E+00  .000E+00  .000E+00  .000E+00
  .184E+00  .113E+00  .219E+00  .307E+00  .323E+00  .274E+00  .358E+00  .529E+00
  .498E+00  .219E+00  .629E+00  .709E+00  .439E+00  .736E+00  .135E+01  .159E+01
  .129E+01  .935E+00  .716E+00  .837E+00  .197E+01  .205E+01  .151E+01  .228E+01
  .160E+01  .229E+01  .545E+01  .469E+01  .329E+01  .476E+01  .225E+01  .134E+01
  .175E+01  .165E+01  .420E+01  .513E+01  .332E+01  .451E+01  .739E+01  .744E+01
  .675E+01  .498E+01  .113E+02  .504E+01  .529E+01  .627E+01  .571E+01  .357E+01
  .587E+01  .304E+01  .247E+01  .256E+01  .260E+01  .476E+01  .363E+01  .416E+01
  .300E+01  .164E+01  .144E+01  .129E+01  .102E+01  .100E+01  .916E+00  .872E+00
  .625E+00  .614E+00  .520E+00  .423E+00  .332E+00  .255E+00  .223E+00  .204E+00
  .227E+00  .237E+00  .233E+00  .219E+00  .163E+00  .154E+00  .147E+00  .137E+00
  .125E+00  .114E+00  .104E+00  .956E-01  .892E-01  .843E-01  .774E-01  .722E-01
  .674E-01  .630E-01  .590E-01  .000E+00  .000E+00  .000E+00  .000E+00  .000E+00
  .000E+00  .000E+00  .000E+00  .000E+00
  .308E+02  .288E+02  .284E+02  .299E+02  .447E+02  .287E+02  .284E+02  .292E+02
  .288E+02  .279E+02  .525E+02  .385E+02  .289E+02  .289E+02  .699E+02  .292E+02
  .300E+02  .299E+02  .291E+02  .295E+02  .324E+02  .300E+02  .363E+02  .444E+02
  .332E+02  .322E+02  .444E+02  .324E+02  .409E+02  .461E+02  .318E+02  .320E+02
  .394E+02  .288E+02  .298E+02  .363E+02  .508E+02  .311E+02  .330E+02  .331E+02
  .422E+02  .318E+02  .572E+02  .309E+02  .433E+02  .765E+02  .561E+02  .605E+02
  .605E+02  .726E+02  .372E+02  .692E+02  .696E+02  .771E+02  .331E+02  .454E+02
  .733E+02  .328E+02  .306E+02  .299E+02  .363E+02  .384E+02  .403E+02  .397E+02
  .324E+02  .313E+02  .285E+02  .285E+02  .285E+02  .285E+02  .278E+02  .313E+02
  .314E+02  .314E+02  .314E+02  .314E+02  .314E+02  .284E+02  .284E+02  .284E+02
  .284E+02  .284E+02  .284E+02  .284E+02  .284E+02  .284E+02  .284E+02  .284E+02
  .284E+02  .284E+02  .284E+02  .000E+00  .000E+00  .000E+00  .000E+00  .000E+00
  .000E+00  .000E+00  .000E+00  .000E+00
  .412E+02  .452E+02  .283E+02  .406E+02  .453E+02  .287E+02  .284E+02  .293E+02
  .288E+02  .278E+02  .528E+02  .386E+02  .504E+02  .289E+02  .711E+02  .293E+02
  .300E+02  .299E+02  .290E+02  .295E+02  .324E+02  .301E+02  .362E+02  .460E+02
  .332E+02  .322E+02  .444E+02  .328E+02  .408E+02  .462E+02  .319E+02  .405E+02
  .395E+02  .289E+02  .301E+02  .470E+02  .506E+02  .309E+02  .375E+02  .330E+02
  .421E+02  .319E+02  .573E+02  .307E+02  .431E+02  .763E+02  .559E+02  .335E+02
  .607E+02  .728E+02  .374E+02  .689E+02  .693E+02  .774E+02  .328E+02  .450E+02
  .729E+02  .325E+02  .287E+02  .287E+02  .287E+02  .287E+02  .287E+02  .287E+02
  .287E+02  .287E+02  .287E+02  .287E+02  .287E+02  .287E+02  .287E+02  .287E+02
  .287E+02  .287E+02  .287E+02  .287E+02  .287E+02  .287E+02  .287E+02  .287E+02
  .287E+02  .287E+02  .287E+02  .287E+02  .287E+02  .287E+02  .287E+02  .287E+02
  .287E+02  .287E+02  .287E+02  .000E+00  .000E+00  .000E+00  .000E+00  .000E+00
  .000E+00  .000E+00  .000E+00  .000E+00
  .308E+02  .288E+02  .284E+02  .299E+02  .447E+02  .287E+02  .284E+02  .292E+02
  .288E+02  .279E+02  .525E+02  .385E+02  .289E+02  .289E+02  .699E+02  .292E+02
  .300E+02  .299E+02  .291E+02  .295E+02  .324E+02  .300E+02  .363E+02  .444E+02
  .332E+02  .322E+02  .444E+02  .324E+02  .409E+02  .461E+02  .318E+02  .320E+02
  .394E+02  .288E+02  .298E+02  .363E+02  .508E+02  .311E+02  .330E+02  .331E+02
  .422E+02  .318E+02  .572E+02  .309E+02  .433E+02  .765E+02  .561E+02  .605E+02
  .605E+02  .726E+02  .372E+02  .692E+02  .696E+02  .771E+02  .331E+02  .454E+02
  .733E+02  .328E+02  .306E+02  .299E+02  .363E+02  .384E+02  .403E+02  .397E+02
  .324E+02  .313E+02  .285E+02  .285E+02  .285E+02  .285E+02  .278E+02  .313E+02
  .314E+02  .314E+02  .314E+02  .314E+02  .314E+02  .284E+02  .284E+02  .284E+02
  .284E+02  .284E+02  .284E+02  .284E+02  .284E+02  .284E+02  .284E+02  .284E+02
  .284E+02  .284E+02  .284E+02  .000E+00  .000E+00  .000E+00  .000E+00  .000E+00
  .000E+00  .000E+00  .000E+00  .000E+00
Damping =  .02. Data of Sd,Sv,Sa,Pssv,ttSd,ttSv,ttSa :
  .612E-03  .767E-03  .888E-03  .118E-02  .976E-03  .101E-02  .148E-02  .220E-02
  .253E-02  .251E-02  .284E-02  .455E-02  .489E-02  .694E-02  .100E-01  .123E-01
  .141E-01  .107E-01  .122E-01  .119E-01  .242E-01  .338E-01  .319E-01  .263E-01
  .279E-01  .353E-01  .577E-01  .755E-01  .645E-01  .682E-01  .634E-01  .505E-01
  .727E-01  .837E-01  .124E+00  .177E+00  .155E+00  .221E+00  .326E+00  .342E+00
  .273E+00  .328E+00  .414E+00  .410E+00  .427E+00  .404E+00  .399E+00  .382E+00
  .374E+00  .324E+00  .282E+00  .238E+00  .277E+00  .511E+00  .573E+00  .560E+00
  .467E+00  .343E+00  .328E+00  .327E+00  .281E+00  .290E+00  .261E+00  .264E+00
  .242E+00  .260E+00  .251E+00  .223E+00  .189E+00  .158E+00  .133E+00  .136E+00
  .153E+00  .165E+00  .169E+00  .166E+00  .142E+00  .145E+00  .150E+00  .150E+00
  .148E+00  .144E+00  .141E+00  .138E+00  .136E+00  .135E+00  .136E+00  .138E+00
  .139E+00  .140E+00  .141E+00  .000E+00  .000E+00  .000E+00  .000E+00  .000E+00
  .000E+00  .000E+00  .000E+00  .000E+00
  .408E-01  .482E-01  .627E-01  .118E+00  .955E-01  .863E-01  .134E+00  .189E+00
  .203E+00  .148E+00  .198E+00  .296E+00  .283E+00  .398E+00  .565E+00  .692E+00
  .737E+00  .497E+00  .555E+00  .511E+00  .898E+00  .117E+01  .119E+01  .871E+00
  .809E+00  .978E+00  .160E+01  .187E+01  .141E+01  .141E+01  .137E+01  .878E+00
  .128E+01  .138E+01  .180E+01  .257E+01  .221E+01  .313E+01  .428E+01  .447E+01
  .359E+01  .388E+01  .442E+01  .430E+01  .406E+01  .358E+01  .361E+01  .306E+01
  .278E+01  .255E+01  .226E+01  .151E+01  .182E+01  .249E+01  .273E+01  .257E+01
  .199E+01  .159E+01  .168E+01  .189E+01  .186E+01  .151E+01  .134E+01  .134E+01
  .132E+01  .124E+01  .113E+01  .104E+01  .988E+00  .965E+00  .965E+00  .981E+00
  .999E+00  .102E+01  .103E+01  .104E+01  .105E+01  .104E+01  .103E+01  .102E+01
  .102E+01  .101E+01  .101E+01  .101E+01  .101E+01  .101E+01  .101E+01  .101E+01
  .101E+01  .101E+01  .101E+01  .000E+00  .000E+00  .000E+00  .000E+00  .000E+00
  .000E+00  .000E+00  .000E+00  .000E+00
  .391E-01  .445E-01  .470E-01  .573E-01  .432E-01  .411E-01  .499E-01  .627E-01
  .611E-01  .525E-01  .517E-01  .730E-01  .695E-01  .881E-01  .113E+00  .125E+00
  .118E+00  .757E-01  .744E-01  .623E-01  .110E+00  .135E+00  .113E+00  .829E-01
  .788E-01  .906E-01  .122E+00  .134E+00  .973E-01  .889E-01  .723E-01  .505E-01
  .643E-01  .661E-01  .878E-01  .113E+00  .899E-01  .117E+00  .157E+00  .152E+00
  .112E+00  .111E+00  .118E+00  .992E-01  .892E-01  .736E-01  .638E-01  .542E-01
  .472E-01  .367E-01  .288E-01  .201E-01  .197E-01  .310E-01  .299E-01  .255E-01
  .187E-01  .122E-01  .104E-01  .929E-02  .722E-02  .613E-02  .465E-02  .401E-02
  .318E-02  .297E-02  .252E-02  .199E-02  .151E-02  .114E-02  .866E-03  .801E-03
  .825E-03  .812E-03  .766E-03  .695E-03  .494E-03  .428E-03  .379E-03  .330E-03
  .285E-03  .247E-03  .215E-03  .190E-03  .170E-03  .154E-03  .131E-03  .113E-03
  .997E-04  .884E-04  .790E-04  .000E+00  .000E+00  .000E+00  .000E+00  .000E+00
  .000E+00  .000E+00  .000E+00  .000E+00
  .962E-01  .115E+00  .127E+00  .161E+00  .128E+00  .127E+00  .169E+00  .230E+00
  .244E+00  .226E+00  .238E+00  .357E+00  .361E+00  .485E+00  .663E+00  .771E+00
  .806E+00  .558E+00  .590E+00  .534E+00  .101E+01  .133E+01  .118E+01  .918E+00
  .922E+00  .111E+01  .165E+01  .198E+01  .156E+01  .153E+01  .133E+01  .991E+00
  .134E+01  .146E+01  .205E+01  .278E+01  .232E+01  .316E+01  .445E+01  .448E+01
  .343E+01  .374E+01  .434E+01  .396E+01  .383E+01  .339E+01  .313E+01  .283E+01
  .261E+01  .214E+01  .177E+01  .136E+01  .145E+01  .247E+01  .257E+01  .234E+01
  .183E+01  .127E+01  .115E+01  .108E+01  .884E+00  .827E+00  .684E+00  .638E+00
  .543E+00  .545E+00  .493E+00  .411E+00  .330E+00  .261E+00  .209E+00  .203E+00
  .219E+00  .225E+00  .222E+00  .209E+00  .162E+00  .152E+00  .145E+00  .135E+00
  .124E+00  .113E+00  .104E+00  .961E-01  .898E-01  .848E-01  .776E-01  .722E-01
  .674E-01  .629E-01  .589E-01  .000E+00  .000E+00  .000E+00  .000E+00  .000E+00
  .000E+00  .000E+00  .000E+00  .000E+00
  .287E+02  .288E+02  .288E+02  .288E+02  .288E+02  .288E+02  .296E+02  .300E+02
  .295E+02  .288E+02  .296E+02  .289E+02  .289E+02  .289E+02  .289E+02  .292E+02
  .293E+02  .293E+02  .290E+02  .290E+02  .300E+02  .300E+02  .294E+02  .295E+02
  .301E+02  .308E+02  .291E+02  .295E+02  .288E+02  .314E+02  .309E+02  .298E+02
  .325E+02  .326E+02  .298E+02  .327E+02  .306E+02  .306E+02  .328E+02  .328E+02
  .322E+02  .315E+02  .308E+02  .303E+02  .300E+02  .301E+02  .298E+02  .298E+02
  .291E+02  .291E+02  .287E+02  .405E+02  .371E+02  .426E+02  .331E+02  .423E+02
  .397E+02  .327E+02  .298E+02  .299E+02  .284E+02  .327E+02  .367E+02  .320E+02
  .284E+02  .313E+02  .284E+02  .285E+02  .285E+02  .285E+02  .278E+02  .313E+02
  .314E+02  .314E+02  .314E+02  .314E+02  .314E+02  .284E+02  .284E+02  .284E+02
  .284E+02  .284E+02  .284E+02  .284E+02  .284E+02  .284E+02  .284E+02  .284E+02
  .284E+02  .284E+02  .284E+02  .000E+00  .000E+00  .000E+00  .000E+00  .000E+00
  .000E+00  .000E+00  .000E+00  .000E+00
  .279E+02  .280E+02  .284E+02  .288E+02  .288E+02  .288E+02  .289E+02  .290E+02
  .295E+02  .295E+02  .280E+02  .289E+02  .289E+02  .280E+02  .289E+02  .292E+02
  .293E+02  .293E+02  .290E+02  .290E+02  .300E+02  .294E+02  .294E+02  .294E+02
  .290E+02  .308E+02  .309E+02  .295E+02  .288E+02  .315E+02  .310E+02  .289E+02
  .325E+02  .326E+02  .302E+02  .326E+02  .305E+02  .305E+02  .329E+02  .330E+02
  .323E+02  .316E+02  .309E+02  .304E+02  .302E+02  .299E+02  .299E+02  .296E+02
  .297E+02  .289E+02  .289E+02  .289E+02  .289E+02  .423E+02  .328E+02  .420E+02
  .386E+02  .325E+02  .287E+02  .287E+02  .287E+02  .287E+02  .287E+02  .287E+02
  .287E+02  .287E+02  .287E+02  .287E+02  .287E+02  .287E+02  .287E+02  .287E+02
  .287E+02  .287E+02  .287E+02  .287E+02  .287E+02  .287E+02  .287E+02  .287E+02
  .287E+02  .287E+02  .287E+02  .287E+02  .287E+02  .287E+02  .287E+02  .287E+02
  .287E+02  .287E+02  .287E+02  .000E+00  .000E+00  .000E+00  .000E+00  .000E+00
  .000E+00  .000E+00  .000E+00  .000E+00
  .287E+02  .288E+02  .288E+02  .288E+02  .288E+02  .288E+02  .296E+02  .291E+02
  .295E+02  .288E+02  .296E+02  .289E+02  .289E+02  .289E+02  .289E+02  .292E+02
  .293E+02  .293E+02  .290E+02  .290E+02  .300E+02  .300E+02  .294E+02  .295E+02
  .301E+02  .308E+02  .291E+02  .295E+02  .288E+02  .314E+02  .309E+02  .298E+02
  .324E+02  .326E+02  .298E+02  .327E+02  .306E+02  .306E+02  .328E+02  .328E+02
  .322E+02  .315E+02  .308E+02  .303E+02  .300E+02  .301E+02  .298E+02  .298E+02
  .291E+02  .291E+02  .287E+02  .405E+02  .371E+02  .426E+02  .331E+02  .423E+02
  .397E+02  .327E+02  .298E+02  .299E+02  .284E+02  .327E+02  .367E+02  .320E+02
  .284E+02  .313E+02  .284E+02  .284E+02  .284E+02  .284E+02  .284E+02  .313E+02
  .313E+02  .313E+02  .313E+02  .313E+02  .313E+02  .284E+02  .284E+02  .284E+02
  .284E+02  .284E+02  .284E+02  .284E+02  .284E+02  .284E+02  .284E+02  .284E+02
  .284E+02  .284E+02  .284E+02  .000E+00  .000E+00  .000E+00  .000E+00  .000E+00
  .000E+00  .000E+00  .000E+00  .000E+00
Damping =  .05. Data of Sd,Sv,Sa,Pssv,ttSd,ttSv,ttSa :
  .614E-03  .731E-03  .851E-03  .958E-03  .950E-03  .104E-02  .137E-02  .174E-02
  .199E-02  .231E-02  .257E-02  .347E-02  .452E-02  .568E-02  .683E-02  .738E-02
