Response and Fourier amplitude spectra (91 periods,  .04 - 15.0 sec)   for      
Corrected accelerogram   12299-K1643-10189.03       Chan 10: 360 Deg     from   
Uncorrected Accelerogram Data             Processed: 07/13/10, CGS  bv003       
Record of Wed Jul  7, 2010 16:53:20.0 PDT             (Avol1 v8.9,05/09 CSMIP)  
CSMIP Preliminary Processing            (Origin:  To be determined)             
12299-K1643-10189.03                 Start time:  7/07/10, 23:53:20.0 UTC (GPS) 
Station No. 12299   33.834N, 116.541W        K2  s/n 1643 (12 Channels)         
Palm Springs - 4-story Hospital           CGS                                   
Chan 10: 360 DegR (Sta Chn: 11)     Location: 3rd Floor: Near Center            
Record of Wed Jul  7, 2010 16:53:20.0 PDT    Wed Jul  7, 2010 16:53:20.0 PDT    
Hypocenter:  To be determined.               ML:  To be determined.
Instr Period =  .0109 sec,  Damping =  .660,  Sensitivity =  .63  v/g
                        Record length = 80.000 sec.
                                     Uncor Max  =   .084 g , at  30.010 sec.
RMS accel of (uncor) record  =        .   Chn. metadata effective date: 06/30/10
Accelerogram bandpass filtered with 3 dB pts at   .13 and 40.00 cyc/sec
                 instrument- and baseline-corrected





Record of Wed Jul  7, 2010 16:53:20.0 PDT    Wed Jul  7, 2010 16:53:20.0 PDT

12299-K1643-10189.03      Palm Springs - 4-story Hospital   Chan 10: 360 Deg

12299-K1643-10189.03      Palm Springs - 4-story Hospital   Chan 10: 360 Deg

Units for spectra are inches and sec, except Sa is in fraction of g.

   10  100   11   12   12  200    1    3    1   24   11 1643    012299    2    0
   23   53   20    0  188    7    7 2010   10    3  36016000   41   31   76  360
16000    0  100    3 1643    1    3  800    2    0    0    0    0    0    0    0
    0    4    0    0 8000    2  222    1   18    4   76   31    3    1    0 8000
    3 8000   32   91    5   12    5    0    0    0   12    0    0    3    1    2
    2    2    4    0   72   99    0   32   32    0    0    1  100    0    0  222
    1    0    1    0
      .011      .660    80.000      .009      .000   628.000      .084    30.010
    91.900      .298      .475      .000     5.000      .000     4.000      .000
     2.500   -14.765     2.500  -999.000    23.000    30.000      .000     -.001
     -.007     -.006     2.000    15.000    33.834  -116.541      .070     1.729
    24.677     -.088      .076   143.000    23.100    48.900    13.300    97.160
     1.000     1.063      .000      .000      .000      .000      .000      .000
     6.700     8.900     5.500   980.665      .010    80.000    14.626      .000
      .000    40.000      .000    80.000      .010      .125      .000      .000
    30.010    81.259    29.810    -6.535    29.990     -.766      .000      .125
    40.000      .010      .010      .000     1.720      .372      .000      .000
      .354      .650      .151      .078      .076      .005      .000      .000
      .000      .000      .000      .000      .000      .000      .000      .000
      .000      .000      .000      .000
      .000      .020      .050      .100      .200
      .040      .042      .044      .046      .048      .050      .055      .060
      .065      .070      .075      .080      .085      .090      .095      .100
      .110      .120      .130      .140      .150      .160      .170      .180
      .190      .200      .220      .240      .260      .280      .300      .320
      .340      .360      .380      .400      .420      .440      .460      .480
      .500      .550      .600      .650      .700      .750      .800      .850
      .900      .950     1.000     1.100     1.200     1.300     1.400     1.500
     1.600     1.700     1.800     1.900     2.000     2.200     2.400     2.600
     2.800     3.000     3.200     3.400     3.600     3.800     4.000     4.200
     4.400     4.600     4.800     5.000     5.500     6.000     6.500     7.000
     7.500     8.000     8.500     9.000     9.500    10.000    11.000    12.000
    13.000    14.000    15.000      .000      .000      .000      .000      .000
      .000      .000      .000      .000
Fourier amplitude spectra in in/sec.
  .106E+00  .574E-01  .132E+00  .181E-01  .234E+00  .110E+00  .339E+00  .125E+00
  .168E-01  .794E-01  .283E+00  .323E+00  .364E+00  .330E+00  .109E+01  .122E+01
  .743E+00  .107E+01  .743E+00  .120E+01  .206E+01  .110E+01  .595E+00  .328E+01
  .448E+01  .354E+01  .601E+01  .142E+01  .101E+01  .986E+00  .404E+00  .230E+00
  .234E+00  .363E+00  .473E+00  .112E+01  .146E+01  .777E+00  .279E+01  .424E+01
  .514E+01  .145E+01  .294E+02  .104E+02  .498E+02  .270E+02  .146E+02  .803E+01
  .117E+02  .435E+01  .209E+01  .386E+01  .321E+01  .606E+01  .193E+01  .452E+01
  .329E+01  .170E+01  .541E+00  .861E+00  .721E+00  .727E+00  .731E+00  .803E+00
  .378E+00  .176E+00  .389E+00  .316E+00  .115E+00  .363E-01  .782E-01  .126E+00
  .660E-01  .990E-01  .588E-01  .720E-01  .737E-01  .315E-01  .291E-01  .850E-02
  .123E-01  .655E-02  .623E-02  .542E-02  .275E-02  .117E-02  .294E-02  .253E-02
  .342E-02  .177E-02  .250E-02  .000E+00  .000E+00  .000E+00  .000E+00  .000E+00
  .000E+00  .000E+00  .000E+00  .000E+00
Damping =  .00. Data of Sd,Sv,Sa,Pssv,ttSd,ttSv,ttSa :
  .171E-02  .148E-02  .237E-02  .212E-02  .254E-02  .221E-02  .437E-02  .328E-02
  .475E-02  .568E-02  .827E-02  .769E-02  .889E-02  .112E-01  .223E-01  .335E-01
  .239E-01  .357E-01  .282E-01  .396E-01  .654E-01  .592E-01  .658E-01  .120E+00
  .171E+00  .146E+00  .226E+00  .105E+00  .727E-01  .722E-01  .672E-01  .827E-01
  .997E-01  .116E+00  .190E+00  .173E+00  .203E+00  .298E+00  .398E+00  .493E+00
  .482E+00  .755E+00  .329E+01  .283E+01  .575E+01  .323E+01  .228E+01  .177E+01
  .178E+01  .108E+01  .910E+00  .712E+00  .731E+00  .127E+01  .115E+01  .123E+01
  .911E+00  .634E+00  .659E+00  .749E+00  .656E+00  .466E+00  .426E+00  .429E+00
  .468E+00  .459E+00  .404E+00  .391E+00  .349E+00  .324E+00  .341E+00  .339E+00
  .321E+00  .319E+00  .329E+00  .331E+00  .330E+00  .323E+00  .313E+00  .304E+00
  .298E+00  .295E+00  .297E+00  .297E+00  .297E+00  .296E+00  .295E+00  .295E+00
  .296E+00  .297E+00  .298E+00  .000E+00  .000E+00  .000E+00  .000E+00  .000E+00
  .000E+00  .000E+00  .000E+00  .000E+00
  .118E+00  .925E-01  .151E+00  .105E+00  .239E+00  .142E+00  .371E+00  .166E+00
  .240E+00  .276E+00  .383E+00  .356E+00  .384E+00  .449E+00  .110E+01  .178E+01
  .115E+01  .136E+01  .108E+01  .150E+01  .240E+01  .182E+01  .243E+01  .420E+01
  .546E+01  .439E+01  .638E+01  .245E+01  .163E+01  .134E+01  .111E+01  .110E+01
  .140E+01  .151E+01  .264E+01  .207E+01  .231E+01  .367E+01  .498E+01  .596E+01
  .566E+01  .759E+01  .343E+02  .271E+02  .515E+02  .271E+02  .181E+02  .142E+02
  .127E+02  .869E+01  .698E+01  .451E+01  .530E+01  .637E+01  .589E+01  .566E+01
  .396E+01  .402E+01  .435E+01  .380E+01  .391E+01  .344E+01  .316E+01  .313E+01
  .299E+01  .277E+01  .267E+01  .272E+01  .276E+01  .273E+01  .268E+01  .268E+01
  .270E+01  .269E+01  .267E+01  .265E+01  .262E+01  .260E+01  .261E+01  .260E+01
  .260E+01  .259E+01  .259E+01  .259E+01  .258E+01  .258E+01  .258E+01  .258E+01
  .258E+01  .257E+01  .257E+01  .000E+00  .000E+00  .000E+00  .000E+00  .000E+00
  .000E+00  .000E+00  .000E+00  .000E+00
  .109E+00  .857E-01  .125E+00  .102E+00  .113E+00  .903E-01  .148E+00  .932E-01
  .115E+00  .119E+00  .150E+00  .123E+00  .126E+00  .142E+00  .253E+00  .343E+00
  .202E+00  .253E+00  .171E+00  .207E+00  .297E+00  .237E+00  .233E+00  .380E+00
  .484E+00  .374E+00  .477E+00  .187E+00  .110E+00  .942E-01  .764E-01  .826E-01
  .882E-01  .917E-01  .134E+00  .110E+00  .118E+00  .157E+00  .192E+00  .219E+00
  .197E+00  .255E+00  .935E+00  .686E+00  .120E+01  .588E+00  .364E+00  .251E+00
  .225E+00  .123E+00  .930E-01  .602E-01  .519E-01  .769E-01  .601E-01  .560E-01
  .364E-01  .224E-01  .208E-01  .212E-01  .168E-01  .986E-02  .757E-02  .650E-02
  .611E-02  .521E-02  .403E-02  .346E-02  .275E-02  .230E-02  .218E-02  .197E-02
  .170E-02  .154E-02  .146E-02  .136E-02  .112E-02  .918E-03  .758E-03  .635E-03
  .542E-03  .472E-03  .421E-03  .376E-03  .336E-03  .302E-03  .249E-03  .210E-03
  .179E-03  .155E-03  .136E-03  .000E+00  .000E+00  .000E+00  .000E+00  .000E+00
  .000E+00  .000E+00  .000E+00  .000E+00
  .268E+00  .221E+00  .339E+00  .289E+00  .333E+00  .277E+00  .499E+00  .344E+00
  .459E+00  .510E+00  .693E+00  .604E+00  .657E+00  .785E+00  .147E+01  .211E+01
  .136E+01  .187E+01  .136E+01  .178E+01  .274E+01  .233E+01  .243E+01  .420E+01
  .565E+01  .460E+01  .644E+01  .276E+01  .176E+01  .162E+01  .141E+01  .162E+01
  .184E+01  .203E+01  .313E+01  .272E+01  .303E+01  .425E+01  .544E+01  .645E+01
  .606E+01  .863E+01  .345E+02  .274E+02  .516E+02  .271E+02  .179E+02  .131E+02
  .125E+02  .718E+01  .572E+01  .406E+01  .383E+01  .614E+01  .517E+01  .516E+01
  .358E+01  .234E+01  .230E+01  .248E+01  .206E+01  .133E+01  .112E+01  .104E+01
  .105E+01  .960E+00  .792E+00  .723E+00  .608E+00  .536E+00  .536E+00  .507E+00
  .459E+00  .436E+00  .431E+00  .416E+00  .377E+00  .338E+00  .303E+00  .273E+00
  .250E+00  .232E+00  .220E+00  .208E+00  .196E+00  .186E+00  .168E+00  .155E+00
  .143E+00  .133E+00  .125E+00  .000E+00  .000E+00  .000E+00  .000E+00  .000E+00
  .000E+00  .000E+00  .000E+00  .000E+00
  .300E+02  .290E+02  .300E+02  .290E+02  .300E+02  .290E+02  .303E+02  .290E+02
  .300E+02  .290E+02  .300E+02  .300E+02  .290E+02  .290E+02  .290E+02  .294E+02
  .303E+02  .300E+02  .339E+02  .306E+02  .306E+02  .303E+02  .266E+02  .473E+02
  .343E+02  .318E+02  .392E+02  .299E+02  .304E+02  .338E+02  .300E+02  .299E+02
  .300E+02  .303E+02  .300E+02  .303E+02  .299E+02  .303E+02  .332E+02  .336E+02
  .342E+02  .300E+02  .601E+02  .324E+02  .378E+02  .773E+02  .569E+02  .303E+02
  .614E+02  .296E+02  .296E+02  .620E+02  .618E+02  .426E+02  .331E+02  .453E+02
  .733E+02  .328E+02  .299E+02  .300E+02  .300E+02  .328E+02  .402E+02  .398E+02
  .296E+02  .296E+02  .303E+02  .303E+02  .303E+02  .300E+02  .300E+02  .300E+02
  .300E+02  .296E+02  .296E+02  .296E+02  .296E+02  .303E+02  .303E+02  .303E+02
  .303E+02  .300E+02  .300E+02  .300E+02  .300E+02  .300E+02  .300E+02  .300E+02
  .300E+02  .300E+02  .300E+02  .000E+00  .000E+00  .000E+00  .000E+00  .000E+00
  .000E+00  .000E+00  .000E+00  .000E+00
  .373E+02  .390E+02  .314E+02  .289E+02  .427E+02  .348E+02  .348E+02  .283E+02
  .283E+02  .360E+02  .296E+02  .407E+02  .503E+02  .290E+02  .706E+02  .294E+02
  .273E+02  .364E+02  .338E+02  .346E+02  .336E+02  .282E+02  .266E+02  .465E+02
  .343E+02  .318E+02  .391E+02  .298E+02  .350E+02  .337E+02  .301E+02  .301E+02
  .301E+02  .301E+02  .301E+02  .301E+02  .298E+02  .304E+02  .347E+02  .337E+02
  .400E+02  .301E+02  .603E+02  .323E+02  .380E+02  .775E+02  .447E+02  .305E+02
  .616E+02  .298E+02  .294E+02  .294E+02  .294E+02  .429E+02  .334E+02  .450E+02
  .400E+02  .301E+02  .302E+02  .302E+02  .298E+02  .298E+02  .298E+02  .298E+02
  .298E+02  .298E+02  .294E+02  .302E+02  .302E+02  .302E+02  .302E+02  .298E+02
  .298E+02  .298E+02  .298E+02  .298E+02  .298E+02  .302E+02  .302E+02  .302E+02
  .302E+02  .302E+02  .302E+02  .302E+02  .302E+02  .302E+02  .302E+02  .302E+02
  .302E+02  .302E+02  .302E+02  .000E+00  .000E+00  .000E+00  .000E+00  .000E+00
  .000E+00  .000E+00  .000E+00  .000E+00
  .300E+02  .290E+02  .300E+02  .290E+02  .300E+02  .290E+02  .303E+02  .290E+02
  .300E+02  .290E+02  .300E+02  .300E+02  .290E+02  .290E+02  .290E+02  .294E+02
  .303E+02  .300E+02  .339E+02  .306E+02  .306E+02  .303E+02  .266E+02  .473E+02
  .343E+02  .318E+02  .392E+02  .299E+02  .304E+02  .338E+02  .300E+02  .299E+02
  .300E+02  .303E+02  .300E+02  .303E+02  .299E+02  .303E+02  .332E+02  .336E+02
  .342E+02  .300E+02  .601E+02  .324E+02  .378E+02  .773E+02  .569E+02  .303E+02
  .614E+02  .296E+02  .296E+02  .620E+02  .618E+02  .426E+02  .331E+02  .453E+02
  .733E+02  .328E+02  .299E+02  .300E+02  .300E+02  .328E+02  .402E+02  .398E+02
  .296E+02  .296E+02  .303E+02  .303E+02  .303E+02  .300E+02  .300E+02  .300E+02
  .300E+02  .296E+02  .296E+02  .296E+02  .296E+02  .303E+02  .303E+02  .303E+02
  .303E+02  .300E+02  .300E+02  .300E+02  .300E+02  .300E+02  .300E+02  .300E+02
  .300E+02  .300E+02  .300E+02  .000E+00  .000E+00  .000E+00  .000E+00  .000E+00
  .000E+00  .000E+00  .000E+00  .000E+00
Damping =  .02. Data of Sd,Sv,Sa,Pssv,ttSd,ttSv,ttSa :
  .141E-02  .150E-02  .168E-02  .184E-02  .196E-02  .209E-02  .258E-02  .330E-02
  .402E-02  .489E-02  .631E-02  .689E-02  .857E-02  .103E-01  .130E-01  .139E-01
  .222E-01  .224E-01  .216E-01  .237E-01  .419E-01  .554E-01  .699E-01  .576E-01
  .731E-01  .778E-01  .102E+00  .719E-01  .569E-01  .582E-01  .669E-01  .802E-01
  .984E-01  .112E+00  .150E+00  .175E+00  .195E+00  .267E+00  .320E+00  .344E+00
  .353E+00  .657E+00  .137E+01  .204E+01  .268E+01  .195E+01  .174E+01  .152E+01
  .127E+01  .991E+00  .845E+00  .585E+00  .626E+00  .763E+00  .857E+00  .721E+00
  .595E+00  .523E+00  .602E+00  .668E+00  .610E+00  .418E+00  .393E+00  .414E+00
  .446E+00  .437E+00  .389E+00  .373E+00  .342E+00  .314E+00  .330E+00  .329E+00
  .316E+00  .314E+00  .323E+00  .327E+00  .327E+00  .319E+00  .312E+00  .304E+00
  .299E+00  .294E+00  .296E+00  .297E+00  .296E+00  .295E+00  .295E+00  .295E+00
  .296E+00  .297E+00  .298E+00  .000E+00  .000E+00  .000E+00  .000E+00  .000E+00
  .000E+00  .000E+00  .000E+00  .000E+00
  .362E-01  .423E-01  .478E-01  .574E-01  .638E-01  .749E-01  .928E-01  .122E+00
  .140E+00  .158E+00  .245E+00  .237E+00  .290E+00  .365E+00  .515E+00  .566E+00
  .972E+00  .654E+00  .751E+00  .878E+00  .159E+01  .181E+01  .211E+01  .149E+01
  .178E+01  .199E+01  .257E+01  .172E+01  .111E+01  .101E+01  .106E+01  .114E+01
  .137E+01  .149E+01  .197E+01  .205E+01  .224E+01  .315E+01  .371E+01  .389E+01
  .385E+01  .654E+01  .135E+02  .193E+02  .244E+02  .167E+02  .145E+02  .121E+02
  .101E+02  .812E+01  .660E+01  .473E+01  .492E+01  .484E+01  .465E+01  .413E+01
  .359E+01  .389E+01  .405E+01  .366E+01  .370E+01  .340E+01  .316E+01  .310E+01
  .297E+01  .279E+01  .264E+01  .269E+01  .272E+01  .271E+01  .267E+01  .267E+01
  .268E+01  .268E+01  .266E+01  .265E+01  .262E+01  .260E+01  .260E+01  .260E+01
  .260E+01  .259E+01  .259E+01  .258E+01  .258E+01  .258E+01  .258E+01  .258E+01
  .258E+01  .257E+01  .257E+01  .000E+00  .000E+00  .000E+00  .000E+00  .000E+00
  .000E+00  .000E+00  .000E+00  .000E+00
  .901E-01  .869E-01  .889E-01  .890E-01  .868E-01  .854E-01  .873E-01  .938E-01
  .972E-01  .102E+00  .114E+00  .110E+00  .122E+00  .131E+00  .148E+00  .141E+00
  .189E+00  .158E+00  .131E+00  .124E+00  .190E+00  .222E+00  .246E+00  .182E+00
  .207E+00  .199E+00  .214E+00  .128E+00  .862E-01  .760E-01  .759E-01  .800E-01
  .871E-01  .885E-01  .106E+00  .112E+00  .113E+00  .141E+00  .155E+00  .153E+00
  .144E+00  .222E+00  .388E+00  .494E+00  .560E+00  .355E+00  .278E+00  .216E+00
  .160E+00  .112E+00  .865E-01  .495E-01  .446E-01  .462E-01  .448E-01  .328E-01
  .238E-01  .186E-01  .191E-01  .190E-01  .157E-01  .891E-02  .702E-02  .631E-02
  .587E-02  .502E-02  .394E-02  .336E-02  .276E-02  .229E-02  .217E-02  .197E-02
  .173E-02  .157E-02  .148E-02  .138E-02  .115E-02  .960E-03  .807E-03  .687E-03
  .595E-03  .522E-03  .471E-03  .426E-03  .386E-03  .352E-03  .297E-03  .257E-03
  .225E-03  .199E-03  .179E-03  .000E+00  .000E+00  .000E+00  .000E+00  .000E+00
  .000E+00  .000E+00  .000E+00  .000E+00
  .221E+00  .224E+00  .240E+00  .252E+00  .256E+00  .262E+00  .295E+00  .346E+00
  .389E+00  .439E+00  .528E+00  .541E+00  .634E+00  .721E+00  .863E+00  .872E+00
  .127E+01  .117E+01  .105E+01  .106E+01  .175E+01  .217E+01  .258E+01  .201E+01
  .242E+01  .244E+01  .290E+01  .188E+01  .138E+01  .131E+01  .140E+01  .157E+01
  .182E+01  .196E+01  .247E+01  .275E+01  .292E+01  .381E+01  .438E+01  .450E+01
  .444E+01  .751E+01  .143E+02  .197E+02  .241E+02  .163E+02  .136E+02  .112E+02
  .883E+01  .655E+01  .531E+01  .334E+01  .328E+01  .369E+01  .385E+01  .302E+01
  .234E+01  .193E+01  .210E+01  .221E+01  .192E+01  .119E+01  .103E+01  .999E+00
  .100E+01  .916E+00  .764E+00  .690E+00  .596E+00  .520E+00  .518E+00  .492E+00
  .452E+00  .429E+00  .423E+00  .411E+00  .373E+00  .334E+00  .301E+00  .273E+00
  .250E+00  .231E+00  .219E+00  .207E+00  .196E+00  .186E+00  .168E+00  .155E+00
  .143E+00  .133E+00  .125E+00  .000E+00  .000E+00  .000E+00  .000E+00  .000E+00
  .000E+00  .000E+00  .000E+00  .000E+00
  .300E+02  .300E+02  .300E+02  .300E+02  .300E+02  .300E+02  .300E+02  .300E+02
  .290E+02  .300E+02  .296E+02  .290E+02  .290E+02  .290E+02  .290E+02  .293E+02
  .296E+02  .300E+02  .290E+02  .294E+02  .294E+02  .297E+02  .297E+02  .300E+02
  .303E+02  .309E+02  .307E+02  .299E+02  .304E+02  .300E+02  .300E+02  .300E+02
  .300E+02  .300E+02  .300E+02  .303E+02  .303E+02  .303E+02  .306E+02  .306E+02
  .307E+02  .300E+02  .310E+02  .314E+02  .357E+02  .316E+02  .306E+02  .303E+02
  .300E+02  .296E+02  .296E+02  .293E+02  .293E+02  .293E+02  .331E+02  .402E+02
  .398E+02  .303E+02  .300E+02  .300E+02  .300E+02  .300E+02  .296E+02  .296E+02
  .296E+02  .296E+02  .296E+02  .303E+02  .303E+02  .300E+02  .300E+02  .300E+02
  .300E+02  .296E+02  .296E+02  .296E+02  .296E+02  .303E+02  .303E+02  .303E+02
  .303E+02  .303E+02  .300E+02  .300E+02  .300E+02  .300E+02  .300E+02  .300E+02
  .300E+02  .300E+02  .300E+02  .000E+00  .000E+00  .000E+00  .000E+00  .000E+00
  .000E+00  .000E+00  .000E+00  .000E+00
  .289E+02  .290E+02  .298E+02  .289E+02  .290E+02  .290E+02  .292E+02  .290E+02
  .289E+02  .303E+02  .296E+02  .289E+02  .289E+02  .290E+02  .290E+02  .283E+02
  .294E+02  .299E+02  .290E+02  .294E+02  .294E+02  .294E+02  .297E+02  .293E+02
  .309E+02  .312E+02  .307E+02  .291E+02  .304E+02  .304E+02  .301E+02  .301E+02
  .301E+02  .301E+02  .301E+02  .304E+02  .304E+02  .304E+02  .305E+02  .308E+02
  .308E+02  .305E+02  .312E+02  .313E+02  .356E+02  .318E+02  .304E+02  .301E+02
  .301E+02  .298E+02  .294E+02  .294E+02  .294E+02  .291E+02  .334E+02  .301E+02
  .301E+02  .301E+02  .302E+02  .302E+02  .298E+02  .298E+02  .298E+02  .298E+02
  .298E+02  .298E+02  .298E+02  .302E+02  .302E+02  .302E+02  .302E+02  .298E+02
  .298E+02  .298E+02  .298E+02  .298E+02  .298E+02  .302E+02  .302E+02  .302E+02
  .302E+02  .302E+02  .302E+02  .302E+02  .302E+02  .298E+02  .298E+02  .298E+02
  .298E+02  .298E+02  .298E+02  .000E+00  .000E+00  .000E+00  .000E+00  .000E+00
  .000E+00  .000E+00  .000E+00  .000E+00
  .300E+02  .300E+02  .300E+02  .300E+02  .300E+02  .300E+02  .300E+02  .300E+02
  .290E+02  .300E+02  .296E+02  .290E+02  .290E+02  .290E+02  .290E+02  .293E+02
  .296E+02  .300E+02  .290E+02  .294E+02  .294E+02  .296E+02  .297E+02  .300E+02
  .303E+02  .309E+02  .307E+02  .299E+02  .304E+02  .300E+02  .300E+02  .300E+02
  .300E+02  .300E+02  .300E+02  .303E+02  .303E+02  .303E+02  .306E+02  .306E+02
  .306E+02  .300E+02  .310E+02  .314E+02  .357E+02  .316E+02  .306E+02  .303E+02
  .299E+02  .296E+02  .296E+02  .293E+02  .292E+02  .293E+02  .331E+02  .402E+02
  .397E+02  .303E+02  .299E+02  .300E+02  .300E+02  .300E+02  .296E+02  .296E+02
  .296E+02  .296E+02  .296E+02  .303E+02  .303E+02  .299E+02  .299E+02  .299E+02
  .299E+02  .296E+02  .296E+02  .296E+02  .296E+02  .303E+02  .303E+02  .303E+02
  .303E+02  .299E+02  .299E+02  .299E+02  .299E+02  .299E+02  .299E+02  .299E+02
  .299E+02  .299E+02  .299E+02  .000E+00  .000E+00  .000E+00  .000E+00  .000E+00
  .000E+00  .000E+00  .000E+00  .000E+00
Damping =  .05. Data of Sd,Sv,Sa,Pssv,ttSd,ttSv,ttSa :
  .135E-02  .145E-02  .160E-02  .178E-02  .191E-02  .204E-02  .259E-02  .312E-02
  .387E-02  .460E-02  .537E-02  .645E-02  .805E-02  .948E-02  .107E-01  .107E-01
