Response and Fourier amplitude spectra (91 periods,  .04 - 15.0 sec)   for      
Corrected accelerogram   12299-K1643-10189.03       Chan  9: 360 Deg     from   
Uncorrected Accelerogram Data             Processed: 07/13/10, CGS  bv003       
Record of Wed Jul  7, 2010 16:53:20.0 PDT             (Avol1 v8.9,05/09 CSMIP)  
CSMIP Preliminary Processing            (Origin:  To be determined)             
12299-K1643-10189.03                 Start time:  7/07/10, 23:53:20.0 UTC (GPS) 
Station No. 12299   33.834N, 116.541W        K2  s/n 1643 (12 Channels)         
Palm Springs - 4-story Hospital           CGS                                   
Chan  9: 360 DegR (Sta Chn: 10)     Location: Roof: Near Center                 
Record of Wed Jul  7, 2010 16:53:20.0 PDT    Wed Jul  7, 2010 16:53:20.0 PDT    
Hypocenter:  To be determined.               ML:  To be determined.
Instr Period =  .0104 sec,  Damping =  .670,  Sensitivity =  .63  v/g
                        Record length = 80.000 sec.
                                     Uncor Max  =   .101 g , at  30.065 sec.
RMS accel of (uncor) record  =        .   Chn. metadata effective date: 06/30/10
Accelerogram bandpass filtered with 3 dB pts at   .13 and 40.00 cyc/sec
                 instrument- and baseline-corrected





Record of Wed Jul  7, 2010 16:53:20.0 PDT    Wed Jul  7, 2010 16:53:20.0 PDT

12299-K1643-10189.03      Palm Springs - 4-story Hospital   Chan  9: 360 Deg

12299-K1643-10189.03      Palm Springs - 4-story Hospital   Chan  9: 360 Deg

Units for spectra are inches and sec, except Sa is in fraction of g.

    9  100   10   12   12  200    1    3    1   24   11 1643    012299    2    0
   23   53   20    0  188    7    7 2010   10    3  36016000   41   31   76  360
16000    0  100    3 1643    1    3  800    2    0    0    0    0    0    0    0
    0    4    0    0 8000    2  222    1   18    4   76   31    3    1    0 8000
    3 8000   32   91    5   12    5    0    0    0   12    0    0    3    1    2
    2    2    4    0   72   99    0   32   32    0    0    1  100    0    0  222
    1    0    1    0
      .010      .670    80.000      .014      .000   627.000      .101    30.065
    96.300      .298      .475      .000     5.000      .000     4.000      .000
     2.500    33.700     2.500  -999.000    23.000    30.000      .000      .002
     -.005     -.007     2.000    15.000    33.834  -116.541      .159     2.360
    14.805     -.120      .106   143.000    23.100    48.900    13.300    97.160
     1.000    -1.061      .000      .000      .000      .000      .000      .000
     6.700     8.900     5.500   980.665      .010    80.000    15.327      .000
      .000    40.000      .000    80.000      .010      .125      .000      .000
    30.060    98.259    30.150    11.008    30.000    -1.107      .000      .125
    40.000      .010      .010      .001     5.930      .521      .000      .000
      .549      .650      .162      .154      .105      .007      .000      .000
      .000      .000      .000      .000      .000      .000      .000      .000
      .000      .000      .000      .000
      .000      .020      .050      .100      .200
      .040      .042      .044      .046      .048      .050      .055      .060
      .065      .070      .075      .080      .085      .090      .095      .100
      .110      .120      .130      .140      .150      .160      .170      .180
      .190      .200      .220      .240      .260      .280      .300      .320
      .340      .360      .380      .400      .420      .440      .460      .480
      .500      .550      .600      .650      .700      .750      .800      .850
      .900      .950     1.000     1.100     1.200     1.300     1.400     1.500
     1.600     1.700     1.800     1.900     2.000     2.200     2.400     2.600
     2.800     3.000     3.200     3.400     3.600     3.800     4.000     4.200
     4.400     4.600     4.800     5.000     5.500     6.000     6.500     7.000
     7.500     8.000     8.500     9.000     9.500    10.000    11.000    12.000
    13.000    14.000    15.000      .000      .000      .000      .000      .000
      .000      .000      .000      .000
Fourier amplitude spectra in in/sec.
  .139E+00  .643E-01  .195E+00  .122E+00  .281E+00  .224E+00  .148E+00  .220E-01
  .567E-01  .198E+00  .176E+00  .332E+00  .306E+00  .393E+00  .107E+01  .169E+01
  .115E+01  .134E+01  .715E+00  .150E+01  .216E+01  .495E+00  .329E+00  .251E+01
  .428E+01  .362E+01  .635E+01  .383E+01  .276E+01  .316E+01  .148E+01  .566E+00
  .101E+01  .123E+01  .999E+00  .443E+01  .374E+01  .257E+01  .768E+01  .101E+02
  .113E+02  .341E+01  .488E+02  .133E+02  .725E+02  .368E+02  .194E+02  .103E+02
  .144E+02  .512E+01  .249E+01  .451E+01  .359E+01  .664E+01  .208E+01  .487E+01
  .352E+01  .180E+01  .561E+00  .881E+00  .750E+00  .738E+00  .758E+00  .841E+00
  .390E+00  .173E+00  .390E+00  .313E+00  .119E+00  .414E-01  .104E+00  .135E+00
  .818E-01  .130E+00  .992E-01  .913E-01  .808E-01  .327E-01  .264E-01  .584E-02
  .185E-01  .892E-02  .128E-01  .185E-01  .149E-01  .105E-01  .107E-01  .514E-02
  .414E-02  .278E-02  .131E-02  .000E+00  .000E+00  .000E+00  .000E+00  .000E+00
  .000E+00  .000E+00  .000E+00  .000E+00
Damping =  .00. Data of Sd,Sv,Sa,Pssv,ttSd,ttSv,ttSa :
  .195E-02  .210E-02  .220E-02  .225E-02  .307E-02  .301E-02  .404E-02  .369E-02
  .431E-02  .678E-02  .729E-02  .981E-02  .112E-01  .135E-01  .196E-01  .484E-01
  .334E-01  .409E-01  .287E-01  .502E-01  .732E-01  .567E-01  .716E-01  .102E+00
  .171E+00  .139E+00  .247E+00  .201E+00  .163E+00  .194E+00  .172E+00  .156E+00
  .192E+00  .241E+00  .429E+00  .396E+00  .346E+00  .613E+00  .899E+00  .106E+01
  .100E+01  .121E+01  .536E+01  .439E+01  .836E+01  .442E+01  .301E+01  .244E+01
  .221E+01  .145E+01  .122E+01  .844E+00  .947E+00  .140E+01  .131E+01  .134E+01
  .975E+00  .774E+00  .834E+00  .928E+00  .833E+00  .578E+00  .523E+00  .548E+00
  .596E+00  .585E+00  .547E+00  .533E+00  .490E+00  .477E+00  .490E+00  .485E+00
  .475E+00  .458E+00  .449E+00  .459E+00  .460E+00  .463E+00  .453E+00  .441E+00
  .437E+00  .438E+00  .439E+00  .439E+00  .440E+00  .442E+00  .444E+00  .442E+00
  .437E+00  .434E+00  .433E+00  .000E+00  .000E+00  .000E+00  .000E+00  .000E+00
  .000E+00  .000E+00  .000E+00  .000E+00
  .148E+00  .114E+00  .204E+00  .176E+00  .311E+00  .267E+00  .191E+00  .106E+00
  .972E-01  .276E+00  .312E+00  .407E+00  .498E+00  .575E+00  .108E+01  .269E+01
  .144E+01  .149E+01  .104E+01  .175E+01  .264E+01  .216E+01  .258E+01  .347E+01
  .520E+01  .423E+01  .690E+01  .478E+01  .328E+01  .350E+01  .242E+01  .146E+01
  .186E+01  .256E+01  .585E+01  .559E+01  .463E+01  .746E+01  .113E+02  .130E+02
  .121E+02  .120E+02  .559E+02  .418E+02  .751E+02  .371E+02  .241E+02  .198E+02
  .164E+02  .121E+02  .984E+01  .645E+01  .705E+01  .748E+01  .736E+01  .649E+01
  .553E+01  .614E+01  .639E+01  .573E+01  .538E+01  .491E+01  .460E+01  .456E+01
  .443E+01  .429E+01  .446E+01  .455E+01  .458E+01  .454E+01  .447E+01  .442E+01
  .438E+01  .435E+01  .434E+01  .434E+01  .436E+01  .438E+01  .438E+01  .437E+01
  .436E+01  .436E+01  .435E+01  .435E+01  .435E+01  .435E+01  .435E+01  .435E+01
  .434E+01  .434E+01  .434E+01  .000E+00  .000E+00  .000E+00  .000E+00  .000E+00
  .000E+00  .000E+00  .000E+00  .000E+00
  .125E+00  .122E+00  .116E+00  .109E+00  .136E+00  .123E+00  .136E+00  .105E+00
  .104E+00  .142E+00  .132E+00  .157E+00  .159E+00  .170E+00  .222E+00  .495E+00
  .282E+00  .290E+00  .174E+00  .262E+00  .333E+00  .227E+00  .254E+00  .324E+00
  .484E+00  .354E+00  .523E+00  .357E+00  .246E+00  .253E+00  .195E+00  .156E+00
  .170E+00  .190E+00  .304E+00  .253E+00  .201E+00  .324E+00  .434E+00  .469E+00
  .409E+00  .408E+00  .152E+01  .106E+01  .175E+01  .803E+00  .481E+00  .345E+00
  .279E+00  .165E+00  .125E+00  .713E-01  .673E-01  .848E-01  .681E-01  .609E-01
  .390E-01  .274E-01  .263E-01  .263E-01  .213E-01  .122E-01  .928E-02  .830E-02
  .777E-02  .665E-02  .547E-02  .471E-02  .387E-02  .338E-02  .313E-02  .281E-02
  .251E-02  .221E-02  .199E-02  .188E-02  .156E-02  .132E-02  .110E-02  .920E-03
  .795E-03  .700E-03  .621E-03  .554E-03  .498E-03  .452E-03  .375E-03  .314E-03
  .265E-03  .227E-03  .197E-03  .000E+00  .000E+00  .000E+00  .000E+00  .000E+00
  .000E+00  .000E+00  .000E+00  .000E+00
  .306E+00  .314E+00  .314E+00  .307E+00  .402E+00  .379E+00  .461E+00  .386E+00
  .417E+00  .609E+00  .610E+00  .770E+00  .830E+00  .939E+00  .129E+01  .304E+01
  .191E+01  .214E+01  .139E+01  .225E+01  .307E+01  .223E+01  .265E+01  .358E+01
  .566E+01  .435E+01  .707E+01  .526E+01  .393E+01  .436E+01  .359E+01  .307E+01
  .355E+01  .421E+01  .710E+01  .623E+01  .518E+01  .875E+01  .123E+02  .138E+02
  .126E+02  .138E+02  .562E+02  .425E+02  .750E+02  .370E+02  .236E+02  .180E+02
  .154E+02  .961E+01  .769E+01  .482E+01  .496E+01  .677E+01  .586E+01  .561E+01
  .383E+01  .286E+01  .291E+01  .307E+01  .262E+01  .165E+01  .137E+01  .133E+01
  .134E+01  .123E+01  .107E+01  .984E+00  .855E+00  .789E+00  .770E+00  .726E+00
  .679E+00  .626E+00  .587E+00  .577E+00  .526E+00  .485E+00  .438E+00  .395E+00
  .366E+00  .344E+00  .324E+00  .306E+00  .291E+00  .277E+00  .254E+00  .231E+00
  .211E+00  .195E+00  .181E+00  .000E+00  .000E+00  .000E+00  .000E+00  .000E+00
  .000E+00  .000E+00  .000E+00  .000E+00
  .300E+02  .300E+02  .301E+02  .338E+02  .300E+02  .359E+02  .300E+02  .300E+02
  .301E+02  .300E+02  .300E+02  .300E+02  .307E+02  .296E+02  .300E+02  .300E+02
  .303E+02  .300E+02  .293E+02  .303E+02  .335E+02  .282E+02  .269E+02  .474E+02
  .342E+02  .322E+02  .321E+02  .300E+02  .352E+02  .303E+02  .303E+02  .300E+02
  .300E+02  .303E+02  .300E+02  .349E+02  .352E+02  .306E+02  .332E+02  .336E+02
  .402E+02  .300E+02  .601E+02  .324E+02  .378E+02  .777E+02  .445E+02  .303E+02
  .614E+02  .300E+02  .296E+02  .620E+02  .296E+02  .426E+02  .331E+02  .453E+02
  .733E+02  .303E+02  .300E+02  .300E+02  .300E+02  .296E+02  .300E+02  .296E+02
  .296E+02  .296E+02  .303E+02  .303E+02  .303E+02  .300E+02  .300E+02  .300E+02
  .300E+02  .300E+02  .296E+02  .296E+02  .303E+02  .303E+02  .303E+02  .303E+02
  .303E+02  .303E+02  .303E+02  .303E+02  .303E+02  .303E+02  .303E+02  .303E+02
  .303E+02  .303E+02  .303E+02  .000E+00  .000E+00  .000E+00  .000E+00  .000E+00
  .000E+00  .000E+00  .000E+00  .000E+00
  .385E+02  .341E+02  .596E+02  .338E+02  .387E+02  .359E+02  .307E+02  .318E+02
  .348E+02  .290E+02  .340E+02  .305E+02  .307E+02  .291E+02  .684E+02  .294E+02
  .301E+02  .301E+02  .291E+02  .347E+02  .337E+02  .282E+02  .266E+02  .464E+02
  .344E+02  .319E+02  .321E+02  .330E+02  .351E+02  .451E+02  .319E+02  .299E+02
  .299E+02  .304E+02  .301E+02  .350E+02  .506E+02  .305E+02  .333E+02  .337E+02
  .400E+02  .298E+02  .600E+02  .326E+02  .380E+02  .340E+02  .304E+02  .305E+02
  .301E+02  .298E+02  .298E+02  .295E+02  .295E+02  .304E+02  .301E+02  .301E+02
  .301E+02  .301E+02  .301E+02  .301E+02  .298E+02  .298E+02  .298E+02  .298E+02
  .298E+02  .301E+02  .301E+02  .301E+02  .301E+02  .301E+02  .301E+02  .301E+02
  .301E+02  .301E+02  .301E+02  .301E+02  .301E+02  .301E+02  .301E+02  .301E+02
  .301E+02  .301E+02  .301E+02  .301E+02  .301E+02  .301E+02  .301E+02  .301E+02
  .301E+02  .301E+02  .301E+02  .000E+00  .000E+00  .000E+00  .000E+00  .000E+00
  .000E+00  .000E+00  .000E+00  .000E+00
  .300E+02  .300E+02  .301E+02  .338E+02  .300E+02  .359E+02  .300E+02  .300E+02
  .301E+02  .300E+02  .300E+02  .300E+02  .307E+02  .296E+02  .300E+02  .300E+02
  .303E+02  .300E+02  .293E+02  .303E+02  .335E+02  .282E+02  .269E+02  .474E+02
  .342E+02  .322E+02  .321E+02  .300E+02  .352E+02  .303E+02  .303E+02  .300E+02
  .300E+02  .303E+02  .300E+02  .349E+02  .352E+02  .306E+02  .332E+02  .336E+02
  .402E+02  .300E+02  .601E+02  .324E+02  .378E+02  .777E+02  .445E+02  .303E+02
  .614E+02  .300E+02  .296E+02  .620E+02  .296E+02  .426E+02  .331E+02  .453E+02
  .733E+02  .303E+02  .300E+02  .300E+02  .300E+02  .296E+02  .300E+02  .296E+02
  .296E+02  .296E+02  .303E+02  .303E+02  .303E+02  .300E+02  .300E+02  .300E+02
  .300E+02  .300E+02  .296E+02  .296E+02  .303E+02  .303E+02  .303E+02  .303E+02
  .303E+02  .303E+02  .303E+02  .303E+02  .303E+02  .303E+02  .303E+02  .303E+02
  .303E+02  .303E+02  .303E+02  .000E+00  .000E+00  .000E+00  .000E+00  .000E+00
  .000E+00  .000E+00  .000E+00  .000E+00
Damping =  .02. Data of Sd,Sv,Sa,Pssv,ttSd,ttSv,ttSa :
  .162E-02  .183E-02  .196E-02  .212E-02  .233E-02  .256E-02  .304E-02  .353E-02
  .424E-02  .526E-02  .581E-02  .719E-02  .870E-02  .110E-01  .142E-01  .184E-01
  .243E-01  .264E-01  .240E-01  .272E-01  .449E-01  .508E-01  .607E-01  .538E-01
  .678E-01  .679E-01  .113E+00  .132E+00  .112E+00  .134E+00  .150E+00  .149E+00
  .177E+00  .214E+00  .296E+00  .358E+00  .390E+00  .514E+00  .629E+00  .642E+00
  .643E+00  .105E+01  .222E+01  .313E+01  .395E+01  .277E+01  .245E+01  .212E+01
  .174E+01  .136E+01  .115E+01  .802E+00  .828E+00  .970E+00  .986E+00  .806E+00
  .663E+00  .700E+00  .775E+00  .845E+00  .783E+00  .583E+00  .525E+00  .540E+00
  .573E+00  .563E+00  .522E+00  .515E+00  .483E+00  .466E+00  .479E+00  .477E+00
  .469E+00  .455E+00  .443E+00  .452E+00  .456E+00  .459E+00  .452E+00  .442E+00
  .438E+00  .438E+00  .439E+00  .439E+00  .440E+00  .441E+00  .443E+00  .441E+00
  .438E+00  .435E+00  .433E+00  .000E+00  .000E+00  .000E+00  .000E+00  .000E+00
  .000E+00  .000E+00  .000E+00  .000E+00
  .348E-01  .448E-01  .431E-01  .485E-01  .576E-01  .611E-01  .769E-01  .101E+00
  .105E+00  .134E+00  .150E+00  .236E+00  .301E+00  .421E+00  .593E+00  .790E+00
  .944E+00  .714E+00  .865E+00  .976E+00  .156E+01  .148E+01  .160E+01  .133E+01
  .174E+01  .183E+01  .255E+01  .227E+01  .180E+01  .188E+01  .169E+01  .142E+01
  .180E+01  .212E+01  .354E+01  .382E+01  .426E+01  .606E+01  .713E+01  .742E+01
  .712E+01  .108E+02  .225E+02  .297E+02  .359E+02  .246E+02  .211E+02  .176E+02
  .148E+02  .113E+02  .938E+01  .662E+01  .664E+01  .670E+01  .669E+01  .634E+01
  .572E+01  .600E+01  .610E+01  .562E+01  .515E+01  .485E+01  .459E+01  .452E+01
  .439E+01  .432E+01  .444E+01  .452E+01  .455E+01  .452E+01  .447E+01  .443E+01
  .439E+01  .437E+01  .435E+01  .435E+01  .436E+01  .437E+01  .438E+01  .437E+01
  .436E+01  .436E+01  .435E+01  .435E+01  .435E+01  .435E+01  .435E+01  .435E+01
  .434E+01  .434E+01  .434E+01  .000E+00  .000E+00  .000E+00  .000E+00  .000E+00
  .000E+00  .000E+00  .000E+00  .000E+00
  .104E+00  .106E+00  .103E+00  .102E+00  .104E+00  .105E+00  .103E+00  .100E+00
  .103E+00  .110E+00  .106E+00  .115E+00  .123E+00  .139E+00  .162E+00  .187E+00
  .204E+00  .188E+00  .145E+00  .142E+00  .203E+00  .203E+00  .215E+00  .170E+00
  .192E+00  .174E+00  .239E+00  .234E+00  .170E+00  .175E+00  .171E+00  .149E+00
  .157E+00  .169E+00  .210E+00  .229E+00  .226E+00  .271E+00  .304E+00  .285E+00
  .263E+00  .356E+00  .631E+00  .757E+00  .825E+00  .505E+00  .391E+00  .300E+00
  .220E+00  .155E+00  .117E+00  .679E-01  .589E-01  .588E-01  .515E-01  .367E-01
  .265E-01  .249E-01  .245E-01  .240E-01  .201E-01  .124E-01  .941E-02  .825E-02
  .754E-02  .646E-02  .529E-02  .463E-02  .389E-02  .337E-02  .313E-02  .284E-02
  .255E-02  .227E-02  .203E-02  .191E-02  .162E-02  .138E-02  .117E-02  .997E-03
  .871E-03  .775E-03  .695E-03  .628E-03  .571E-03  .524E-03  .446E-03  .385E-03
  .335E-03  .296E-03  .265E-03  .000E+00  .000E+00  .000E+00  .000E+00  .000E+00
  .000E+00  .000E+00  .000E+00  .000E+00
  .255E+00  .274E+00  .279E+00  .289E+00  .306E+00  .322E+00  .347E+00  .370E+00
  .410E+00  .472E+00  .487E+00  .565E+00  .643E+00  .765E+00  .942E+00  .115E+01
  .139E+01  .138E+01  .116E+01  .122E+01  .188E+01  .199E+01  .224E+01  .188E+01
  .224E+01  .213E+01  .322E+01  .344E+01  .272E+01  .300E+01  .315E+01  .292E+01
  .327E+01  .374E+01  .490E+01  .562E+01  .584E+01  .734E+01  .859E+01  .840E+01
  .808E+01  .120E+02  .232E+02  .302E+02  .354E+02  .232E+02  .192E+02  .157E+02
  .121E+02  .901E+01  .720E+01  .458E+01  .434E+01  .469E+01  .443E+01  .338E+01
  .260E+01  .259E+01  .270E+01  .279E+01  .246E+01  .167E+01  .138E+01  .131E+01
  .129E+01  .118E+01  .102E+01  .952E+00  .842E+00  .770E+00  .752E+00  .714E+00
  .670E+00  .622E+00  .580E+00  .568E+00  .521E+00  .481E+00  .436E+00  .397E+00
  .367E+00  .344E+00  .324E+00  .306E+00  .291E+00  .277E+00  .253E+00  .231E+00
  .211E+00  .195E+00  .181E+00  .000E+00  .000E+00  .000E+00  .000E+00  .000E+00
  .000E+00  .000E+00  .000E+00  .000E+00
  .300E+02  .300E+02  .301E+02  .301E+02  .300E+02  .301E+02  .301E+02  .300E+02
  .301E+02  .300E+02  .301E+02  .293E+02  .290E+02  .290E+02  .290E+02  .293E+02
  .296E+02  .300E+02  .291E+02  .293E+02  .293E+02  .300E+02  .296E+02  .296E+02
  .302E+02  .308E+02  .292E+02  .300E+02  .290E+02  .303E+02  .303E+02  .300E+02
  .303E+02  .303E+02  .303E+02  .303E+02  .303E+02  .303E+02  .306E+02  .309E+02
  .309E+02  .306E+02  .310E+02  .314E+02  .357E+02  .320E+02  .306E+02  .303E+02
  .300E+02  .300E+02  .296E+02  .293E+02  .296E+02  .293E+02  .331E+02  .402E+02
  .398E+02  .303E+02  .300E+02  .300E+02  .300E+02  .300E+02  .300E+02  .296E+02
  .296E+02  .296E+02  .303E+02  .303E+02  .303E+02  .300E+02  .300E+02  .300E+02
  .300E+02  .300E+02  .296E+02  .296E+02  .303E+02  .303E+02  .303E+02  .303E+02
  .303E+02  .303E+02  .303E+02  .303E+02  .303E+02  .303E+02  .303E+02  .303E+02
  .303E+02  .303E+02  .303E+02  .000E+00  .000E+00  .000E+00  .000E+00  .000E+00
  .000E+00  .000E+00  .000E+00  .000E+00
  .299E+02  .348E+02  .337E+02  .337E+02  .350E+02  .291E+02  .283E+02  .291E+02
  .290E+02  .301E+02  .290E+02  .290E+02  .290E+02  .291E+02  .283E+02  .285E+02
  .295E+02  .301E+02  .291E+02  .291E+02  .291E+02  .295E+02  .298E+02  .301E+02
  .308E+02  .311E+02  .292E+02  .296E+02  .289E+02  .302E+02  .302E+02  .302E+02
  .302E+02  .302E+02  .302E+02  .304E+02  .305E+02  .305E+02  .305E+02  .308E+02
  .340E+02  .308E+02  .312E+02  .313E+02  .356E+02  .307E+02  .304E+02  .301E+02
  .301E+02  .298E+02  .298E+02  .295E+02  .295E+02  .291E+02  .301E+02  .301E+02
  .301E+02  .301E+02  .301E+02  .301E+02  .298E+02  .298E+02  .298E+02  .298E+02
  .298E+02  .301E+02  .301E+02  .301E+02  .301E+02  .301E+02  .301E+02  .301E+02
  .301E+02  .301E+02  .301E+02  .301E+02  .301E+02  .301E+02  .301E+02  .301E+02
  .301E+02  .301E+02  .301E+02  .301E+02  .301E+02  .301E+02  .301E+02  .301E+02
  .301E+02  .301E+02  .301E+02  .000E+00  .000E+00  .000E+00  .000E+00  .000E+00
  .000E+00  .000E+00  .000E+00  .000E+00
  .300E+02  .300E+02  .301E+02  .301E+02  .300E+02  .301E+02  .301E+02  .300E+02
  .301E+02  .300E+02  .301E+02  .293E+02  .290E+02  .290E+02  .290E+02  .293E+02
  .296E+02  .300E+02  .301E+02  .293E+02  .293E+02  .300E+02  .296E+02  .296E+02
  .302E+02  .308E+02  .292E+02  .300E+02  .290E+02  .303E+02  .303E+02  .300E+02
  .303E+02  .303E+02  .303E+02  .303E+02  .303E+02  .303E+02  .306E+02  .309E+02
  .309E+02  .306E+02  .310E+02  .314E+02  .357E+02  .320E+02  .306E+02  .303E+02
  .300E+02  .300E+02  .296E+02  .293E+02  .296E+02  .293E+02  .331E+02  .402E+02
  .398E+02  .303E+02  .300E+02  .300E+02  .300E+02  .300E+02  .300E+02  .296E+02
  .296E+02  .296E+02  .303E+02  .303E+02  .303E+02  .300E+02  .300E+02  .300E+02
  .300E+02  .300E+02  .296E+02  .296E+02  .303E+02  .303E+02  .303E+02  .303E+02
  .303E+02  .303E+02  .303E+02  .303E+02  .303E+02  .303E+02  .303E+02  .302E+02
  .302E+02  .302E+02  .302E+02  .000E+00  .000E+00  .000E+00  .000E+00  .000E+00
  .000E+00  .000E+00  .000E+00  .000E+00
Damping =  .05. Data of Sd,Sv,Sa,Pssv,ttSd,ttSv,ttSa :
  .159E-02  .177E-02  .193E-02  .209E-02  .227E-02  .247E-02  .300E-02  .353E-02
  .418E-02  .492E-02  .561E-02  .659E-02  .807E-02  .972E-02  .114E-01  .136E-01
