Response and Fourier amplitude spectra (91 periods,  .04 - 15.0 sec)   for      
Corrected accelerogram   12299-K1643-10189.03       Chan  5: 270 Deg     from   
Uncorrected Accelerogram Data             Processed: 07/13/10, CGS  bv003       
Record of Wed Jul  7, 2010 16:53:20.0 PDT             (Avol1 v8.9,05/09 CSMIP)  
CSMIP Preliminary Processing            (Origin:  To be determined)             
12299-K1643-10189.03                 Start time:  7/07/10, 23:53:20.0 UTC (GPS) 
Station No. 12299   33.834N, 116.541W        K2  s/n 1643 (12 Channels)         
Palm Springs - 4-story Hospital           CGS                                   
Chan  5: 270 DegR (Sta Chn:  6)     Location: 3rd Floor: North Wall             
Record of Wed Jul  7, 2010 16:53:20.0 PDT    Wed Jul  7, 2010 16:53:20.0 PDT    
Hypocenter:  To be determined.               ML:  To be determined.
Instr Period =  .0105 sec,  Damping =  .650,  Sensitivity =  .63  v/g
                        Record length = 80.000 sec.
                                     Uncor Max  =  -.082 g , at  34.435 sec.
RMS accel of (uncor) record  =        .   Chn. metadata effective date: 06/30/10
Accelerogram bandpass filtered with 3 dB pts at   .13 and 40.00 cyc/sec
                 instrument- and baseline-corrected





Record of Wed Jul  7, 2010 16:53:20.0 PDT    Wed Jul  7, 2010 16:53:20.0 PDT

12299-K1643-10189.03      Palm Springs - 4-story Hospital   Chan  5: 270 Deg

12299-K1643-10189.03      Palm Springs - 4-story Hospital   Chan  5: 270 Deg

Units for spectra are inches and sec, except Sa is in fraction of g.

    5  100    6   12   12  200    1    3    1   24   11 1643    012299    2    0
   23   53   20    0  188    7    7 2010   10    3  27016000   41   31   76  360
16000    0  100    3 1643    1    3  800    2    0    0    0    0    0    0    0
    0    4    0    0 8000    2  222    1   18    4   76   31    3    1    0 8000
    3 8000   32   91    5   12    5    0    0    0   12    0    0    3    1    2
    2    2    4    0   72   99    0   32   32    0    0    1  100    0    0  222
    1    0    1    0
      .011      .650    80.000      .013      .000   625.000     -.082    34.435
    94.900      .298      .477      .000     5.000      .000     4.000      .000
     2.500   -31.822     2.500  -999.000    23.000    30.000      .000      .028
     -.023     -.051     2.000    15.000    33.834  -116.541      .088     1.141
    13.033     -.105      .004   143.000    23.100    48.900    13.300    97.160
     1.000    -1.082      .000      .000      .000      .000      .000      .000
     6.700     8.900     5.500   980.665      .010    80.000    15.104      .000
      .000    40.000      .000    80.000      .010      .125      .000      .000
    34.430   -80.496    34.580    -7.290    34.430      .795      .000      .125
    40.000      .010      .010      .005     6.920      .438      .000      .000
      .512      .650      .114      .093      .081      .005      .000      .000
      .000      .000      .000      .000      .000      .000      .000      .000
      .000      .000      .000      .000
      .000      .020      .050      .100      .200
      .040      .042      .044      .046      .048      .050      .055      .060
      .065      .070      .075      .080      .085      .090      .095      .100
      .110      .120      .130      .140      .150      .160      .170      .180
      .190      .200      .220      .240      .260      .280      .300      .320
      .340      .360      .380      .400      .420      .440      .460      .480
      .500      .550      .600      .650      .700      .750      .800      .850
      .900      .950     1.000     1.100     1.200     1.300     1.400     1.500
     1.600     1.700     1.800     1.900     2.000     2.200     2.400     2.600
     2.800     3.000     3.200     3.400     3.600     3.800     4.000     4.200
     4.400     4.600     4.800     5.000     5.500     6.000     6.500     7.000
     7.500     8.000     8.500     9.000     9.500    10.000    11.000    12.000
    13.000    14.000    15.000      .000      .000      .000      .000      .000
      .000      .000      .000      .000
Fourier amplitude spectra in in/sec.
  .718E-01  .450E-01  .118E+00  .741E-01  .485E-01  .476E-01  .262E+00  .204E+00
  .290E+00  .517E+00  .241E+00  .151E+00  .497E+00  .115E+00  .446E+00  .110E+01
  .107E+01  .124E+01  .183E+01  .129E+01  .238E+01  .433E+01  .485E+01  .432E+01
  .265E+01  .630E+00  .250E+01  .108E+01  .149E+01  .609E+00  .336E+00  .369E+00
  .784E-01  .152E+00  .531E+00  .345E+00  .381E+01  .157E+01  .899E+00  .135E+01
  .586E+01  .224E+02  .383E+02  .681E+02  .210E+02  .251E+02  .653E+01  .209E+02
  .719E+01  .119E+02  .178E+01  .399E+01  .180E+01  .300E+01  .198E+01  .503E+00
  .938E+00  .653E+00  .134E+01  .279E+00  .439E+00  .709E+00  .662E+00  .866E+00
  .289E+00  .166E+00  .215E+00  .203E+00  .109E+00  .149E+00  .872E-01  .404E-01
  .449E-01  .477E-01  .730E-01  .671E-01  .671E-01  .420E-01  .337E-01  .392E-01
  .448E-01  .291E-01  .924E-02  .141E-01  .188E-01  .145E-01  .116E-01  .341E-02
  .278E-02  .188E-02  .400E-02  .000E+00  .000E+00  .000E+00  .000E+00  .000E+00
  .000E+00  .000E+00  .000E+00  .000E+00
Damping =  .00. Data of Sd,Sv,Sa,Pssv,ttSd,ttSv,ttSa :
  .174E-02  .161E-02  .225E-02  .189E-02  .223E-02  .263E-02  .466E-02  .496E-02
  .669E-02  .884E-02  .856E-02  .934E-02  .132E-01  .139E-01  .145E-01  .242E-01
  .340E-01  .303E-01  .386E-01  .544E-01  .628E-01  .156E+00  .158E+00  .136E+00
  .115E+00  .684E-01  .121E+00  .861E-01  .122E+00  .841E-01  .861E-01  .108E+00
  .122E+00  .142E+00  .174E+00  .228E+00  .403E+00  .331E+00  .362E+00  .501E+00
  .792E+00  .220E+01  .451E+01  .757E+01  .418E+01  .310E+01  .140E+01  .284E+01
  .160E+01  .184E+01  .122E+01  .839E+00  .751E+00  .821E+00  .758E+00  .661E+00
  .616E+00  .504E+00  .519E+00  .521E+00  .467E+00  .593E+00  .489E+00  .462E+00
  .474E+00  .447E+00  .367E+00  .398E+00  .389E+00  .356E+00  .353E+00  .333E+00
  .349E+00  .356E+00  .350E+00  .346E+00  .346E+00  .354E+00  .354E+00  .361E+00
  .348E+00  .327E+00  .320E+00  .320E+00  .317E+00  .316E+00  .316E+00  .311E+00
  .311E+00  .312E+00  .309E+00  .000E+00  .000E+00  .000E+00  .000E+00  .000E+00
  .000E+00  .000E+00  .000E+00  .000E+00
  .884E-01  .715E-01  .143E+00  .915E-01  .120E+00  .107E+00  .312E+00  .297E+00
  .455E+00  .559E+00  .403E+00  .380E+00  .651E+00  .580E+00  .671E+00  .118E+01
  .158E+01  .129E+01  .185E+01  .215E+01  .261E+01  .584E+01  .556E+01  .471E+01
  .337E+01  .178E+01  .302E+01  .185E+01  .241E+01  .126E+01  .108E+01  .139E+01
  .136E+01  .160E+01  .196E+01  .280E+01  .506E+01  .377E+01  .387E+01  .554E+01
  .897E+01  .252E+02  .464E+02  .735E+02  .385E+02  .260E+02  .122E+02  .211E+02
  .125E+02  .121E+02  .880E+01  .641E+01  .531E+01  .488E+01  .428E+01  .498E+01
  .446E+01  .352E+01  .349E+01  .383E+01  .392E+01  .355E+01  .363E+01  .345E+01
  .318E+01  .318E+01  .322E+01  .311E+01  .298E+01  .299E+01  .295E+01  .294E+01
  .293E+01  .295E+01  .297E+01  .298E+01  .297E+01  .294E+01  .292E+01  .290E+01
  .287E+01  .287E+01  .287E+01  .287E+01  .287E+01  .287E+01  .287E+01  .288E+01
  .288E+01  .287E+01  .287E+01  .000E+00  .000E+00  .000E+00  .000E+00  .000E+00
  .000E+00  .000E+00  .000E+00  .000E+00
  .111E+00  .936E-01  .119E+00  .915E-01  .990E-01  .108E+00  .158E+00  .141E+00
  .162E+00  .184E+00  .156E+00  .149E+00  .187E+00  .176E+00  .165E+00  .248E+00
  .287E+00  .215E+00  .234E+00  .284E+00  .286E+00  .624E+00  .559E+00  .429E+00
  .327E+00  .175E+00  .255E+00  .153E+00  .185E+00  .110E+00  .979E-01  .108E+00
  .108E+00  .112E+00  .124E+00  .146E+00  .234E+00  .175E+00  .175E+00  .223E+00
  .324E+00  .745E+00  .128E+01  .183E+01  .871E+00  .563E+00  .224E+00  .402E+00
  .202E+00  .208E+00  .125E+00  .709E-01  .534E-01  .497E-01  .395E-01  .300E-01
  .246E-01  .178E-01  .164E-01  .148E-01  .119E-01  .125E-01  .868E-02  .699E-02
  .619E-02  .509E-02  .367E-02  .353E-02  .307E-02  .252E-02  .225E-02  .193E-02
  .184E-02  .172E-02  .155E-02  .142E-02  .117E-02  .100E-02  .857E-03  .754E-03
  .633E-03  .523E-03  .453E-03  .404E-03  .359E-03  .323E-03  .267E-03  .221E-03
  .188E-03  .163E-03  .140E-03  .000E+00  .000E+00  .000E+00  .000E+00  .000E+00
  .000E+00  .000E+00  .000E+00  .000E+00
  .274E+00  .242E+00  .322E+00  .259E+00  .292E+00  .330E+00  .532E+00  .519E+00
  .646E+00  .793E+00  .717E+00  .734E+00  .979E+00  .973E+00  .961E+00  .152E+01
  .194E+01  .159E+01  .187E+01  .244E+01  .263E+01  .613E+01  .584E+01  .474E+01
  .381E+01  .215E+01  .345E+01  .225E+01  .295E+01  .189E+01  .180E+01  .212E+01
  .225E+01  .248E+01  .289E+01  .358E+01  .603E+01  .473E+01  .495E+01  .656E+01
  .995E+01  .252E+02  .472E+02  .732E+02  .375E+02  .260E+02  .110E+02  .210E+02
  .112E+02  .121E+02  .767E+01  .479E+01  .393E+01  .397E+01  .340E+01  .277E+01
  .242E+01  .186E+01  .181E+01  .172E+01  .147E+01  .169E+01  .128E+01  .112E+01
  .106E+01  .937E+00  .721E+00  .736E+00  .679E+00  .588E+00  .554E+00  .498E+00
  .498E+00  .486E+00  .458E+00  .435E+00  .396E+00  .370E+00  .342E+00  .324E+00
  .292E+00  .257E+00  .237E+00  .224E+00  .210E+00  .198E+00  .181E+00  .163E+00
  .150E+00  .140E+00  .129E+00  .000E+00  .000E+00  .000E+00  .000E+00  .000E+00
  .000E+00  .000E+00  .000E+00  .000E+00
  .344E+02  .344E+02  .344E+02  .338E+02  .344E+02  .338E+02  .348E+02  .344E+02
  .338E+02  .338E+02  .344E+02  .347E+02  .348E+02  .338E+02  .328E+02  .307E+02
  .328E+02  .338E+02  .764E+02  .300E+02  .486E+02  .360E+02  .325E+02  .433E+02
  .332E+02  .341E+02  .331E+02  .354E+02  .341E+02  .344E+02  .335E+02  .344E+02
  .344E+02  .341E+02  .344E+02  .347E+02  .347E+02  .344E+02  .351E+02  .344E+02
  .354E+02  .494E+02  .376E+02  .410E+02  .354E+02  .588E+02  .410E+02  .604E+02
  .344E+02  .721E+02  .338E+02  .338E+02  .376E+02  .531E+02  .451E+02  .335E+02
  .331E+02  .331E+02  .347E+02  .348E+02  .344E+02  .344E+02  .335E+02  .341E+02
  .331E+02  .348E+02  .348E+02  .344E+02  .344E+02  .335E+02  .335E+02  .347E+02
  .347E+02  .348E+02  .348E+02  .331E+02  .331E+02  .344E+02  .344E+02  .344E+02
  .344E+02  .344E+02  .344E+02  .344E+02  .344E+02  .335E+02  .335E+02  .347E+02
  .344E+02  .344E+02  .344E+02  .000E+00  .000E+00  .000E+00  .000E+00  .000E+00
  .000E+00  .000E+00  .000E+00  .000E+00
  .336E+02  .305E+02  .358E+02  .291E+02  .303E+02  .336E+02  .306E+02  .340E+02
  .305E+02  .454E+02  .308E+02  .348E+02  .352E+02  .303E+02  .329E+02  .309E+02
  .328E+02  .323E+02  .762E+02  .300E+02  .484E+02  .383E+02  .323E+02  .432E+02
  .329E+02  .301E+02  .324E+02  .346E+02  .346E+02  .343E+02  .346E+02  .343E+02
  .343E+02  .339E+02  .343E+02  .346E+02  .346E+02  .343E+02  .349E+02  .346E+02
  .352E+02  .495E+02  .375E+02  .409E+02  .355E+02  .586E+02  .333E+02  .606E+02
  .342E+02  .728E+02  .336E+02  .352E+02  .349E+02  .349E+02  .346E+02  .346E+02
  .333E+02  .330E+02  .349E+02  .346E+02  .346E+02  .342E+02  .333E+02  .333E+02
  .333E+02  .346E+02  .346E+02  .346E+02  .346E+02  .342E+02  .343E+02  .333E+02
  .333E+02  .346E+02  .346E+02  .346E+02  .346E+02  .346E+02  .346E+02  .346E+02
  .346E+02  .346E+02  .346E+02  .346E+02  .346E+02  .346E+02  .346E+02  .346E+02
  .346E+02  .346E+02  .346E+02  .000E+00  .000E+00  .000E+00  .000E+00  .000E+00
  .000E+00  .000E+00  .000E+00  .000E+00
  .344E+02  .344E+02  .344E+02  .338E+02  .344E+02  .338E+02  .348E+02  .344E+02
  .338E+02  .338E+02  .344E+02  .347E+02  .348E+02  .338E+02  .328E+02  .307E+02
  .328E+02  .338E+02  .764E+02  .300E+02  .486E+02  .360E+02  .325E+02  .433E+02
  .332E+02  .341E+02  .331E+02  .354E+02  .341E+02  .344E+02  .335E+02  .344E+02
  .344E+02  .341E+02  .344E+02  .347E+02  .347E+02  .344E+02  .351E+02  .344E+02
  .354E+02  .494E+02  .376E+02  .410E+02  .354E+02  .588E+02  .410E+02  .604E+02
  .344E+02  .721E+02  .338E+02  .338E+02  .376E+02  .531E+02  .451E+02  .335E+02
  .331E+02  .331E+02  .347E+02  .348E+02  .344E+02  .344E+02  .335E+02  .341E+02
  .331E+02  .348E+02  .348E+02  .344E+02  .344E+02  .335E+02  .335E+02  .347E+02
  .347E+02  .348E+02  .348E+02  .331E+02  .331E+02  .344E+02  .344E+02  .344E+02
  .344E+02  .344E+02  .344E+02  .344E+02  .344E+02  .335E+02  .335E+02  .347E+02
  .344E+02  .344E+02  .344E+02  .000E+00  .000E+00  .000E+00  .000E+00  .000E+00
  .000E+00  .000E+00  .000E+00  .000E+00
Damping =  .02. Data of Sd,Sv,Sa,Pssv,ttSd,ttSv,ttSa :
  .130E-02  .144E-02  .165E-02  .175E-02  .193E-02  .205E-02  .263E-02  .302E-02
  .406E-02  .470E-02  .514E-02  .570E-02  .652E-02  .814E-02  .873E-02  .124E-01
  .183E-01  .151E-01  .192E-01  .299E-01  .438E-01  .620E-01  .812E-01  .629E-01
  .556E-01  .539E-01  .637E-01  .522E-01  .801E-01  .737E-01  .809E-01  .996E-01
  .117E+00  .139E+00  .171E+00  .206E+00  .260E+00  .276E+00  .340E+00  .442E+00
  .558E+00  .141E+01  .253E+01  .355E+01  .295E+01  .178E+01  .123E+01  .138E+01
  .118E+01  .113E+01  .101E+01  .751E+00  .633E+00  .607E+00  .599E+00  .584E+00
  .527E+00  .460E+00  .469E+00  .481E+00  .448E+00  .535E+00  .466E+00  .433E+00
  .449E+00  .419E+00  .361E+00  .376E+00  .373E+00  .345E+00  .342E+00  .328E+00
  .341E+00  .347E+00  .343E+00  .341E+00  .341E+00  .348E+00  .351E+00  .355E+00
  .345E+00  .329E+00  .322E+00  .320E+00  .317E+00  .313E+00  .314E+00  .310E+00
  .311E+00  .311E+00  .309E+00  .000E+00  .000E+00  .000E+00  .000E+00  .000E+00
  .000E+00  .000E+00  .000E+00  .000E+00
  .304E-01  .373E-01  .429E-01  .480E-01  .526E-01  .679E-01  .102E+00  .117E+00
  .198E+00  .188E+00  .181E+00  .202E+00  .289E+00  .364E+00  .385E+00  .540E+00
  .733E+00  .560E+00  .739E+00  .971E+00  .148E+01  .207E+01  .268E+01  .161E+01
  .144E+01  .149E+01  .153E+01  .110E+01  .151E+01  .112E+01  .924E+00  .121E+01
  .131E+01  .155E+01  .184E+01  .222E+01  .304E+01  .297E+01  .352E+01  .465E+01
  .586E+01  .152E+02  .259E+02  .339E+02  .276E+02  .163E+02  .111E+02  .112E+02
  .962E+01  .865E+01  .763E+01  .593E+01  .515E+01  .464E+01  .428E+01  .455E+01
  .415E+01  .336E+01  .346E+01  .372E+01  .379E+01  .343E+01  .352E+01  .339E+01
  .317E+01  .313E+01  .317E+01  .309E+01  .299E+01  .296E+01  .294E+01  .293E+01
  .293E+01  .295E+01  .296E+01  .297E+01  .296E+01  .294E+01  .292E+01  .290E+01
  .288E+01  .287E+01  .287E+01  .287E+01  .287E+01  .287E+01  .287E+01  .288E+01
  .288E+01  .287E+01  .287E+01  .000E+00  .000E+00  .000E+00  .000E+00  .000E+00
  .000E+00  .000E+00  .000E+00  .000E+00
  .830E-01  .834E-01  .874E-01  .847E-01  .856E-01  .838E-01  .890E-01  .858E-01
  .982E-01  .982E-01  .935E-01  .910E-01  .923E-01  .103E+00  .988E-01  .128E+00
  .155E+00  .106E+00  .116E+00  .156E+00  .199E+00  .248E+00  .288E+00  .200E+00
  .158E+00  .138E+00  .135E+00  .929E-01  .121E+00  .963E-01  .919E-01  .995E-01
  .103E+00  .109E+00  .121E+00  .131E+00  .151E+00  .146E+00  .164E+00  .196E+00
  .228E+00  .478E+00  .720E+00  .860E+00  .615E+00  .323E+00  .197E+00  .196E+00
  .149E+00  .128E+00  .103E+00  .636E-01  .450E-01  .368E-01  .313E-01  .266E-01
  .211E-01  .163E-01  .149E-01  .137E-01  .115E-01  .114E-01  .834E-02  .660E-02
  .590E-02  .482E-02  .367E-02  .339E-02  .301E-02  .250E-02  .224E-02  .196E-02
  .186E-02  .174E-02  .158E-02  .144E-02  .120E-02  .105E-02  .910E-03  .799E-03
  .685E-03  .583E-03  .512E-03  .460E-03  .413E-03  .371E-03  .317E-03  .272E-03
  .237E-03  .211E-03  .188E-03  .000E+00  .000E+00  .000E+00  .000E+00  .000E+00
  .000E+00  .000E+00  .000E+00  .000E+00
  .204E+00  .215E+00  .236E+00  .240E+00  .252E+00  .258E+00  .301E+00  .316E+00
  .392E+00  .422E+00  .431E+00  .447E+00  .482E+00  .568E+00  .577E+00  .779E+00
  .105E+01  .788E+00  .927E+00  .134E+01  .184E+01  .244E+01  .300E+01  .220E+01
  .184E+01  .169E+01  .182E+01  .137E+01  .193E+01  .165E+01  .169E+01  .195E+01
  .215E+01  .242E+01  .283E+01  .323E+01  .389E+01  .394E+01  .464E+01  .579E+01
  .702E+01  .162E+02  .265E+02  .343E+02  .265E+02  .149E+02  .969E+01  .102E+02
  .822E+01  .744E+01  .634E+01  .429E+01  .332E+01  .293E+01  .269E+01  .244E+01
  .207E+01  .170E+01  .164E+01  .159E+01  .141E+01  .153E+01  .122E+01  .105E+01
  .101E+01  .877E+00  .710E+00  .695E+00  .651E+00  .570E+00  .537E+00  .491E+00
  .487E+00  .473E+00  .449E+00  .428E+00  .389E+00  .365E+00  .340E+00  .319E+00
  .289E+00  .259E+00  .238E+00  .223E+00  .209E+00  .197E+00  .179E+00  .162E+00
  .150E+00  .140E+00  .130E+00  .000E+00  .000E+00  .000E+00  .000E+00  .000E+00
  .000E+00  .000E+00  .000E+00  .000E+00
  .344E+02  .344E+02  .344E+02  .344E+02  .344E+02  .344E+02  .344E+02  .344E+02
  .303E+02  .303E+02  .344E+02  .344E+02  .338E+02  .303E+02  .345E+02  .306E+02
  .298E+02  .298E+02  .298E+02  .300E+02  .303E+02  .307E+02  .306E+02  .341E+02
  .303E+02  .301E+02  .306E+02  .292E+02  .303E+02  .344E+02  .335E+02  .344E+02
  .344E+02  .344E+02  .344E+02  .344E+02  .347E+02  .344E+02  .348E+02  .348E+02
  .351E+02  .335E+02  .370E+02  .381E+02  .350E+02  .341E+02  .331E+02  .324E+02
  .344E+02  .341E+02  .338E+02  .338E+02  .376E+02  .347E+02  .347E+02  .335E+02
  .331E+02  .331E+02  .347E+02  .348E+02  .344E+02  .344E+02  .335E+02  .331E+02
  .331E+02  .348E+02  .348E+02  .344E+02  .344E+02  .344E+02  .335E+02  .335E+02
  .347E+02  .347E+02  .348E+02  .331E+02  .331E+02  .344E+02  .344E+02  .344E+02
  .344E+02  .344E+02  .344E+02  .344E+02  .344E+02  .335E+02  .335E+02  .347E+02
  .344E+02  .344E+02  .344E+02  .000E+00  .000E+00  .000E+00  .000E+00  .000E+00
  .000E+00  .000E+00  .000E+00  .000E+00
  .301E+02  .304E+02  .304E+02  .302E+02  .303E+02  .304E+02  .305E+02  .305E+02
  .305E+02  .303E+02  .291E+02  .295E+02  .292E+02  .293E+02  .293E+02  .293E+02
  .297E+02  .298E+02  .298E+02  .301E+02  .305E+02  .311E+02  .305E+02  .339E+02
  .304E+02  .301E+02  .299E+02  .289E+02  .299E+02  .299E+02  .346E+02  .343E+02
  .343E+02  .343E+02  .343E+02  .346E+02  .346E+02  .346E+02  .349E+02  .346E+02
  .352E+02  .336E+02  .371E+02  .376E+02  .352E+02  .342E+02  .333E+02  .326E+02
  .342E+02  .339E+02  .340E+02  .336E+02  .349E+02  .349E+02  .346E+02  .346E+02
  .333E+02  .333E+02  .346E+02  .346E+02  .346E+02  .342E+02  .333E+02  .333E+02
  .333E+02  .346E+02  .346E+02  .346E+02  .346E+02  .342E+02  .342E+02  .333E+02
  .346E+02  .346E+02  .346E+02  .346E+02  .346E+02  .346E+02  .346E+02  .346E+02
  .346E+02  .346E+02  .346E+02  .346E+02  .346E+02  .346E+02  .346E+02  .346E+02
  .346E+02  .346E+02  .346E+02  .000E+00  .000E+00  .000E+00  .000E+00  .000E+00
  .000E+00  .000E+00  .000E+00  .000E+00
  .344E+02  .344E+02  .344E+02  .344E+02  .344E+02  .344E+02  .344E+02  .344E+02
  .303E+02  .303E+02  .344E+02  .344E+02  .344E+02  .303E+02  .345E+02  .306E+02
  .298E+02  .298E+02  .298E+02  .300E+02  .303E+02  .307E+02  .306E+02  .341E+02
  .303E+02  .301E+02  .306E+02  .292E+02  .303E+02  .344E+02  .334E+02  .344E+02
  .344E+02  .344E+02  .344E+02  .344E+02  .347E+02  .344E+02  .348E+02  .347E+02
  .351E+02  .335E+02  .370E+02  .381E+02  .350E+02  .341E+02  .331E+02  .324E+02
  .344E+02  .341E+02  .338E+02  .338E+02  .376E+02  .347E+02  .347E+02  .334E+02
  .331E+02  .331E+02  .347E+02  .347E+02  .344E+02  .344E+02  .335E+02  .331E+02
  .331E+02  .347E+02  .347E+02  .344E+02  .344E+02  .344E+02  .334E+02  .347E+02
  .347E+02  .347E+02  .347E+02  .331E+02  .331E+02  .344E+02  .344E+02  .344E+02
  .344E+02  .344E+02  .344E+02  .344E+02  .344E+02  .344E+02  .347E+02  .347E+02
  .344E+02  .343E+02  .343E+02  .000E+00  .000E+00  .000E+00  .000E+00  .000E+00
  .000E+00  .000E+00  .000E+00  .000E+00
Damping =  .05. Data of Sd,Sv,Sa,Pssv,ttSd,ttSv,ttSa :
  .131E-02  .145E-02  .160E-02  .174E-02  .188E-02  .201E-02  .248E-02  .298E-02
  .349E-02  .431E-02  .498E-02  .562E-02  .642E-02  .761E-02  .845E-02  .947E-02
