Response and Fourier amplitude spectra (91 periods,  .04 - 15.0 sec)   for      
Corrected accelerogram   12299-K1643-10189.03       Chan  4: 270 Deg     from   
Uncorrected Accelerogram Data             Processed: 07/13/10, CGS  bv003       
Record of Wed Jul  7, 2010 16:53:20.0 PDT             (Avol1 v8.9,05/09 CSMIP)  
CSMIP Preliminary Processing            (Origin:  To be determined)             
12299-K1643-10189.03                 Start time:  7/07/10, 23:53:20.0 UTC (GPS) 
Station No. 12299   33.834N, 116.541W        K2  s/n 1643 (12 Channels)         
Palm Springs - 4-story Hospital           CGS                                   
Chan  4: 270 DegR (Sta Chn:  5)     Location: 3rd Floor: Near Center            
Record of Wed Jul  7, 2010 16:53:20.0 PDT    Wed Jul  7, 2010 16:53:20.0 PDT    
Hypocenter:  To be determined.               ML:  To be determined.
Instr Period =  .0108 sec,  Damping =  .640,  Sensitivity =  .63  v/g
                        Record length = 80.000 sec.
                                     Uncor Max  =  -.062 g , at  34.430 sec.
RMS accel of (uncor) record  =        .   Chn. metadata effective date: 06/30/10
Accelerogram bandpass filtered with 3 dB pts at   .13 and 40.00 cyc/sec
                 instrument- and baseline-corrected





Record of Wed Jul  7, 2010 16:53:20.0 PDT    Wed Jul  7, 2010 16:53:20.0 PDT

12299-K1643-10189.03      Palm Springs - 4-story Hospital   Chan  4: 270 Deg

12299-K1643-10189.03      Palm Springs - 4-story Hospital   Chan  4: 270 Deg

Units for spectra are inches and sec, except Sa is in fraction of g.

    4  100    5   12   12  200    1    3    1   24   11 1643    012299    2    0
   23   53   20    0  188    7    7 2010   10    3  27016000   41   31   76  360
16000    0  100    3 1643    1    3  800    2    0    0    0    0    0    0    0
    0    4    0    0 8000    2  222    1   18    4   76   31    3    1    0 8000
    3 8000   32   91    5   12    5    0    0    0   12    0    0    3    1    2
    2    2    4    0   72   99    0   32   32    0    0    1  100    0    0  222
    1    0    1    0
      .011      .640    80.000      .009      .000   626.000     -.062    34.430
    92.800      .298      .476      .000     5.000      .000     4.000      .000
     2.500    21.236     2.500  -999.000    23.000    30.000      .000      .011
     -.002     -.013     2.000    15.000    33.834  -116.541      .076     1.132
    14.812     -.067      .041   143.000    23.100    48.900    13.300    97.160
     1.000    -1.155      .000      .000      .000      .000      .000      .000
     6.700     8.900     5.500   980.665      .010    80.000    14.770      .000
      .000    40.000      .000    80.000      .010      .125      .000      .000
    34.420   -59.737    34.570    -5.310    34.410      .598      .000      .125
    40.000      .010      .010      .001      .990      .329      .000      .000
      .362      .650      .085      .072      .065      .004      .000      .000
      .000      .000      .000      .000      .000      .000      .000      .000
      .000      .000      .000      .000
      .000      .020      .050      .100      .200
      .040      .042      .044      .046      .048      .050      .055      .060
      .065      .070      .075      .080      .085      .090      .095      .100
      .110      .120      .130      .140      .150      .160      .170      .180
      .190      .200      .220      .240      .260      .280      .300      .320
      .340      .360      .380      .400      .420      .440      .460      .480
      .500      .550      .600      .650      .700      .750      .800      .850
      .900      .950     1.000     1.100     1.200     1.300     1.400     1.500
     1.600     1.700     1.800     1.900     2.000     2.200     2.400     2.600
     2.800     3.000     3.200     3.400     3.600     3.800     4.000     4.200
     4.400     4.600     4.800     5.000     5.500     6.000     6.500     7.000
     7.500     8.000     8.500     9.000     9.500    10.000    11.000    12.000
    13.000    14.000    15.000      .000      .000      .000      .000      .000
      .000      .000      .000      .000
Fourier amplitude spectra in in/sec.
  .254E-01  .817E-01  .611E-01  .562E-01  .909E-01  .119E+00  .152E+00  .442E+00
  .635E+00  .738E-01  .229E+00  .249E+00  .252E+00  .537E+00  .496E+00  .673E+00
  .106E+01  .815E+00  .195E+01  .106E+01  .200E+01  .393E+01  .474E+01  .364E+01
  .217E+01  .647E+00  .312E+01  .128E+01  .138E+01  .498E+00  .126E+00  .641E-01
  .298E+00  .427E+00  .127E+01  .145E+01  .518E+01  .539E+01  .236E+01  .103E+01
  .788E+01  .125E+02  .212E+02  .490E+02  .158E+02  .211E+02  .478E+01  .196E+02
  .652E+01  .110E+02  .195E+01  .392E+01  .169E+01  .285E+01  .201E+01  .509E+00
  .973E+00  .621E+00  .136E+01  .287E+00  .433E+00  .698E+00  .666E+00  .849E+00
  .273E+00  .159E+00  .220E+00  .211E+00  .118E+00  .156E+00  .779E-01  .438E-01
  .439E-01  .455E-01  .791E-01  .755E-01  .716E-01  .437E-01  .388E-01  .492E-01
  .441E-01  .332E-01  .213E-01  .151E-01  .127E-01  .911E-02  .571E-02  .646E-02
  .362E-02  .192E-02  .137E-02  .000E+00  .000E+00  .000E+00  .000E+00  .000E+00
  .000E+00  .000E+00  .000E+00  .000E+00
Damping =  .00. Data of Sd,Sv,Sa,Pssv,ttSd,ttSv,ttSa :
  .107E-02  .159E-02  .180E-02  .172E-02  .188E-02  .224E-02  .273E-02  .602E-02
  .827E-02  .482E-02  .667E-02  .656E-02  .102E-01  .136E-01  .121E-01  .206E-01
  .275E-01  .235E-01  .406E-01  .441E-01  .608E-01  .144E+00  .144E+00  .110E+00
  .101E+00  .424E-01  .133E+00  .832E-01  .100E+00  .684E-01  .612E-01  .739E-01
  .113E+00  .126E+00  .171E+00  .249E+00  .429E+00  .481E+00  .423E+00  .441E+00
  .726E+00  .136E+01  .255E+01  .542E+01  .302E+01  .264E+01  .112E+01  .267E+01
  .132E+01  .169E+01  .104E+01  .746E+00  .692E+00  .807E+00  .761E+00  .601E+00
  .556E+00  .432E+00  .450E+00  .465E+00  .389E+00  .499E+00  .420E+00  .399E+00
  .409E+00  .360E+00  .286E+00  .321E+00  .313E+00  .273E+00  .266E+00  .248E+00
  .258E+00  .270E+00  .279E+00  .283E+00  .281E+00  .279E+00  .284E+00  .283E+00
  .272E+00  .254E+00  .242E+00  .237E+00  .234E+00  .232E+00  .229E+00  .227E+00
  .229E+00  .231E+00  .232E+00  .000E+00  .000E+00  .000E+00  .000E+00  .000E+00
  .000E+00  .000E+00  .000E+00  .000E+00
  .510E-01  .927E-01  .118E+00  .779E-01  .102E+00  .137E+00  .208E+00  .490E+00
  .686E+00  .316E+00  .393E+00  .342E+00  .521E+00  .700E+00  .647E+00  .973E+00
  .138E+01  .929E+00  .196E+01  .175E+01  .221E+01  .544E+01  .512E+01  .384E+01
  .309E+01  .139E+01  .358E+01  .182E+01  .198E+01  .989E+00  .784E+00  .962E+00
  .140E+01  .152E+01  .201E+01  .323E+01  .578E+01  .621E+01  .519E+01  .509E+01
  .911E+01  .147E+02  .262E+02  .525E+02  .277E+02  .221E+02  .983E+01  .197E+02
  .103E+02  .112E+02  .729E+01  .504E+01  .438E+01  .396E+01  .368E+01  .408E+01
  .359E+01  .299E+01  .283E+01  .296E+01  .305E+01  .274E+01  .282E+01  .264E+01
  .237E+01  .237E+01  .241E+01  .231E+01  .221E+01  .223E+01  .219E+01  .217E+01
  .217E+01  .216E+01  .218E+01  .219E+01  .218E+01  .215E+01  .213E+01  .211E+01
  .211E+01  .211E+01  .211E+01  .210E+01  .209E+01  .209E+01  .209E+01  .209E+01
  .209E+01  .209E+01  .209E+01  .000E+00  .000E+00  .000E+00  .000E+00  .000E+00
  .000E+00  .000E+00  .000E+00  .000E+00
  .682E-01  .920E-01  .953E-01  .830E-01  .834E-01  .918E-01  .924E-01  .171E+00
  .200E+00  .101E+00  .121E+00  .105E+00  .144E+00  .172E+00  .137E+00  .211E+00
  .233E+00  .167E+00  .246E+00  .230E+00  .276E+00  .574E+00  .511E+00  .346E+00
  .286E+00  .108E+00  .280E+00  .148E+00  .151E+00  .892E-01  .696E-01  .738E-01
  .996E-01  .995E-01  .121E+00  .159E+00  .249E+00  .254E+00  .204E+00  .196E+00
  .297E+00  .460E+00  .723E+00  .131E+01  .630E+00  .480E+00  .179E+00  .377E+00
  .166E+00  .192E+00  .106E+00  .631E-01  .491E-01  .489E-01  .397E-01  .273E-01
  .222E-01  .153E-01  .142E-01  .132E-01  .994E-02  .105E-01  .746E-02  .604E-02
  .533E-02  .409E-02  .285E-02  .284E-02  .247E-02  .193E-02  .170E-02  .144E-02
  .137E-02  .130E-02  .124E-02  .116E-02  .951E-03  .791E-03  .687E-03  .592E-03
  .494E-03  .406E-03  .343E-03  .299E-03  .265E-03  .237E-03  .193E-03  .161E-03
  .138E-03  .120E-03  .105E-03  .000E+00  .000E+00  .000E+00  .000E+00  .000E+00
  .000E+00  .000E+00  .000E+00  .000E+00
  .168E+00  .237E+00  .258E+00  .235E+00  .246E+00  .282E+00  .312E+00  .630E+00
  .799E+00  .433E+00  .559E+00  .515E+00  .753E+00  .950E+00  .802E+00  .129E+01
  .157E+01  .123E+01  .196E+01  .198E+01  .255E+01  .564E+01  .534E+01  .382E+01
  .334E+01  .133E+01  .379E+01  .218E+01  .242E+01  .153E+01  .128E+01  .145E+01
  .208E+01  .220E+01  .283E+01  .392E+01  .642E+01  .687E+01  .578E+01  .577E+01
  .912E+01  .155E+02  .267E+02  .524E+02  .271E+02  .221E+02  .880E+01  .197E+02
  .920E+01  .112E+02  .652E+01  .426E+01  .362E+01  .390E+01  .342E+01  .252E+01
  .218E+01  .160E+01  .157E+01  .154E+01  .122E+01  .143E+01  .110E+01  .965E+00
  .917E+00  .754E+00  .561E+00  .593E+00  .547E+00  .451E+00  .417E+00  .371E+00
  .369E+00  .368E+00  .365E+00  .355E+00  .321E+00  .292E+00  .274E+00  .254E+00
  .228E+00  .200E+00  .179E+00  .165E+00  .155E+00  .146E+00  .131E+00  .119E+00
  .111E+00  .104E+00  .972E-01  .000E+00  .000E+00  .000E+00  .000E+00  .000E+00
  .000E+00  .000E+00  .000E+00  .000E+00
  .344E+02  .344E+02  .344E+02  .344E+02  .344E+02  .344E+02  .347E+02  .344E+02
  .344E+02  .298E+02  .331E+02  .344E+02  .338E+02  .338E+02  .284E+02  .344E+02
  .348E+02  .338E+02  .764E+02  .300E+02  .303E+02  .383E+02  .380E+02  .431E+02
  .332E+02  .302E+02  .384E+02  .346E+02  .347E+02  .344E+02  .344E+02  .344E+02
  .344E+02  .341E+02  .344E+02  .347E+02  .347E+02  .341E+02  .350E+02  .347E+02
  .353E+02  .334E+02  .373E+02  .410E+02  .354E+02  .592E+02  .410E+02  .770E+02
  .344E+02  .721E+02  .338E+02  .383E+02  .376E+02  .498E+02  .451E+02  .380E+02
  .331E+02  .318E+02  .543E+02  .376E+02  .344E+02  .344E+02  .376E+02  .331E+02
  .331E+02  .331E+02  .331E+02  .344E+02  .344E+02  .334E+02  .334E+02  .334E+02
  .347E+02  .331E+02  .331E+02  .331E+02  .331E+02  .344E+02  .344E+02  .344E+02
  .344E+02  .344E+02  .344E+02  .344E+02  .344E+02  .344E+02  .334E+02  .344E+02
  .344E+02  .344E+02  .344E+02  .000E+00  .000E+00  .000E+00  .000E+00  .000E+00
  .000E+00  .000E+00  .000E+00  .000E+00
  .262E+02  .305E+02  .346E+02  .355E+02  .361E+02  .338E+02  .306E+02  .385E+02
  .454E+02  .297E+02  .307E+02  .359E+02  .352E+02  .303E+02  .296E+02  .342E+02
  .407E+02  .337E+02  .762E+02  .300E+02  .302E+02  .382E+02  .382E+02  .431E+02
  .332E+02  .301E+02  .381E+02  .346E+02  .346E+02  .310E+02  .343E+02  .286E+02
  .345E+02  .340E+02  .343E+02  .346E+02  .382E+02  .342E+02  .349E+02  .346E+02
  .615E+02  .333E+02  .374E+02  .412E+02  .352E+02  .586E+02  .333E+02  .780E+02
  .342E+02  .733E+02  .336E+02  .336E+02  .378E+02  .534E+02  .433E+02  .346E+02
  .333E+02  .329E+02  .378E+02  .345E+02  .346E+02  .342E+02  .333E+02  .333E+02
  .333E+02  .346E+02  .346E+02  .346E+02  .342E+02  .342E+02  .342E+02  .333E+02
  .333E+02  .346E+02  .346E+02  .346E+02  .346E+02  .346E+02  .346E+02  .346E+02
  .342E+02  .342E+02  .342E+02  .342E+02  .342E+02  .342E+02  .346E+02  .346E+02
  .346E+02  .346E+02  .346E+02  .000E+00  .000E+00  .000E+00  .000E+00  .000E+00
  .000E+00  .000E+00  .000E+00  .000E+00
  .344E+02  .344E+02  .344E+02  .344E+02  .344E+02  .344E+02  .347E+02  .344E+02
  .344E+02  .298E+02  .331E+02  .344E+02  .338E+02  .338E+02  .284E+02  .344E+02
  .348E+02  .338E+02  .764E+02  .300E+02  .303E+02  .383E+02  .380E+02  .431E+02
  .332E+02  .302E+02  .384E+02  .346E+02  .347E+02  .344E+02  .344E+02  .344E+02
  .344E+02  .341E+02  .344E+02  .347E+02  .347E+02  .341E+02  .350E+02  .347E+02
  .353E+02  .334E+02  .373E+02  .410E+02  .354E+02  .592E+02  .410E+02  .770E+02
  .344E+02  .721E+02  .338E+02  .383E+02  .376E+02  .498E+02  .451E+02  .380E+02
  .331E+02  .318E+02  .543E+02  .376E+02  .344E+02  .344E+02  .376E+02  .331E+02
  .331E+02  .331E+02  .331E+02  .344E+02  .344E+02  .334E+02  .334E+02  .334E+02
  .347E+02  .331E+02  .331E+02  .331E+02  .331E+02  .344E+02  .344E+02  .344E+02
  .344E+02  .344E+02  .344E+02  .344E+02  .344E+02  .344E+02  .334E+02  .344E+02
  .344E+02  .344E+02  .344E+02  .000E+00  .000E+00  .000E+00  .000E+00  .000E+00
  .000E+00  .000E+00  .000E+00  .000E+00
Damping =  .02. Data of Sd,Sv,Sa,Pssv,ttSd,ttSv,ttSa :
  .102E-02  .108E-02  .119E-02  .134E-02  .148E-02  .165E-02  .189E-02  .232E-02
  .305E-02  .325E-02  .364E-02  .464E-02  .538E-02  .572E-02  .844E-02  .939E-02
  .110E-01  .107E-01  .192E-01  .258E-01  .403E-01  .525E-01  .715E-01  .518E-01
  .462E-01  .390E-01  .498E-01  .503E-01  .591E-01  .571E-01  .610E-01  .748E-01
  .931E-01  .109E+00  .142E+00  .168E+00  .223E+00  .267E+00  .318E+00  .379E+00
  .449E+00  .880E+00  .148E+01  .258E+01  .214E+01  .136E+01  .102E+01  .125E+01
  .958E+00  .918E+00  .834E+00  .609E+00  .576E+00  .501E+00  .518E+00  .489E+00
  .465E+00  .387E+00  .372E+00  .390E+00  .367E+00  .444E+00  .368E+00  .371E+00
  .382E+00  .345E+00  .285E+00  .299E+00  .296E+00  .265E+00  .256E+00  .243E+00
  .250E+00  .264E+00  .273E+00  .277E+00  .276E+00  .273E+00  .279E+00  .278E+00
  .269E+00  .255E+00  .244E+00  .239E+00  .235E+00  .233E+00  .229E+00  .228E+00
  .229E+00  .231E+00  .232E+00  .000E+00  .000E+00  .000E+00  .000E+00  .000E+00
  .000E+00  .000E+00  .000E+00  .000E+00
  .346E-01  .391E-01  .323E-01  .415E-01  .611E-01  .644E-01  .860E-01  .125E+00
  .179E+00  .181E+00  .200E+00  .164E+00  .229E+00  .241E+00  .366E+00  .483E+00
  .492E+00  .378E+00  .763E+00  .920E+00  .136E+01  .181E+01  .238E+01  .143E+01
  .129E+01  .126E+01  .140E+01  .115E+01  .126E+01  .798E+00  .731E+00  .864E+00
  .104E+01  .126E+01  .168E+01  .223E+01  .292E+01  .336E+01  .366E+01  .412E+01
  .509E+01  .923E+01  .152E+02  .245E+02  .199E+02  .123E+02  .896E+01  .981E+01
  .767E+01  .691E+01  .603E+01  .466E+01  .396E+01  .346E+01  .338E+01  .364E+01
  .328E+01  .272E+01  .257E+01  .284E+01  .291E+01  .262E+01  .271E+01  .258E+01
  .236E+01  .232E+01  .236E+01  .229E+01  .219E+01  .220E+01  .218E+01  .216E+01
  .216E+01  .216E+01  .217E+01  .218E+01  .217E+01  .215E+01  .213E+01  .211E+01
  .211E+01  .211E+01  .210E+01  .210E+01  .209E+01  .209E+01  .209E+01  .209E+01
  .209E+01  .209E+01  .209E+01  .000E+00  .000E+00  .000E+00  .000E+00  .000E+00
  .000E+00  .000E+00  .000E+00  .000E+00
  .653E-01  .628E-01  .631E-01  .647E-01  .659E-01  .674E-01  .637E-01  .658E-01
  .736E-01  .679E-01  .662E-01  .742E-01  .763E-01  .723E-01  .956E-01  .963E-01
  .931E-01  .758E-01  .116E+00  .135E+00  .183E+00  .209E+00  .252E+00  .164E+00
  .131E+00  .999E-01  .105E+00  .897E-01  .893E-01  .746E-01  .694E-01  .748E-01
  .824E-01  .862E-01  .100E+00  .107E+00  .129E+00  .141E+00  .154E+00  .168E+00
  .184E+00  .297E+00  .420E+00  .625E+00  .447E+00  .247E+00  .163E+00  .178E+00
  .121E+00  .104E+00  .853E-01  .516E-01  .410E-01  .304E-01  .271E-01  .223E-01
  .186E-01  .138E-01  .118E-01  .111E-01  .944E-02  .944E-02  .658E-02  .566E-02
  .503E-02  .396E-02  .289E-02  .270E-02  .238E-02  .192E-02  .167E-02  .144E-02
  .136E-02  .131E-02  .125E-02  .117E-02  .970E-03  .821E-03  .719E-03  .624E-03
  .531E-03  .450E-03  .388E-03  .343E-03  .308E-03  .278E-03  .233E-03  .200E-03
  .176E-03  .157E-03  .141E-03  .000E+00  .000E+00  .000E+00  .000E+00  .000E+00
  .000E+00  .000E+00  .000E+00  .000E+00
  .160E+00  .162E+00  .171E+00  .183E+00  .194E+00  .207E+00  .215E+00  .243E+00
  .294E+00  .292E+00  .305E+00  .364E+00  .398E+00  .399E+00  .558E+00  .590E+00
  .629E+00  .558E+00  .927E+00  .116E+01  .169E+01  .206E+01  .264E+01  .181E+01
  .153E+01  .123E+01  .142E+01  .132E+01  .143E+01  .128E+01  .128E+01  .147E+01
  .172E+01  .191E+01  .234E+01  .263E+01  .334E+01  .381E+01  .435E+01  .496E+01
  .564E+01  .100E+02  .155E+02  .249E+02  .192E+02  .114E+02  .801E+01  .926E+01
  .669E+01  .607E+01  .524E+01  .348E+01  .302E+01  .242E+01  .233E+01  .205E+01
  .183E+01  .143E+01  .130E+01  .129E+01  .115E+01  .127E+01  .964E+00  .898E+00
  .857E+00  .722E+00  .559E+00  .553E+00  .517E+00  .438E+00  .402E+00  .363E+00
  .357E+00  .361E+00  .357E+00  .348E+00  .316E+00  .286E+00  .270E+00  .250E+00
  .225E+00  .200E+00  .181E+00  .167E+00  .156E+00  .146E+00  .131E+00  .119E+00
  .111E+00  .104E+00  .972E-01  .000E+00  .000E+00  .000E+00  .000E+00  .000E+00
  .000E+00  .000E+00  .000E+00  .000E+00
  .344E+02  .344E+02  .344E+02  .344E+02  .344E+02  .344E+02  .347E+02  .344E+02
  .303E+02  .344E+02  .344E+02  .344E+02  .303E+02  .303E+02  .284E+02  .307E+02
  .298E+02  .344E+02  .298E+02  .300E+02  .303E+02  .305E+02  .306E+02  .341E+02
  .324E+02  .301E+02  .306E+02  .290E+02  .303E+02  .344E+02  .344E+02  .344E+02
  .344E+02  .344E+02  .344E+02  .285E+02  .288E+02  .344E+02  .347E+02  .347E+02
  .350E+02  .334E+02  .367E+02  .381E+02  .350E+02  .341E+02  .327E+02  .324E+02
  .321E+02  .341E+02  .338E+02  .338E+02  .376E+02  .347E+02  .430E+02  .334E+02
  .331E+02  .331E+02  .318E+02  .376E+02  .344E+02  .344E+02  .335E+02  .331E+02
  .331E+02  .331E+02  .331E+02  .344E+02  .344E+02  .344E+02  .334E+02  .334E+02
  .331E+02  .331E+02  .331E+02  .331E+02  .331E+02  .344E+02  .344E+02  .344E+02
  .344E+02  .344E+02  .344E+02  .344E+02  .344E+02  .344E+02  .344E+02  .344E+02
  .344E+02  .344E+02  .344E+02  .000E+00  .000E+00  .000E+00  .000E+00  .000E+00
  .000E+00  .000E+00  .000E+00  .000E+00
  .301E+02  .304E+02  .298E+02  .298E+02  .298E+02  .304E+02  .298E+02  .298E+02
  .298E+02  .298E+02  .307E+02  .286E+02  .292E+02  .281E+02  .284E+02  .304E+02
  .304E+02  .311E+02  .298E+02  .300E+02  .302E+02  .305E+02  .306E+02  .339E+02
  .304E+02  .301E+02  .299E+02  .289E+02  .299E+02  .310E+02  .343E+02  .345E+02
  .343E+02  .343E+02  .345E+02  .286E+02  .289E+02  .289E+02  .290E+02  .349E+02
  .293E+02  .333E+02  .365E+02  .383E+02  .348E+02  .342E+02  .329E+02  .326E+02
  .342E+02  .339E+02  .339E+02  .336E+02  .378E+02  .349E+02  .345E+02  .345E+02
  .333E+02  .329E+02  .345E+02  .345E+02  .346E+02  .342E+02  .333E+02  .333E+02
  .333E+02  .345E+02  .346E+02  .346E+02  .346E+02  .342E+02  .342E+02  .333E+02
  .333E+02  .346E+02  .346E+02  .346E+02  .346E+02  .346E+02  .346E+02  .346E+02
  .342E+02  .342E+02  .342E+02  .342E+02  .342E+02  .342E+02  .346E+02  .346E+02
  .346E+02  .346E+02  .346E+02  .000E+00  .000E+00  .000E+00  .000E+00  .000E+00
  .000E+00  .000E+00  .000E+00  .000E+00
  .344E+02  .344E+02  .344E+02  .344E+02  .344E+02  .344E+02  .347E+02  .344E+02
  .303E+02  .344E+02  .303E+02  .344E+02  .303E+02  .303E+02  .284E+02  .307E+02
  .298E+02  .344E+02  .298E+02  .300E+02  .303E+02  .305E+02  .306E+02  .341E+02
  .324E+02  .301E+02  .306E+02  .290E+02  .303E+02  .344E+02  .344E+02  .344E+02
  .344E+02  .344E+02  .344E+02  .285E+02  .288E+02  .344E+02  .347E+02  .347E+02
  .350E+02  .334E+02  .367E+02  .381E+02  .350E+02  .341E+02  .327E+02  .324E+02
  .321E+02  .341E+02  .338E+02  .338E+02  .376E+02  .347E+02  .430E+02  .334E+02
  .330E+02  .331E+02  .318E+02  .376E+02  .344E+02  .344E+02  .334E+02  .330E+02
  .331E+02  .331E+02  .331E+02  .344E+02  .344E+02  .344E+02  .334E+02  .334E+02
  .347E+02  .330E+02  .330E+02  .330E+02  .330E+02  .344E+02  .344E+02  .344E+02
  .344E+02  .343E+02  .343E+02  .343E+02  .343E+02  .343E+02  .343E+02  .343E+02
  .343E+02  .343E+02  .343E+02  .000E+00  .000E+00  .000E+00  .000E+00  .000E+00
  .000E+00  .000E+00  .000E+00  .000E+00
Damping =  .05. Data of Sd,Sv,Sa,Pssv,ttSd,ttSv,ttSa :
  .991E-03  .109E-02  .119E-02  .132E-02  .146E-02  .160E-02  .189E-02  .226E-02
  .257E-02  .302E-02  .344E-02  .418E-02  .471E-02  .533E-02  .652E-02  .706E-02
