Response and Fourier amplitude spectra (91 periods,  .04 - 15.0 sec)   for      
Corrected accelerogram   12299-K1643-10189.03       Chan  7: 270 Deg     from   
Uncorrected Accelerogram Data             Processed: 07/13/10, CGS  bv003       
Record of Wed Jul  7, 2010 16:53:20.0 PDT             (Avol1 v8.9,05/09 CSMIP)  
CSMIP Preliminary Processing            (Origin:  To be determined)             
12299-K1643-10189.03                 Start time:  7/07/10, 23:53:20.0 UTC (GPS) 
Station No. 12299   33.834N, 116.541W        K2  s/n 1643 (12 Channels)         
Palm Springs - 4-story Hospital           CGS                                   
Chan  7: 270 DegR (Sta Chn:  8)     Location: 2nd Floor: North Wall             
Record of Wed Jul  7, 2010 16:53:20.0 PDT    Wed Jul  7, 2010 16:53:20.0 PDT    
Hypocenter:  To be determined.               ML:  To be determined.
Instr Period =  .0103 sec,  Damping =  .680,  Sensitivity =  .63  v/g
                        Record length = 80.000 sec.
                                     Uncor Max  =  -.062 g , at  33.775 sec.
RMS accel of (uncor) record  =        .   Chn. metadata effective date: 06/30/10
Accelerogram bandpass filtered with 3 dB pts at   .13 and 40.00 cyc/sec
                 instrument- and baseline-corrected





Record of Wed Jul  7, 2010 16:53:20.0 PDT    Wed Jul  7, 2010 16:53:20.0 PDT

12299-K1643-10189.03      Palm Springs - 4-story Hospital   Chan  7: 270 Deg

12299-K1643-10189.03      Palm Springs - 4-story Hospital   Chan  7: 270 Deg

Units for spectra are inches and sec, except Sa is in fraction of g.

    7  100    8   12   12  200    1    3    1   24   11 1643    012299    2    0
   23   53   20    0  188    7    7 2010   10    3  27016000   41   31   76  360
16000    0  100    3 1643    1    3  800    2    0    0    0    0    0    0    0
    0    4    0    0 8000    2  222    1   18    4   76   31    3    1    0 8000
    3 8000   32   91    5   12    5    0    0    0   12    0    0    3    1    2
    2    2    4    0   72   99    0   32   32    0    0    1  100    0    0  222
    1    0    1    0
      .010      .680    80.000      .008      .000   626.000     -.062    33.775
    97.100      .298      .476      .000     5.000      .000     4.000      .000
     2.500   -53.261     2.500  -999.000    23.000    30.000      .000      .069
     -.053     -.121     2.000    15.000    33.834  -116.541      .125      .880
     7.055     -.166     -.077   143.000    23.100    48.900    13.300    97.160
     1.000    -1.018      .000      .000      .000      .000      .000      .000
     6.700     8.900     5.500   980.665      .010    80.000    15.454      .000
      .000    40.000      .000    80.000      .010      .125      .000      .000
    33.780   -60.638    33.280    -4.749    33.460     -.496      .001      .125
    40.000      .010      .010      .014     4.050      .280      .000      .000
      .302      .650      .119      .087      .057      .003      .000      .000
      .000      .000      .000      .000      .000      .000      .000      .000
      .000      .000      .000      .000
      .000      .020      .050      .100      .200
      .040      .042      .044      .046      .048      .050      .055      .060
      .065      .070      .075      .080      .085      .090      .095      .100
      .110      .120      .130      .140      .150      .160      .170      .180
      .190      .200      .220      .240      .260      .280      .300      .320
      .340      .360      .380      .400      .420      .440      .460      .480
      .500      .550      .600      .650      .700      .750      .800      .850
      .900      .950     1.000     1.100     1.200     1.300     1.400     1.500
     1.600     1.700     1.800     1.900     2.000     2.200     2.400     2.600
     2.800     3.000     3.200     3.400     3.600     3.800     4.000     4.200
     4.400     4.600     4.800     5.000     5.500     6.000     6.500     7.000
     7.500     8.000     8.500     9.000     9.500    10.000    11.000    12.000
    13.000    14.000    15.000      .000      .000      .000      .000      .000
      .000      .000      .000      .000
Fourier amplitude spectra in in/sec.
  .961E-01  .784E-01  .960E-01  .392E-01  .683E-01  .202E-01  .206E+00  .555E+00
  .258E-01  .915E-01  .449E+00  .690E+00  .767E+00  .810E+00  .710E+00  .747E+00
  .883E+00  .564E+00  .870E+00  .195E+01  .249E+01  .341E+01  .553E+01  .537E+01
  .398E+01  .126E+01  .474E+01  .278E+01  .452E+01  .225E+01  .184E+01  .147E+01
  .225E+00  .980E+00  .236E+01  .135E+01  .177E+01  .163E+01  .180E+01  .124E+01
  .224E+01  .107E+02  .205E+02  .401E+02  .142E+02  .179E+02  .485E+01  .163E+02
  .577E+01  .987E+01  .151E+01  .356E+01  .162E+01  .279E+01  .183E+01  .498E+00
  .877E+00  .623E+00  .127E+01  .251E+00  .414E+00  .705E+00  .641E+00  .852E+00
  .283E+00  .153E+00  .218E+00  .210E+00  .113E+00  .167E+00  .902E-01  .313E-01
  .224E-01  .366E-01  .852E-01  .730E-01  .722E-01  .777E-01  .511E-01  .603E-01
  .554E-01  .410E-01  .189E-01  .185E-01  .258E-01  .179E-01  .104E-01  .446E-02
  .118E-01  .700E-02  .891E-02  .000E+00  .000E+00  .000E+00  .000E+00  .000E+00
  .000E+00  .000E+00  .000E+00  .000E+00
Damping =  .00. Data of Sd,Sv,Sa,Pssv,ttSd,ttSv,ttSa :
  .170E-02  .158E-02  .158E-02  .167E-02  .177E-02  .216E-02  .395E-02  .784E-02
  .318E-02  .591E-02  .836E-02  .108E-01  .152E-01  .210E-01  .165E-01  .242E-01
  .185E-01  .223E-01  .242E-01  .659E-01  .645E-01  .126E+00  .171E+00  .166E+00
  .142E+00  .787E-01  .208E+00  .145E+00  .240E+00  .155E+00  .124E+00  .985E-01
  .951E-01  .152E+00  .185E+00  .178E+00  .213E+00  .244E+00  .236E+00  .216E+00
  .331E+00  .109E+01  .244E+01  .449E+01  .267E+01  .222E+01  .107E+01  .222E+01
  .113E+01  .152E+01  .921E+00  .681E+00  .605E+00  .765E+00  .691E+00  .517E+00
  .509E+00  .373E+00  .419E+00  .406E+00  .325E+00  .448E+00  .376E+00  .383E+00
  .367E+00  .325E+00  .254E+00  .272E+00  .256E+00  .237E+00  .238E+00  .213E+00
  .220E+00  .238E+00  .250E+00  .240E+00  .243E+00  .242E+00  .231E+00  .244E+00
  .236E+00  .209E+00  .203E+00  .210E+00  .208E+00  .207E+00  .210E+00  .191E+00
  .201E+00  .198E+00  .201E+00  .000E+00  .000E+00  .000E+00  .000E+00  .000E+00
  .000E+00  .000E+00  .000E+00  .000E+00
  .124E+00  .126E+00  .967E-01  .832E-01  .146E+00  .120E+00  .302E+00  .653E+00
  .194E+00  .364E+00  .508E+00  .741E+00  .936E+00  .131E+01  .997E+00  .128E+01
  .101E+01  .101E+01  .919E+00  .260E+01  .270E+01  .479E+01  .612E+01  .585E+01
  .456E+01  .233E+01  .569E+01  .350E+01  .561E+01  .321E+01  .219E+01  .173E+01
  .144E+01  .209E+01  .259E+01  .221E+01  .261E+01  .298E+01  .261E+01  .224E+01
  .349E+01  .124E+02  .251E+02  .435E+02  .245E+02  .186E+02  .833E+01  .165E+02
  .877E+01  .101E+02  .639E+01  .464E+01  .370E+01  .376E+01  .338E+01  .342E+01
  .328E+01  .253E+01  .235E+01  .245E+01  .255E+01  .235E+01  .261E+01  .246E+01
  .220E+01  .196E+01  .195E+01  .186E+01  .187E+01  .192E+01  .198E+01  .199E+01
  .199E+01  .199E+01  .195E+01  .192E+01  .191E+01  .186E+01  .187E+01  .185E+01
  .184E+01  .186E+01  .187E+01  .186E+01  .186E+01  .186E+01  .188E+01  .188E+01
  .187E+01  .186E+01  .187E+01  .000E+00  .000E+00  .000E+00  .000E+00  .000E+00
  .000E+00  .000E+00  .000E+00  .000E+00
  .109E+00  .915E-01  .835E-01  .808E-01  .784E-01  .885E-01  .133E+00  .223E+00
  .771E-01  .123E+00  .152E+00  .173E+00  .215E+00  .265E+00  .187E+00  .248E+00
  .156E+00  .158E+00  .147E+00  .344E+00  .293E+00  .505E+00  .605E+00  .524E+00
  .402E+00  .201E+00  .440E+00  .258E+00  .363E+00  .202E+00  .141E+00  .984E-01
  .842E-01  .120E+00  .131E+00  .114E+00  .124E+00  .129E+00  .114E+00  .959E-01
  .135E+00  .368E+00  .694E+00  .109E+01  .557E+00  .403E+00  .172E+00  .314E+00
  .143E+00  .172E+00  .942E-01  .576E-01  .430E-01  .463E-01  .361E-01  .235E-01
  .203E-01  .132E-01  .132E-01  .115E-01  .831E-02  .947E-02  .667E-02  .580E-02
  .478E-02  .370E-02  .254E-02  .241E-02  .202E-02  .168E-02  .152E-02  .124E-02
  .116E-02  .115E-02  .111E-02  .983E-03  .821E-03  .687E-03  .558E-03  .510E-03
  .430E-03  .334E-03  .288E-03  .265E-03  .236E-03  .211E-03  .178E-03  .136E-03
  .122E-03  .103E-03  .913E-04  .000E+00  .000E+00  .000E+00  .000E+00  .000E+00
  .000E+00  .000E+00  .000E+00  .000E+00
  .267E+00  .236E+00  .226E+00  .228E+00  .231E+00  .272E+00  .451E+00  .821E+00
  .308E+00  .531E+00  .701E+00  .848E+00  .112E+01  .147E+01  .109E+01  .152E+01
  .106E+01  .117E+01  .117E+01  .296E+01  .270E+01  .496E+01  .632E+01  .579E+01
  .469E+01  .247E+01  .594E+01  .380E+01  .580E+01  .347E+01  .259E+01  .193E+01
  .176E+01  .265E+01  .306E+01  .280E+01  .319E+01  .348E+01  .322E+01  .283E+01
  .415E+01  .124E+02  .256E+02  .434E+02  .240E+02  .186E+02  .844E+01  .164E+02
  .789E+01  .101E+02  .579E+01  .389E+01  .317E+01  .370E+01  .310E+01  .217E+01
  .200E+01  .138E+01  .146E+01  .134E+01  .102E+01  .128E+01  .983E+00  .926E+00
  .823E+00  .681E+00  .499E+00  .503E+00  .448E+00  .392E+00  .373E+00  .319E+00
  .314E+00  .325E+00  .327E+00  .302E+00  .277E+00  .253E+00  .223E+00  .219E+00
  .198E+00  .164E+00  .150E+00  .147E+00  .137E+00  .130E+00  .120E+00  .100E+00
  .971E-01  .888E-01  .841E-01  .000E+00  .000E+00  .000E+00  .000E+00  .000E+00
  .000E+00  .000E+00  .000E+00  .000E+00
  .338E+02  .297E+02  .298E+02  .338E+02  .307E+02  .338E+02  .338E+02  .338E+02
  .298E+02  .328E+02  .328E+02  .376E+02  .344E+02  .338E+02  .284E+02  .338E+02
  .413E+02  .330E+02  .328E+02  .328E+02  .565E+02  .383E+02  .323E+02  .431E+02
  .332E+02  .341E+02  .384E+02  .366E+02  .350E+02  .310E+02  .334E+02  .380E+02
  .335E+02  .331E+02  .331E+02  .344E+02  .344E+02  .335E+02  .344E+02  .344E+02
  .331E+02  .494E+02  .376E+02  .410E+02  .354E+02  .592E+02  .430E+02  .604E+02
  .344E+02  .721E+02  .338E+02  .411E+02  .376E+02  .531E+02  .451E+02  .380E+02
  .425E+02  .318E+02  .543E+02  .376E+02  .348E+02  .344E+02  .376E+02  .771E+02
  .331E+02  .331E+02  .331E+02  .344E+02  .344E+02  .334E+02  .335E+02  .335E+02
  .348E+02  .348E+02  .331E+02  .331E+02  .331E+02  .344E+02  .344E+02  .344E+02
  .344E+02  .344E+02  .344E+02  .344E+02  .344E+02  .334E+02  .335E+02  .335E+02
  .344E+02  .344E+02  .335E+02  .000E+00  .000E+00  .000E+00  .000E+00  .000E+00
  .000E+00  .000E+00  .000E+00  .000E+00
  .338E+02  .297E+02  .764E+02  .297E+02  .307E+02  .305E+02  .340E+02  .342E+02
  .300E+02  .312E+02  .323E+02  .417E+02  .362E+02  .323E+02  .284E+02  .340E+02
  .416E+02  .330E+02  .290E+02  .328E+02  .562E+02  .382E+02  .323E+02  .431E+02
  .329E+02  .329E+02  .384E+02  .365E+02  .346E+02  .310E+02  .340E+02  .446E+02
  .314E+02  .330E+02  .349E+02  .343E+02  .343E+02  .336E+02  .343E+02  .339E+02
  .352E+02  .495E+02  .375E+02  .409E+02  .352E+02  .586E+02  .408E+02  .606E+02
  .342E+02  .728E+02  .336E+02  .352E+02  .378E+02  .534E+02  .427E+02  .346E+02
  .333E+02  .329E+02  .378E+02  .345E+02  .346E+02  .333E+02  .333E+02  .333E+02
  .333E+02  .333E+02  .346E+02  .346E+02  .333E+02  .333E+02  .333E+02  .333E+02
  .333E+02  .333E+02  .333E+02  .333E+02  .333E+02  .333E+02  .333E+02  .333E+02
  .333E+02  .333E+02  .333E+02  .333E+02  .333E+02  .333E+02  .333E+02  .333E+02
  .333E+02  .333E+02  .333E+02  .000E+00  .000E+00  .000E+00  .000E+00  .000E+00
  .000E+00  .000E+00  .000E+00  .000E+00
  .338E+02  .297E+02  .298E+02  .338E+02  .307E+02  .338E+02  .338E+02  .338E+02
  .298E+02  .328E+02  .328E+02  .376E+02  .344E+02  .338E+02  .284E+02  .338E+02
  .413E+02  .330E+02  .328E+02  .328E+02  .565E+02  .383E+02  .323E+02  .431E+02
  .332E+02  .341E+02  .384E+02  .366E+02  .350E+02  .310E+02  .334E+02  .380E+02
  .335E+02  .331E+02  .331E+02  .344E+02  .344E+02  .335E+02  .344E+02  .344E+02
  .331E+02  .494E+02  .376E+02  .410E+02  .354E+02  .592E+02  .430E+02  .604E+02
  .344E+02  .721E+02  .338E+02  .411E+02  .376E+02  .531E+02  .451E+02  .380E+02
  .425E+02  .318E+02  .543E+02  .376E+02  .348E+02  .344E+02  .376E+02  .771E+02
  .331E+02  .331E+02  .331E+02  .344E+02  .344E+02  .334E+02  .335E+02  .335E+02
  .348E+02  .348E+02  .331E+02  .331E+02  .331E+02  .344E+02  .344E+02  .344E+02
  .344E+02  .344E+02  .344E+02  .344E+02  .344E+02  .334E+02  .335E+02  .335E+02
  .344E+02  .344E+02  .335E+02  .000E+00  .000E+00  .000E+00  .000E+00  .000E+00
  .000E+00  .000E+00  .000E+00  .000E+00
Damping =  .02. Data of Sd,Sv,Sa,Pssv,ttSd,ttSv,ttSa :
  .105E-02  .119E-02  .129E-02  .142E-02  .148E-02  .169E-02  .208E-02  .299E-02
  .285E-02  .376E-02  .454E-02  .478E-02  .929E-02  .850E-02  .106E-01  .129E-01
  .990E-02  .124E-01  .154E-01  .215E-01  .362E-01  .538E-01  .817E-01  .582E-01
  .557E-01  .623E-01  .101E+00  .896E-01  .121E+00  .982E-01  .901E-01  .895E-01
  .802E-01  .121E+00  .140E+00  .133E+00  .153E+00  .184E+00  .188E+00  .220E+00
  .274E+00  .736E+00  .139E+01  .214E+01  .185E+01  .113E+01  .836E+00  .101E+01
  .801E+00  .801E+00  .745E+00  .555E+00  .500E+00  .440E+00  .480E+00  .435E+00
  .402E+00  .335E+00  .329E+00  .344E+00  .306E+00  .399E+00  .346E+00  .325E+00
  .340E+00  .308E+00  .251E+00  .249E+00  .244E+00  .225E+00  .226E+00  .211E+00
  .215E+00  .226E+00  .238E+00  .236E+00  .237E+00  .232E+00  .230E+00  .238E+00
  .231E+00  .212E+00  .206E+00  .208E+00  .205E+00  .203E+00  .206E+00  .193E+00
  .198E+00  .196E+00  .199E+00  .000E+00  .000E+00  .000E+00  .000E+00  .000E+00
  .000E+00  .000E+00  .000E+00  .000E+00
  .418E-01  .430E-01  .416E-01  .524E-01  .719E-01  .737E-01  .935E-01  .169E+00
  .156E+00  .178E+00  .184E+00  .222E+00  .467E+00  .460E+00  .544E+00  .675E+00
  .457E+00  .562E+00  .491E+00  .764E+00  .123E+01  .189E+01  .281E+01  .176E+01
  .174E+01  .191E+01  .266E+01  .216E+01  .284E+01  .205E+01  .129E+01  .132E+01
  .107E+01  .156E+01  .163E+01  .158E+01  .170E+01  .195E+01  .199E+01  .222E+01
  .270E+01  .779E+01  .142E+02  .203E+02  .173E+02  .102E+02  .720E+01  .782E+01
  .653E+01  .606E+01  .527E+01  .417E+01  .355E+01  .320E+01  .276E+01  .302E+01
  .298E+01  .227E+01  .213E+01  .234E+01  .241E+01  .229E+01  .251E+01  .240E+01
  .219E+01  .199E+01  .190E+01  .185E+01  .188E+01  .193E+01  .197E+01  .198E+01
  .198E+01  .197E+01  .195E+01  .193E+01  .191E+01  .187E+01  .187E+01  .186E+01
  .185E+01  .186E+01  .187E+01  .186E+01  .186E+01  .186E+01  .187E+01  .187E+01
  .187E+01  .187E+01  .187E+01  .000E+00  .000E+00  .000E+00  .000E+00  .000E+00
  .000E+00  .000E+00  .000E+00  .000E+00
  .669E-01  .691E-01  .682E-01  .684E-01  .657E-01  .692E-01  .705E-01  .850E-01
  .689E-01  .787E-01  .825E-01  .764E-01  .131E+00  .108E+00  .121E+00  .133E+00
  .837E-01  .881E-01  .927E-01  .112E+00  .164E+00  .214E+00  .288E+00  .184E+00
  .158E+00  .159E+00  .212E+00  .159E+00  .183E+00  .128E+00  .102E+00  .893E-01
  .710E-01  .957E-01  .993E-01  .852E-01  .889E-01  .972E-01  .908E-01  .975E-01
  .112E+00  .249E+00  .396E+00  .518E+00  .387E+00  .206E+00  .134E+00  .142E+00
  .101E+00  .909E-01  .763E-01  .470E-01  .356E-01  .266E-01  .251E-01  .198E-01
  .161E-01  .119E-01  .104E-01  .978E-02  .786E-02  .847E-02  .618E-02  .495E-02
  .447E-02  .353E-02  .253E-02  .223E-02  .196E-02  .162E-02  .147E-02  .125E-02
  .117E-02  .112E-02  .109E-02  .992E-03  .829E-03  .693E-03  .590E-03  .528E-03
  .452E-03  .370E-03  .322E-03  .293E-03  .262E-03  .236E-03  .203E-03  .165E-03
  .145E-03  .128E-03  .119E-03  .000E+00  .000E+00  .000E+00  .000E+00  .000E+00
  .000E+00  .000E+00  .000E+00  .000E+00
  .164E+00  .178E+00  .184E+00  .194E+00  .194E+00  .213E+00  .238E+00  .313E+00
  .275E+00  .338E+00  .381E+00  .376E+00  .687E+00  .593E+00  .704E+00  .811E+00
  .565E+00  .647E+00  .742E+00  .963E+00  .152E+01  .211E+01  .302E+01  .203E+01
  .184E+01  .196E+01  .288E+01  .235E+01  .291E+01  .220E+01  .189E+01  .176E+01
  .148E+01  .212E+01  .231E+01  .209E+01  .229E+01  .263E+01  .257E+01  .288E+01
  .344E+01  .841E+01  .146E+02  .207E+02  .166E+02  .949E+01  .656E+01  .743E+01
  .559E+01  .530E+01  .468E+01  .317E+01  .262E+01  .212E+01  .216E+01  .182E+01
  .158E+01  .124E+01  .115E+01  .114E+01  .962E+00  .114E+01  .907E+00  .785E+00
  .764E+00  .645E+00  .493E+00  .460E+00  .425E+00  .372E+00  .355E+00  .316E+00
  .307E+00  .309E+00  .312E+00  .296E+00  .271E+00  .243E+00  .222E+00  .213E+00
  .194E+00  .167E+00  .152E+00  .145E+00  .136E+00  .128E+00  .118E+00  .101E+00
  .958E-01  .880E-01  .834E-01  .000E+00  .000E+00  .000E+00  .000E+00  .000E+00
  .000E+00  .000E+00  .000E+00  .000E+00
  .338E+02  .338E+02  .338E+02  .338E+02  .338E+02  .338E+02  .298E+02  .298E+02
  .298E+02  .338E+02  .338E+02  .338E+02  .298E+02  .298E+02  .298E+02  .303E+02
  .338E+02  .298E+02  .328E+02  .338E+02  .303E+02  .311E+02  .307E+02  .341E+02
  .329E+02  .301E+02  .313E+02  .292E+02  .303E+02  .310E+02  .335E+02  .331E+02
  .331E+02  .331E+02  .331E+02  .334E+02  .310E+02  .335E+02  .344E+02  .344E+02
  .331E+02  .335E+02  .373E+02  .381E+02  .350E+02  .341E+02  .406E+02  .324E+02
  .344E+02  .341E+02  .338E+02  .338E+02  .376E+02  .347E+02  .430E+02  .335E+02
  .331E+02  .306E+02  .347E+02  .348E+02  .344E+02  .334E+02  .335E+02  .331E+02
  .331E+02  .331E+02  .331E+02  .309E+02  .344E+02  .334E+02  .335E+02  .335E+02
  .348E+02  .331E+02  .331E+02  .331E+02  .331E+02  .344E+02  .344E+02  .344E+02
  .344E+02  .344E+02  .344E+02  .344E+02  .344E+02  .334E+02  .335E+02  .335E+02
  .344E+02  .344E+02  .335E+02  .000E+00  .000E+00  .000E+00  .000E+00  .000E+00
  .000E+00  .000E+00  .000E+00  .000E+00
  .300E+02  .302E+02  .298E+02  .300E+02  .300E+02  .302E+02  .307E+02  .307E+02
  .298E+02  .307E+02  .300E+02  .312E+02  .298E+02  .298E+02  .298E+02  .300E+02
  .298E+02  .298E+02  .290E+02  .301E+02  .302E+02  .311E+02  .308E+02  .308E+02
  .329E+02  .300E+02  .312E+02  .291E+02  .299E+02  .299E+02  .339E+02  .330E+02
  .314E+02  .330E+02  .330E+02  .343E+02  .296E+02  .336E+02  .343E+02  .343E+02
  .330E+02  .336E+02  .371E+02  .379E+02  .352E+02  .339E+02  .333E+02  .385E+02
  .342E+02  .339E+02  .340E+02  .336E+02  .349E+02  .349E+02  .345E+02  .346E+02
  .333E+02  .329E+02  .305E+02  .345E+02  .346E+02  .333E+02  .333E+02  .333E+02
  .333E+02  .333E+02  .346E+02  .333E+02  .333E+02  .333E+02  .333E+02  .333E+02
  .333E+02  .333E+02  .333E+02  .333E+02  .333E+02  .333E+02  .333E+02  .333E+02
  .333E+02  .333E+02  .333E+02  .333E+02  .333E+02  .333E+02  .333E+02  .333E+02
  .333E+02  .333E+02  .333E+02  .000E+00  .000E+00  .000E+00  .000E+00  .000E+00
  .000E+00  .000E+00  .000E+00  .000E+00
  .338E+02  .338E+02  .338E+02  .338E+02  .338E+02  .338E+02  .298E+02  .298E+02
  .338E+02  .338E+02  .338E+02  .338E+02  .298E+02  .298E+02  .298E+02  .303E+02
  .338E+02  .298E+02  .328E+02  .338E+02  .303E+02  .311E+02  .307E+02  .341E+02
  .329E+02  .301E+02  .313E+02  .292E+02  .303E+02  .310E+02  .335E+02  .331E+02
  .331E+02  .331E+02  .331E+02  .334E+02  .310E+02  .335E+02  .344E+02  .344E+02
  .331E+02  .335E+02  .373E+02  .381E+02  .350E+02  .341E+02  .406E+02  .324E+02
  .344E+02  .341E+02  .338E+02  .338E+02  .376E+02  .347E+02  .430E+02  .334E+02
  .331E+02  .306E+02  .347E+02  .347E+02  .344E+02  .334E+02  .335E+02  .330E+02
  .331E+02  .331E+02  .331E+02  .309E+02  .344E+02  .334E+02  .334E+02  .334E+02
  .347E+02  .347E+02  .331E+02  .331E+02  .331E+02  .344E+02  .344E+02  .344E+02
  .344E+02  .344E+02  .344E+02  .344E+02  .344E+02  .334E+02  .334E+02  .334E+02
  .344E+02  .333E+02  .333E+02  .000E+00  .000E+00  .000E+00  .000E+00  .000E+00
  .000E+00  .000E+00  .000E+00  .000E+00
Damping =  .05. Data of Sd,Sv,Sa,Pssv,ttSd,ttSv,ttSa :
  .103E-02  .116E-02  .128E-02  .139E-02  .150E-02  .165E-02  .210E-02  .270E-02
  .294E-02  .361E-02  .424E-02  .478E-02  .714E-02  .810E-02  .933E-02  .104E-01
