Response and Fourier amplitude spectra (91 periods,  .04 - 15.0 sec)   for      
Corrected accelerogram   12299-K1643-10189.03       Chan 11: 360 Deg     from   
Uncorrected Accelerogram Data             Processed: 07/13/10, CGS  bv003       
Record of Wed Jul  7, 2010 16:53:20.0 PDT             (Avol1 v8.9,05/09 CSMIP)  
CSMIP Preliminary Processing            (Origin:  To be determined)             
12299-K1643-10189.03                 Start time:  7/07/10, 23:53:20.0 UTC (GPS) 
Station No. 12299   33.834N, 116.541W        K2  s/n 1643 (12 Channels)         
Palm Springs - 4-story Hospital           CGS                                   
Chan 11: 360 DegR (Sta Chn: 12)     Location: 2nd Floor: Near Center            
Record of Wed Jul  7, 2010 16:53:20.0 PDT    Wed Jul  7, 2010 16:53:20.0 PDT    
Hypocenter:  To be determined.               ML:  To be determined.
Instr Period =  .0105 sec,  Damping =  .650,  Sensitivity =  .63  v/g
                        Record length = 80.000 sec.
                                     Uncor Max  =  -.056 g , at  28.950 sec.
RMS accel of (uncor) record  =        .   Chn. metadata effective date: 06/30/10
Accelerogram bandpass filtered with 3 dB pts at   .13 and 40.00 cyc/sec
                 instrument- and baseline-corrected





Record of Wed Jul  7, 2010 16:53:20.0 PDT    Wed Jul  7, 2010 16:53:20.0 PDT

12299-K1643-10189.03      Palm Springs - 4-story Hospital   Chan 11: 360 Deg

12299-K1643-10189.03      Palm Springs - 4-story Hospital   Chan 11: 360 Deg

Units for spectra are inches and sec, except Sa is in fraction of g.

   11  100   12   12   12  200    1    3    1   24   11 1643    012299    2    0
   23   53   20    0  188    7    7 2010   10    3  36016000   41   31   76  360
16000    0  100    3 1643    1    3  800    2    0    0    0    0    0    0    0
    0    4    0    0 8000    2  222    1   18    4   76   31    3    1    0 8000
    3 8000   32   91    5   12    5    0    0    0   12    0    0    3    1    2
    2    2    4    0   72   99    0   32   32    0    0    1  100    0    0  233
    1    0    1    0
      .011      .650    80.000      .006      .000   627.000     -.056    28.950
    95.000      .298      .475      .000     5.000      .000     4.000      .000
     2.500   -15.293     2.500  -999.000    23.000    30.000      .000     -.026
      .016      .042     2.000    15.000    33.834  -116.541      .091     1.062
    11.718     -.009      .094   143.000    23.100    48.900    13.300    97.160
     1.000    -1.165      .000      .000      .000      .000      .000      .000
     6.700     8.900     5.500   980.665      .010    80.000    15.120      .000
      .000    40.000      .000    80.000      .010      .125      .000      .000
    28.950   -54.915    29.760    -3.610    29.630      .433     -.001      .125
    40.000      .010      .010     -.006     1.070      .227      .000      .000
      .184      .700      .137      .067      .048      .003      .000      .000
      .000      .000      .000      .000      .000      .000      .000      .000
      .000      .000      .000      .000
      .000      .020      .050      .100      .200
      .040      .042      .044      .046      .048      .050      .055      .060
      .065      .070      .075      .080      .085      .090      .095      .100
      .110      .120      .130      .140      .150      .160      .170      .180
      .190      .200      .220      .240      .260      .280      .300      .320
      .340      .360      .380      .400      .420      .440      .460      .480
      .500      .550      .600      .650      .700      .750      .800      .850
      .900      .950     1.000     1.100     1.200     1.300     1.400     1.500
     1.600     1.700     1.800     1.900     2.000     2.200     2.400     2.600
     2.800     3.000     3.200     3.400     3.600     3.800     4.000     4.200
     4.400     4.600     4.800     5.000     5.500     6.000     6.500     7.000
     7.500     8.000     8.500     9.000     9.500    10.000    11.000    12.000
    13.000    14.000    15.000      .000      .000      .000      .000      .000
      .000      .000      .000      .000
Fourier amplitude spectra in in/sec.
  .572E-01  .369E-01  .677E-01  .141E+00  .139E+00  .296E-01  .326E+00  .222E+00
  .263E+00  .127E+00  .387E+00  .641E+00  .584E+00  .780E+00  .225E+01  .296E+01
  .253E+01  .644E+00  .449E+00  .151E+01  .178E+01  .452E+00  .718E+00  .304E+01
  .528E+01  .478E+01  .911E+01  .431E+01  .313E+01  .365E+01  .151E+01  .638E+00
  .738E+00  .826E+00  .283E+00  .213E+01  .125E+01  .108E+01  .197E+01  .159E+01
  .131E+01  .823E+00  .113E+02  .658E+01  .278E+02  .173E+02  .997E+01  .563E+01
  .887E+01  .354E+01  .167E+01  .321E+01  .279E+01  .542E+01  .174E+01  .416E+01
  .308E+01  .160E+01  .530E+00  .812E+00  .695E+00  .701E+00  .712E+00  .803E+00
  .378E+00  .165E+00  .383E+00  .315E+00  .112E+00  .496E-01  .102E+00  .141E+00
  .874E-01  .132E+00  .882E-01  .820E-01  .722E-01  .259E-01  .249E-01  .178E-01
  .936E-02  .131E-01  .197E-01  .206E-01  .175E-01  .121E-01  .478E-02  .562E-02
  .438E-02  .169E-02  .415E-02  .000E+00  .000E+00  .000E+00  .000E+00  .000E+00
  .000E+00  .000E+00  .000E+00  .000E+00
Damping =  .00. Data of Sd,Sv,Sa,Pssv,ttSd,ttSv,ttSa :
  .989E-03  .160E-02  .149E-02  .146E-02  .164E-02  .185E-02  .380E-02  .426E-02
  .581E-02  .598E-02  .795E-02  .988E-02  .119E-01  .199E-01  .385E-01  .760E-01
  .483E-01  .296E-01  .335E-01  .501E-01  .490E-01  .453E-01  .739E-01  .119E+00
  .191E+00  .168E+00  .338E+00  .225E+00  .155E+00  .178E+00  .990E-01  .599E-01
  .746E-01  .737E-01  .162E+00  .174E+00  .120E+00  .176E+00  .210E+00  .209E+00
  .201E+00  .315E+00  .132E+01  .136E+01  .320E+01  .207E+01  .156E+01  .112E+01
  .134E+01  .711E+00  .590E+00  .579E+00  .620E+00  .113E+01  .100E+01  .113E+01
  .850E+00  .549E+00  .499E+00  .570E+00  .480E+00  .405E+00  .388E+00  .392E+00
  .335E+00  .369E+00  .330E+00  .260E+00  .221E+00  .184E+00  .198E+00  .204E+00
  .230E+00  .244E+00  .242E+00  .236E+00  .213E+00  .195E+00  .187E+00  .184E+00
  .174E+00  .178E+00  .180E+00  .186E+00  .188E+00  .185E+00  .177E+00  .177E+00
  .180E+00  .181E+00  .178E+00  .000E+00  .000E+00  .000E+00  .000E+00  .000E+00
  .000E+00  .000E+00  .000E+00  .000E+00
  .670E-01  .128E+00  .117E+00  .146E+00  .157E+00  .115E+00  .346E+00  .292E+00
  .498E+00  .352E+00  .495E+00  .638E+00  .729E+00  .122E+01  .244E+01  .459E+01
  .275E+01  .132E+01  .149E+01  .207E+01  .191E+01  .174E+01  .273E+01  .408E+01
  .621E+01  .527E+01  .962E+01  .572E+01  .372E+01  .397E+01  .191E+01  .966E+00
  .983E+00  .112E+01  .241E+01  .245E+01  .165E+01  .223E+01  .258E+01  .260E+01
  .229E+01  .333E+01  .137E+02  .129E+02  .287E+02  .174E+02  .123E+02  .889E+01
  .945E+01  .536E+01  .459E+01  .340E+01  .364E+01  .553E+01  .473E+01  .501E+01
  .341E+01  .244E+01  .267E+01  .248E+01  .262E+01  .211E+01  .187E+01  .186E+01
  .175E+01  .168E+01  .171E+01  .164E+01  .156E+01  .147E+01  .147E+01  .150E+01
  .152E+01  .151E+01  .150E+01  .149E+01  .145E+01  .144E+01  .143E+01  .143E+01
  .143E+01  .143E+01  .143E+01  .143E+01  .143E+01  .142E+01  .142E+01  .142E+01
  .142E+01  .142E+01  .142E+01  .000E+00  .000E+00  .000E+00  .000E+00  .000E+00
  .000E+00  .000E+00  .000E+00  .000E+00
  .632E-01  .927E-01  .787E-01  .704E-01  .726E-01  .755E-01  .128E+00  .121E+00
  .141E+00  .125E+00  .145E+00  .158E+00  .168E+00  .251E+00  .436E+00  .778E+00
  .408E+00  .210E+00  .203E+00  .261E+00  .223E+00  .181E+00  .261E+00  .375E+00
  .541E+00  .429E+00  .714E+00  .399E+00  .235E+00  .233E+00  .113E+00  .598E-01
  .660E-01  .582E-01  .115E+00  .112E+00  .696E-01  .931E-01  .102E+00  .930E-01
  .822E-01  .106E+00  .375E+00  .329E+00  .667E+00  .376E+00  .249E+00  .158E+00
  .169E+00  .805E-01  .603E-01  .489E-01  .441E-01  .683E-01  .522E-01  .512E-01
  .340E-01  .194E-01  .157E-01  .161E-01  .123E-01  .855E-02  .689E-02  .592E-02
  .437E-02  .420E-02  .330E-02  .230E-02  .174E-02  .131E-02  .126E-02  .118E-02
  .122E-02  .118E-02  .108E-02  .966E-03  .720E-03  .553E-03  .454E-03  .384E-03
  .317E-03  .284E-03  .254E-03  .235E-03  .213E-03  .189E-03  .150E-03  .126E-03
  .109E-03  .943E-04  .808E-04  .000E+00  .000E+00  .000E+00  .000E+00  .000E+00
  .000E+00  .000E+00  .000E+00  .000E+00
  .155E+00  .239E+00  .213E+00  .199E+00  .214E+00  .232E+00  .434E+00  .446E+00
  .562E+00  .536E+00  .666E+00  .776E+00  .879E+00  .139E+01  .254E+01  .478E+01
  .276E+01  .155E+01  .162E+01  .225E+01  .205E+01  .178E+01  .273E+01  .415E+01
  .631E+01  .527E+01  .966E+01  .589E+01  .375E+01  .400E+01  .207E+01  .118E+01
  .138E+01  .129E+01  .268E+01  .274E+01  .180E+01  .252E+01  .287E+01  .274E+01
  .253E+01  .360E+01  .138E+02  .132E+02  .287E+02  .173E+02  .122E+02  .826E+01
  .937E+01  .470E+01  .371E+01  .331E+01  .325E+01  .546E+01  .449E+01  .472E+01
  .334E+01  .203E+01  .174E+01  .188E+01  .151E+01  .116E+01  .102E+01  .946E+00
  .752E+00  .774E+00  .648E+00  .480E+00  .386E+00  .305E+00  .311E+00  .305E+00
  .329E+00  .333E+00  .317E+00  .297E+00  .243E+00  .204E+00  .181E+00  .165E+00
  .146E+00  .140E+00  .133E+00  .130E+00  .124E+00  .116E+00  .101E+00  .928E-01
  .871E-01  .811E-01  .745E-01  .000E+00  .000E+00  .000E+00  .000E+00  .000E+00
  .000E+00  .000E+00  .000E+00  .000E+00
  .289E+02  .289E+02  .303E+02  .303E+02  .352E+02  .289E+02  .349E+02  .289E+02
  .281E+02  .300E+02  .297E+02  .289E+02  .309E+02  .303E+02  .327E+02  .293E+02
  .476E+02  .297E+02  .290E+02  .332E+02  .332E+02  .283E+02  .266E+02  .465E+02
  .343E+02  .322E+02  .385E+02  .328E+02  .351E+02  .449E+02  .310E+02  .310E+02
  .296E+02  .307E+02  .297E+02  .345E+02  .348E+02  .300E+02  .328E+02  .348E+02
  .303E+02  .300E+02  .601E+02  .321E+02  .378E+02  .777E+02  .565E+02  .303E+02
  .596E+02  .296E+02  .296E+02  .620E+02  .696E+02  .777E+02  .331E+02  .453E+02
  .733E+02  .328E+02  .299E+02  .300E+02  .300E+02  .328E+02  .403E+02  .398E+02
  .296E+02  .313E+02  .314E+02  .285E+02  .285E+02  .300E+02  .300E+02  .313E+02
  .314E+02  .314E+02  .314E+02  .314E+02  .296E+02  .296E+02  .296E+02  .296E+02
  .296E+02  .314E+02  .314E+02  .296E+02  .296E+02  .296E+02  .296E+02  .296E+02
  .296E+02  .296E+02  .296E+02  .000E+00  .000E+00  .000E+00  .000E+00  .000E+00
  .000E+00  .000E+00  .000E+00  .000E+00
  .419E+02  .282E+02  .349E+02  .421E+02  .372E+02  .278E+02  .369E+02  .291E+02
  .282E+02  .300E+02  .297E+02  .778E+02  .309E+02  .303E+02  .327E+02  .303E+02
  .466E+02  .294E+02  .290E+02  .346E+02  .319E+02  .283E+02  .267E+02  .464E+02
  .343E+02  .321E+02  .391E+02  .327E+02  .350E+02  .463E+02  .320E+02  .318E+02
  .295E+02  .308E+02  .307E+02  .356E+02  .350E+02  .301E+02  .340E+02  .330E+02
  .301E+02  .301E+02  .603E+02  .322E+02  .377E+02  .775E+02  .567E+02  .305E+02
  .616E+02  .298E+02  .294E+02  .623E+02  .294E+02  .429E+02  .334E+02  .450E+02
  .401E+02  .316E+02  .302E+02  .297E+02  .297E+02  .298E+02  .298E+02  .298E+02
  .287E+02  .294E+02  .294E+02  .294E+02  .294E+02  .294E+02  .298E+02  .298E+02
  .298E+02  .298E+02  .298E+02  .298E+02  .298E+02  .294E+02  .294E+02  .294E+02
  .294E+02  .298E+02  .298E+02  .298E+02  .298E+02  .298E+02  .298E+02  .298E+02
  .298E+02  .298E+02  .298E+02  .000E+00  .000E+00  .000E+00  .000E+00  .000E+00
  .000E+00  .000E+00  .000E+00  .000E+00
  .289E+02  .289E+02  .303E+02  .303E+02  .352E+02  .289E+02  .349E+02  .289E+02
  .281E+02  .300E+02  .297E+02  .289E+02  .309E+02  .303E+02  .327E+02  .293E+02
  .476E+02  .297E+02  .290E+02  .332E+02  .332E+02  .283E+02  .266E+02  .465E+02
  .343E+02  .322E+02  .385E+02  .328E+02  .351E+02  .449E+02  .310E+02  .310E+02
  .296E+02  .307E+02  .297E+02  .345E+02  .348E+02  .300E+02  .328E+02  .348E+02
  .303E+02  .300E+02  .601E+02  .321E+02  .378E+02  .777E+02  .565E+02  .303E+02
  .596E+02  .296E+02  .296E+02  .620E+02  .696E+02  .777E+02  .331E+02  .453E+02
  .733E+02  .328E+02  .299E+02  .300E+02  .300E+02  .328E+02  .403E+02  .398E+02
  .296E+02  .313E+02  .314E+02  .285E+02  .285E+02  .300E+02  .300E+02  .313E+02
  .314E+02  .314E+02  .314E+02  .314E+02  .296E+02  .296E+02  .296E+02  .296E+02
  .296E+02  .314E+02  .314E+02  .296E+02  .296E+02  .296E+02  .296E+02  .296E+02
  .296E+02  .296E+02  .296E+02  .000E+00  .000E+00  .000E+00  .000E+00  .000E+00
  .000E+00  .000E+00  .000E+00  .000E+00
Damping =  .02. Data of Sd,Sv,Sa,Pssv,ttSd,ttSv,ttSa :
  .922E-03  .102E-02  .109E-02  .123E-02  .143E-02  .155E-02  .189E-02  .252E-02
  .300E-02  .413E-02  .470E-02  .712E-02  .901E-02  .121E-01  .183E-01  .228E-01
  .241E-01  .224E-01  .234E-01  .222E-01  .318E-01  .350E-01  .469E-01  .445E-01
  .624E-01  .781E-01  .116E+00  .108E+00  .857E-01  .749E-01  .729E-01  .580E-01
  .627E-01  .700E-01  .106E+00  .116E+00  .119E+00  .153E+00  .174E+00  .183E+00
  .190E+00  .297E+00  .560E+00  .999E+00  .148E+01  .117E+01  .104E+01  .935E+00
  .798E+00  .642E+00  .540E+00  .366E+00  .427E+00  .598E+00  .730E+00  .637E+00
  .530E+00  .432E+00  .439E+00  .494E+00  .436E+00  .351E+00  .292E+00  .287E+00
  .314E+00  .334E+00  .308E+00  .251E+00  .218E+00  .184E+00  .187E+00  .204E+00
  .223E+00  .234E+00  .235E+00  .230E+00  .208E+00  .195E+00  .188E+00  .183E+00
  .177E+00  .177E+00  .179E+00  .184E+00  .186E+00  .184E+00  .178E+00  .178E+00
  .180E+00  .180E+00  .177E+00  .000E+00  .000E+00  .000E+00  .000E+00  .000E+00
  .000E+00  .000E+00  .000E+00  .000E+00
  .462E-01  .555E-01  .525E-01  .539E-01  .564E-01  .612E-01  .107E+00  .129E+00
  .189E+00  .192E+00  .213E+00  .379E+00  .445E+00  .736E+00  .101E+01  .129E+01
  .115E+01  .104E+01  .923E+00  .816E+00  .117E+01  .124E+01  .153E+01  .138E+01
  .178E+01  .225E+01  .311E+01  .268E+01  .198E+01  .150E+01  .131E+01  .918E+00
  .903E+00  .957E+00  .137E+01  .148E+01  .140E+01  .190E+01  .218E+01  .221E+01
  .220E+01  .313E+01  .564E+01  .937E+01  .135E+02  .100E+02  .849E+01  .735E+01
  .630E+01  .497E+01  .429E+01  .296E+01  .329E+01  .361E+01  .359E+01  .294E+01
  .245E+01  .217E+01  .238E+01  .230E+01  .243E+01  .210E+01  .188E+01  .184E+01
  .172E+01  .163E+01  .166E+01  .162E+01  .155E+01  .148E+01  .147E+01  .150E+01
  .151E+01  .151E+01  .150E+01  .149E+01  .146E+01  .144E+01  .143E+01  .143E+01
  .143E+01  .143E+01  .144E+01  .143E+01  .143E+01  .143E+01  .142E+01  .142E+01
  .142E+01  .142E+01  .142E+01  .000E+00  .000E+00  .000E+00  .000E+00  .000E+00
  .000E+00  .000E+00  .000E+00  .000E+00
  .589E-01  .589E-01  .578E-01  .593E-01  .633E-01  .632E-01  .637E-01  .719E-01
  .726E-01  .859E-01  .855E-01  .114E+00  .128E+00  .153E+00  .207E+00  .232E+00
  .203E+00  .159E+00  .142E+00  .116E+00  .145E+00  .141E+00  .167E+00  .140E+00
  .177E+00  .200E+00  .246E+00  .192E+00  .130E+00  .978E-01  .829E-01  .579E-01
  .555E-01  .553E-01  .752E-01  .740E-01  .687E-01  .809E-01  .839E-01  .812E-01
  .777E-01  .100E+00  .159E+00  .242E+00  .310E+00  .212E+00  .167E+00  .133E+00
  .101E+00  .729E-01  .553E-01  .310E-01  .304E-01  .362E-01  .381E-01  .290E-01
  .212E-01  .153E-01  .139E-01  .141E-01  .112E-01  .743E-02  .520E-02  .435E-02
  .412E-02  .382E-02  .310E-02  .223E-02  .173E-02  .131E-02  .122E-02  .120E-02
  .120E-02  .115E-02  .106E-02  .959E-03  .727E-03  .578E-03  .479E-03  .407E-03
  .345E-03  .302E-03  .276E-03  .255E-03  .233E-03  .210E-03  .172E-03  .147E-03
  .128E-03  .113E-03  .993E-04  .000E+00  .000E+00  .000E+00  .000E+00  .000E+00
  .000E+00  .000E+00  .000E+00  .000E+00
  .145E+00  .152E+00  .156E+00  .168E+00  .187E+00  .194E+00  .215E+00  .264E+00
  .290E+00  .370E+00  .394E+00  .559E+00  .666E+00  .845E+00  .121E+01  .143E+01
  .137E+01  .117E+01  .113E+01  .998E+00  .133E+01  .137E+01  .173E+01  .155E+01
  .206E+01  .245E+01  .333E+01  .282E+01  .207E+01  .168E+01  .153E+01  .114E+01
  .116E+01  .122E+01  .175E+01  .182E+01  .177E+01  .219E+01  .237E+01  .239E+01
  .239E+01  .339E+01  .586E+01  .966E+01  .133E+02  .977E+01  .818E+01  .691E+01
  .557E+01  .425E+01  .339E+01  .209E+01  .224E+01  .289E+01  .327E+01  .267E+01
  .208E+01  .160E+01  .153E+01  .164E+01  .137E+01  .100E+01  .765E+00  .694E+00
  .704E+00  .700E+00  .605E+00  .464E+00  .380E+00  .304E+00  .293E+00  .305E+00
  .319E+00  .320E+00  .307E+00  .289E+00  .237E+00  .204E+00  .181E+00  .165E+00
  .148E+00  .139E+00  .132E+00  .129E+00  .123E+00  .115E+00  .102E+00  .931E-01
  .868E-01  .807E-01  .743E-01  .000E+00  .000E+00  .000E+00  .000E+00  .000E+00
  .000E+00  .000E+00  .000E+00  .000E+00
  .293E+02  .293E+02  .293E+02  .289E+02  .300E+02  .300E+02  .289E+02  .289E+02
  .289E+02  .300E+02  .297E+02  .289E+02  .289E+02  .289E+02  .289E+02  .288E+02
  .293E+02  .294E+02  .290E+02  .290E+02  .294E+02  .294E+02  .297E+02  .300E+02
  .306E+02  .309E+02  .310E+02  .295E+02  .288E+02  .310E+02  .310E+02  .296E+02
  .296E+02  .296E+02  .296E+02  .335E+02  .299E+02  .300E+02  .300E+02  .300E+02
  .300E+02  .300E+02  .352E+02  .314E+02  .354E+02  .316E+02  .306E+02  .303E+02
  .299E+02  .296E+02  .296E+02  .335E+02  .292E+02  .406E+02  .331E+02  .423E+02
  .397E+02  .328E+02  .299E+02  .300E+02  .300E+02  .328E+02  .367E+02  .398E+02
  .296E+02  .313E+02  .314E+02  .285E+02  .285E+02  .285E+02  .300E+02  .313E+02
  .314E+02  .314E+02  .314E+02  .314E+02  .296E+02  .296E+02  .296E+02  .296E+02
  .296E+02  .314E+02  .296E+02  .296E+02  .296E+02  .296E+02  .296E+02  .296E+02
  .296E+02  .296E+02  .296E+02  .000E+00  .000E+00  .000E+00  .000E+00  .000E+00
  .000E+00  .000E+00  .000E+00  .000E+00
  .234E+02  .235E+02  .283E+02  .300E+02  .300E+02  .289E+02  .287E+02  .280E+02
  .279E+02  .279E+02  .297E+02  .289E+02  .289E+02  .281E+02  .282E+02  .288E+02
  .294E+02  .294E+02  .290E+02  .290E+02  .294E+02  .294E+02  .292E+02  .252E+02
  .306E+02  .312E+02  .310E+02  .291E+02  .289E+02  .311E+02  .310E+02  .291E+02
  .325E+02  .289E+02  .298E+02  .334E+02  .298E+02  .301E+02  .301E+02  .301E+02
  .301E+02  .301E+02  .354E+02  .316E+02  .356E+02  .314E+02  .308E+02  .305E+02
  .298E+02  .298E+02  .294E+02  .294E+02  .294E+02  .290E+02  .334E+02  .420E+02
  .400E+02  .301E+02  .302E+02  .287E+02  .297E+02  .298E+02  .298E+02  .298E+02
  .298E+02  .287E+02  .294E+02  .294E+02  .294E+02  .294E+02  .298E+02  .298E+02
  .298E+02  .298E+02  .298E+02  .298E+02  .298E+02  .294E+02  .298E+02  .294E+02
  .298E+02  .298E+02  .298E+02  .298E+02  .298E+02  .298E+02  .298E+02  .298E+02
  .298E+02  .298E+02  .298E+02  .000E+00  .000E+00  .000E+00  .000E+00  .000E+00
  .000E+00  .000E+00  .000E+00  .000E+00
  .293E+02  .293E+02  .293E+02  .289E+02  .300E+02  .300E+02  .289E+02  .289E+02
  .289E+02  .300E+02  .297E+02  .289E+02  .289E+02  .289E+02  .289E+02  .288E+02
  .293E+02  .294E+02  .290E+02  .290E+02  .294E+02  .294E+02  .297E+02  .300E+02
  .306E+02  .309E+02  .310E+02  .295E+02  .288E+02  .310E+02  .310E+02  .296E+02
  .296E+02  .296E+02  .296E+02  .335E+02  .299E+02  .300E+02  .300E+02  .300E+02
  .300E+02  .300E+02  .352E+02  .314E+02  .354E+02  .316E+02  .306E+02  .303E+02
  .299E+02  .296E+02  .296E+02  .335E+02  .292E+02  .406E+02  .331E+02  .423E+02
  .397E+02  .328E+02  .299E+02  .299E+02  .300E+02  .328E+02  .367E+02  .397E+02
  .296E+02  .313E+02  .313E+02  .285E+02  .285E+02  .285E+02  .299E+02  .313E+02
  .313E+02  .313E+02  .313E+02  .313E+02  .296E+02  .296E+02  .296E+02  .296E+02
  .296E+02  .296E+02  .296E+02  .296E+02  .296E+02  .296E+02  .296E+02  .296E+02
  .296E+02  .296E+02  .296E+02  .000E+00  .000E+00  .000E+00  .000E+00  .000E+00
  .000E+00  .000E+00  .000E+00  .000E+00
Damping =  .05. Data of Sd,Sv,Sa,Pssv,ttSd,ttSv,ttSa :
  .890E-03  .985E-03  .107E-02  .119E-02  .133E-02  .146E-02  .182E-02  .230E-02
  .297E-02  .350E-02  .451E-02  .618E-02  .822E-02  .102E-01  .127E-01  .143E-01
